Category,Name,Address,Suburb,State,Postcode,CombinedAddress,Latitude,Longitude,Fax,Email,Website,Staff,Established,ABN,ABN_Status,ABN_Type,ABN_Accuracy
Religious Organisations,Aboriginal Evangelical Fellowship,16 Highclere Blv,Marangaroo,WA,6064,16 Highclere Blv.Marangaroo.WA.6064,-31.8327742,115.8379199,,,,,,14 719 010 013,Active,Entity Name,25% ABN Accuracy
Religious Organisations,Adelaide College of Ministries Incorporated,20A Fourth Ave,Klemzig,SA,5087,20A Fourth Ave.Klemzig.SA.5087,-34.8772483,138.6393577,,,,,,81 588 746 059,Active,Entity Name,25% ABN Accuracy
Religious Organisations,Anglican Institute Of Theology,Wollaston Education Centre Wollaston Rd,Mt Claremont,WA,6010,Wollaston Education Centre Wollaston Rd.Mt Claremont.WA.6010,-31.9566822,115.7700958,,,,,,59 962 540 635,Active,Other Name,25% ABN Accuracy
Religious Organisations,AngliCORD,Trinity Hall 16 Trinity Pl,East Melbourne,VIC,3002,Trinity Hall 16 Trinity Pl.East Melbourne.VIC.3002,-37.8146289,144.983708,,,,,,39 116 072 050,Active,Entity Name,25% ABN Accuracy
Religious Organisations,Archbishop Mannix Missionary College,Ventnor St,Oakleigh,VIC,3166,Ventnor St.Oakleigh.VIC.3166,-37.8893752,145.0991117,,,,,,43 206 946 086,Active,DGR Name,25% ABN Accuracy
Religious Organisations,Australia for Christ Fellowship,1070 Stud Rd,Rowville,VIC,3178,1070 Stud Rd.Rowville.VIC.3178,-37.9156344,145.2339049,(03) 9764 8011,info@acfchurch.com,www.acfchurch.com,,1986,32 006 659 356,Active,Entity Name,25% ABN Accuracy
Religious Organisations,Australian Province of The Society of Jesus,130 Power St,Hawthorn,VIC,3122,130 Power St.Hawthorn.VIC.3122,-37.8224404,145.0256113,,,,,,19 179 772 790,Active,Entity Name,25% ABN Accuracy
Religious Organisations,Belgrave Heights Convention Centre Office,3 Convention Ave,Belgrave Heights,VIC,3160,3 Convention Ave.Belgrave Heights.VIC.3160,-37.9267738,145.3498668,,,,,,87 004 352 685,Active,Entity Name,25% ABN Accuracy
Religious Organisations,Belgrave Heights Convention Lodge,23 Lockwood Rd,Belgrave Heights,VIC,3160,23 Lockwood Rd.Belgrave Heights.VIC.3160,-37.9233949,145.3481813,,,,,,87 004 352 685,Active,Entity Name,25% ABN Accuracy
Religious Organisations,Bethel Life Centre,111 George Way,Cannington,WA,6107,111 George Way.Cannington.WA.6107,-32.0110762,115.9364594,,,,,,35 504 275 391,Active,Entity Name (Historic),25% ABN Accuracy
Religious Organisations,Bible Translators,70 Graham Rd,Kangaroo Ground,VIC,3097,70 Graham Rd.Kangaroo Ground.VIC.3097,-37.6890916,145.2086424,,,http://www.wycliffe.org.au,,,22 004 705 953,Active,Entity Name,25% ABN Accuracy
Religious Organisations,Bright Moon Buddhist Society,536 Springvale Rd,Springvale,VIC,3171,536 Springvale Rd.Springvale.VIC.3171,-37.974169,145.147561,,,,,,88 245 919 930,Active,Entity Name,25% ABN Accuracy
Religious Organisations,Buddhist Meditation Centre,12 Horwood St,Whyalla,SA,5600,12 Horwood St.Whyalla.SA.5600,-33.0340871,137.5874982,,,,,,19 727 954 271,Active,Entity Name,25% ABN Accuracy
Religious Organisations,Buddhist Society Of Victoria,71 Darling Rd,Malvern East,VIC,3145,71 Darling Rd.Malvern East.VIC.3145,-37.8780209,145.0588342,,,,,,89 738 755 249,Active,Entity Name,25% ABN Accuracy
Religious Organisations,Buddhist Society Of Western Australia (Inc),18 Nanson Way,Nollamara,WA,6061,18 Nanson Way.Nollamara.WA.6061,-31.8871724,115.8423333,,,,,,22 382 478 365,Active,Entity Name,25% ABN Accuracy
Religious Organisations,Buddhist Society Of Western Australia (Inc),287 Reen Rd,Gidgegannup,WA,6083,287 Reen Rd.Gidgegannup.WA.6083,-31.7822388,116.1706626,,,,,,22 382 478 365,Active,Entity Name,25% ABN Accuracy
Religious Organisations,Bush Church Aid Society,30 Croydon Rd,Keswick,SA,5035,30 Croydon Rd.Keswick.SA.5035,-34.9442273,138.5780883,,,,,,38 434 490 314,Active,Entity Name,25% ABN Accuracy
Religious Organisations,Bush Church Aid Society,1 Burgundy St,Heidelberg,VIC,3084,1 Burgundy St.Heidelberg.VIC.3084,-37.7563978,145.0720368,,,www.bushchurchaid.com.au,,,38 434 490 314,Active,Entity Name,25% ABN Accuracy
Religious Organisations,Calvary Worship Centre,Shop 20 Springvale Plaza 792-806 Heatherton Rd,Springvale,VIC,3171,Shop 20 Springvale Plaza 792-806 Heatherton Rd.Springvale.VIC.3171,-37.9616833,145.1505334,,,,,,83 386 320 815,Active,Entity Name,25% ABN Accuracy
Religious Organisations,Chabad House of Bentleigh,13-17 Cecil St,Bentleigh East,VIC,3165,13-17 Cecil St.Bentleigh East.VIC.3165,-37.9195094,145.0715142,,,,,,50 203 376 804,Active,Entity Name,25% ABN Accuracy
Religious Organisations,Chabad House Of Malvern,316 Glenferrie Rd,Armadale,VIC,3143,316 Glenferrie Rd.Armadale.VIC.3143,-37.8521138,145.0302682,,,,,,31 899 232 724,Active,Entity Name,25% ABN Accuracy
Religious Organisations,Challenge Literature Fellowship (Aust),59B Kelvin Rd,Wattle Grove,WA,6107,59B Kelvin Rd.Wattle Grove.WA.6107,-32.0177,116.02123,,john@challengenews.org,http://www.challengenews.org,,,98 206 125 814,Active,Trading Name,25% ABN Accuracy
Religious Organisations,Child Evangelism Fellowship,7 High St,Sheffield,TAS,7306,7 High St.Sheffield.TAS.7306,-41.3850517,146.3215233,,,,,,27 003 210 624,Active,Entity Name,25% ABN Accuracy
Religious Organisations,Child Evangelism Fellowship,1089 Riversdale Rd,Surrey Hills,VIC,3127,1089 Riversdale Rd.Surrey Hills.VIC.3127,-37.8371168,145.1089193,,,,,,27 003 210 624,Active,Entity Name,25% ABN Accuracy
Religious Organisations,Chinese Christian Association of Australia,1027 Whitehorse Rd,Box Hill,VIC,3128,1027 Whitehorse Rd.Box Hill.VIC.3128,-37.8181004,145.1263285,,,,,,22 613 345 483,Active,Entity Name,25% ABN Accuracy
Religious Organisations,Chinese Christian Church Of Victoria Inc,67 Springvale Rd,Nunawading,VIC,3131,67 Springvale Rd.Nunawading.VIC.3131,-37.8126847,145.1775964,,,,,,70 972 235 132,Active,Entity Name,25% ABN Accuracy
Religious Organisations,Christian & Missionary Alliance,Cnr Montague Rd and Dwight St,Modbury,SA,5092,Cnr Montague Rd and Dwight St.Modbury.SA.5092,-34.8291501,138.6692218,,,,,,72 368 044 741,Active,Entity Name,25% ABN Accuracy
Religious Organisations,Church Of Jesus Christ Of Latter Day Saints,Ollerton Ave,Newborough,VIC,3825,Ollerton Ave.Newborough.VIC.3825,-38.1800015,146.2814781,,,,,,87 586 411 904,Active,Entity Name (Historic),25% ABN Accuracy
Religious Organisations,Church Of Jesus Christ Of Latter-Day-Saints,628 Canterbury Rd,Mitcham,VIC,3132,628 Canterbury Rd.Mitcham.VIC.3132,-37.8361211,145.1964198,,,,,,87 586 411 904,Active,Entity Name (Historic),25% ABN Accuracy
Religious Organisations,Church On the Rock,180-184 Bathurst St,Hobart,TAS,7000,180-184 Bathurst St.Hobart.TAS.7000,-42.8843097,147.3214285,,,,,,15 629 317 950,Active,Entity Name,25% ABN Accuracy
Religious Organisations,Churches Commission on Education,272 Selby St,Wembley,WA,6014,272 Selby St.Wembley.WA.6014,-31.9318006,115.8044806,,,,,,70 172 899 396,Active,Entity Name,25% ABN Accuracy
Religious Organisations,City on a Hill: Melbourne,Level 3/ 211 La Trobe St,Melbourne,VIC,3000,Level 3/ 211 La Trobe St.Melbourne.VIC.3000,-37.8105556,144.9630556,,info@cityonahill.com.au,http://www.cityonahill.com.au,,,43 292 063 559,Active,Entity Name,25% ABN Accuracy
Religious Organisations,City Revival Ministries,44 Memorial Dr,Noble Park,VIC,3174,44 Memorial Dr.Noble Park.VIC.3174,-37.9597912,145.1718323,,josehnry@gmail.com,http://www.cityrevivalministries.org,,,52 052 772 552,Active,Entity Name,25% ABN Accuracy
Religious Organisations,Council For Christian Education,Level 5/ 695 Burke Rd,Camberwell,VIC,3124,Level 5/ 695 Burke Rd.Camberwell.VIC.3124,-37.8321817,145.0560992,,,,,,43 139 580 746,Active,Entity Name,25% ABN Accuracy
Religious Organisations,Dallas Welfare & Youth Services Inc,26 Millewa Crst,Dallas,VIC,3047,26 Millewa Crst.Dallas.VIC.3047,-37.6741504,144.9291091,,,,,,39 851 031 355,Active,Entity Name,25% ABN Accuracy
Religious Organisations,David Glory Group,Level 50 101 Collins St,Melbourne,VIC,3000,Level 50 101 Collins St.Melbourne.VIC.3000,-37.814531,144.9702911,,,,,,38 060 005 076,Active,Entity Name,25% ABN Accuracy
Religious Organisations,Federation Of Australian Buddhist Councils,,Footscray West,VIC,3012,.Footscray West.VIC.3012,-37.8006709,144.8716645,,,www.buddhistcouncil.org.au,,,65 862 613 089,Active,Entity Name,25% ABN Accuracy
Religious Organisations,Freedom Church,8 Kaloorup Rd,Vasse,WA,6280,8 Kaloorup Rd.Vasse.WA.6280,-33.6781936,115.248358,,thomasgcooper@hotmail.com,http://www.freedomchurchsouthwest.com,,,89 332 704 878,Active,Entity Name,25% ABN Accuracy
Religious Organisations,Grace Lutheran Church,15 Wembley Ave,Bridgewater,SA,5155,15 Wembley Ave.Bridgewater.SA.5155,-35.0104747,138.7557614,,,,,,63 176 797 960,Active,Entity Name,25% ABN Accuracy
Religious Organisations,Hamilton Hill Bible Church,56-60 Redmond Rd,Hamilton Hill,WA,6163,56-60 Redmond Rd.Hamilton Hill.WA.6163,-32.081821,115.790272,,,,,,53 415 231 227,Active,Entity Name (Historic),25% ABN Accuracy
Religious Organisations,Hare Krishna Movement,197 Danks St,Albert Park,VIC,3206,197 Danks St.Albert Park.VIC.3206,-37.8480757,144.953967,,,,,,53 390 638 202,Active,Entity Name (Historic),25% ABN Accuracy
Religious Organisations,Holy Spirit Catholic Church,147 Seperation St,Bell Park,VIC,3215,147 Seperation St.Bell Park.VIC.3215,-38.1107036,144.338389,,,,,,60 144 969 790,Active,Entity Name,25% ABN Accuracy
Religious Organisations,Initiatives of Change,226 Kooyong Rd,Toorak,VIC,3142,226 Kooyong Rd.Toorak.VIC.3142,-37.840517,145.023803,,,,,,22 004 350 789,Active,Entity Name,25% ABN Accuracy
Religious Organisations,Interserve (Australia),28 Croydon Rd,Keswick,SA,5035,28 Croydon Rd.Keswick.SA.5035,-34.9441072,138.577971,,,,,,12 041 298 204,Active,Entity Name,25% ABN Accuracy
Religious Organisations,Islamic Co-Ordinating Council of Victoria,155 Lygon St,Brunswick East,VIC,3057,155 Lygon St.Brunswick East.VIC.3057,-37.7732882,144.9710576,,,,,,60 284 069 184,Active,Entity Name,25% ABN Accuracy
Religious Organisations,Islamic Society of Melbourne Eastern Region,1273 Wellington Rd,Lysterfield,VIC,3156,1273 Wellington Rd.Lysterfield.VIC.3156,-37.927981,145.2709794,,,,,,36 974 270 612,Active,Entity Name,25% ABN Accuracy
Religious Organisations,Jewish Learning Centre,338 Greenhill Rd,Glenside,SA,5065,338 Greenhill Rd.Glenside.SA.5065,-34.9397275,138.6384435,,,,,,58 075 310 575,Active,Entity Name,25% ABN Accuracy
Religious Organisations,Jewish National Fund,61 Woodrow Ave,Yokine,WA,6060,61 Woodrow Ave.Yokine.WA.6060,-31.9007739,115.8628216,,,,,,32 108 796 878,Active,Entity Name,25% ABN Accuracy
Religious Organisations,Kagyu E-Vam Buddhist Institute,673 Lygon St,Carlton North,VIC,3054,673 Lygon St.Carlton North.VIC.3054,-37.780092,144.970099,,,,,,30 414 677 915,Active,Trading Name,25% ABN Accuracy
Religious Organisations,Khesed Ministries,Latimer Way,Langford,WA,6147,Latimer Way.Langford.WA.6147,-32.0407947,115.9510007,,,,,,93 136 869 323,Active,Trading Name,25% ABN Accuracy
Religious Organisations,Kingdomcity Perth,15 Finlay Pl,Wangara,WA,6065,15 Finlay Pl.Wangara.WA.6065,-31.7863238,115.8108606,,,Visit Our Website,,,97 787 651 869,Active,Entity Name,25% ABN Accuracy
Religious Organisations,Knights Of The Southern Cross (S.A.) Incorporated,336 Marion Rd,North Plympton,SA,5037,336 Marion Rd.North Plympton.SA.5037,-34.9551269,138.5540121,,,,,,66 020 002 957,Active,Entity Name,25% ABN Accuracy
Religious Organisations,KPMG TRUST,Suite 11/ 1101 Hay St,West Perth,WA,6005,Suite 11/ 1101 Hay St.West Perth.WA.6005,-31.9501499,115.8456375,,info@kpmgtrust.com,http://www.kpmgtrust.com,,,43 841 587 842,Active,Entity Name,25% ABN Accuracy
Religious Organisations,Legion Of Mary,36 Windsor St,Perth,WA,6000,36 Windsor St.Perth.WA.6000,-31.9437077,115.8742875,,,,,,48 936 250 135,Active,Entity Name (Historic),25% ABN Accuracy
Religious Organisations,Legion Of Mary Senatus Of Melbourne,456 Queensberry St,North Melbourne,VIC,3051,456 Queensberry St.North Melbourne.VIC.3051,-37.8031233,144.9521823,,,,,,36 742 986 516,Active,Entity Name,25% ABN Accuracy
Religious Organisations,LifeWorks Relationship Counselling & Education Services,1/ 666 Mountain Hwy,Bayswater,VIC,3153,1/ 666 Mountain Hwy.Bayswater.VIC.3153,-37.8418967,145.2632585,,lifeworks@lifeworks.com.au,http://www.lifeworks.com.au,,,50 071 373 950,Active,DGR Name (Historic),25% ABN Accuracy
Religious Organisations,Lutheran Media,197 Archer St,North Adelaide,SA,5006,197 Archer St.North Adelaide.SA.5006,-34.9080978,138.5937564,,luthmedia@lca.org.au,www.lutheranmedia.org.au,,,99 476 253 356,Active,Entity Name,25% ABN Accuracy
Religious Organisations,Melbourne Thai Buddhist Temple,489 Elgar Rd,Box Hill,VIC,3128,489 Elgar Rd.Box Hill.VIC.3128,-37.8128778,145.1154056,,,,,,85 556 874 186,Active,Entity Name,25% ABN Accuracy
Religious Organisations,Middle East Christian Outreach,5 Court St,Box Hill,VIC,3128,5 Court St.Box Hill.VIC.3128,-37.8177215,145.12618,,,,,,59 615 943 131,Active,Entity Name,25% ABN Accuracy
Religious Organisations,Missionary Training College,Station Rd,St Leonards,TAS,7250,Station Rd.St Leonards.TAS.7250,-41.4611119,147.1968243,,,,,,22 000 637 749,Active,Business Name (Historic),25% ABN Accuracy
Religious Organisations,MST Melbourne School of Theology,5 Burwood Hwy,Wantirna,VIC,3152,5 Burwood Hwy.Wantirna.VIC.3152,-37.8596398,145.2096094,,,,,,58 004 265 016,Active,Entity Name,25% ABN Accuracy
Religious Organisations,Nations Church,10 Hayden Ct,Myaree,WA,6154,10 Hayden Ct.Myaree.WA.6154,-32.0444058,115.8178394,,info@nationschurch.com,http://www.nationschurch.com,,,20 739 138 976,Active,Entity Name,25% ABN Accuracy
Religious Organisations,New Life Christian Centre,105 Dyson Rd,Christies Beach,SA,5165,105 Dyson Rd.Christies Beach.SA.5165,-35.1371374,138.4857682,,,,,,37 407 781 196,Active,Entity Name,25% ABN Accuracy
Religious Organisations,Northside Baptist Church,145 Nelson Rd,Para Vista,SA,5093,145 Nelson Rd.Para Vista.SA.5093,-34.8334689,138.6614869,,,,,1978,24 318 383 986,Active,Entity Name,25% ABN Accuracy
Religious Organisations,OAC Ministries,Dorene St,St Marys,SA,5042,Dorene St.St Marys.SA.5042,-35.0010728,138.5790411,,,,,,59 000 275 829,Active,Entity Name,25% ABN Accuracy
Religious Organisations,OAC Ministries (Aust),9 Castlemain Hts,Leeming,WA,6149,9 Castlemain Hts.Leeming.WA.6149,-32.0750517,115.8822581,,,,,,59 000 275 829,Active,Entity Name,25% ABN Accuracy
Religious Organisations,ONE Life Church,13-15 Ormsby Ave,Parafield Gardens,SA,5107,13-15 Ormsby Ave.Parafield Gardens.SA.5107,-34.7883468,138.6162197,,pastorjeff.marshall@gmail.com,http://www.gardenschurch.org,,,93 833 865 791,Active,Entity Name,25% ABN Accuracy
Religious Organisations,Order Of St Luke The Physician In Australia,112 100 Harold St,Wantirna,VIC,3152,112 100 Harold St.Wantirna.VIC.3152,-37.853066,145.2276675,(03) 9837 5101,,,,,70 001 220 631,Active,Entity Name,25% ABN Accuracy
Religious Organisations,Potters House Christian Centre Midland,12 Loton Ave,Midland,WA,6056,12 Loton Ave.Midland.WA.6056,-31.8930506,116.0154588,,danivee@live.com.au,www.pottershousemidland.com,,,35 214 126 727,Active,Entity Name,25% ABN Accuracy
Religious Organisations,Presbyterian Church In Western Australia,14 Broadway St,Bassendean,WA,6054,14 Broadway St.Bassendean.WA.6054,-31.9022709,115.9452522,,,,,,88 617 816 558,Active,Entity Name,25% ABN Accuracy
Religious Organisations,Presbyterian Church In Western Australia,,Bicton,WA,6157,.Bicton.WA.6157,-32.0299295,115.7846258,,,,,,88 617 816 558,Active,Entity Name,25% ABN Accuracy
Religious Organisations,Reach Community Church,Unit 2 177 Beavers Rd,Northcote,VIC,3070,Unit 2 177 Beavers Rd.Northcote.VIC.3070,-37.7658312,144.9860536,,info@reachcc.org,www.reachcc.org,,,28 820 048 811,Active,Entity Name,25% ABN Accuracy
Religious Organisations,Real Life Church,,suppressed,suppressed,,.suppressed.suppressed.,,,,rochelle@reallifechurchwa.com,http://REALLIFECHURCHWA.COM,,,65 217 939 953,Active,Entity Name,25% ABN Accuracy
Religious Organisations,Rejoice Chinese Christian Communication Centre,Ste 7/ 2 Burwood Hwy,Burwood East,VIC,3151,Ste 7/ 2 Burwood Hwy.Burwood East.VIC.3151,-37.8523464,145.1325502,,,,,,99 027 261 737,Active,Entity Name,25% ABN Accuracy
Religious Organisations,Revival Fellowship Warrnambool,,Warrnambool,VIC,3280,.Warrnambool.VIC.3280,-38.3720954,142.4777782,,,,,,88 541 921 783,Active,Entity Name,25% ABN Accuracy
Religious Organisations,S A Zhulin Buddhist Association,151 May Tce,Ottoway,SA,5013,151 May Tce.Ottoway.SA.5013,-34.8425836,138.5376352,,,,,,97 409 763 363,Active,Entity Name,25% ABN Accuracy
Religious Organisations,Sai Baba Organisation,83 Glenhuntly Rd,Elwood,VIC,3184,83 Glenhuntly Rd.Elwood.VIC.3184,-37.882096,144.9831398,,,,,,98 679 526 281,Active,Entity Name,25% ABN Accuracy
Religious Organisations,Saint Ignatius Centre,110 Elizabeth St,Richmond,VIC,3121,110 Elizabeth St.Richmond.VIC.3121,-37.8123788,144.9984558,,,,,,72 005 269 554,Active,Business Name,25% ABN Accuracy
Religious Organisations,Salesian Society,25 Lipsett Tce,Brooklyn Park,SA,5032,25 Lipsett Tce.Brooklyn Park.SA.5032,-34.9297454,138.5486225,,,,,,62 009 477 918,Active,Entity Name,25% ABN Accuracy
Religious Organisations,Scripture Union Of Western Australia,82 Matlock St,Mt Hawthorn,WA,6016,82 Matlock St.Mt Hawthorn.WA.6016,-31.91989,115.83691,,,,,,34 474 372 309,Active,Entity Name,25% ABN Accuracy
Religious Organisations,Scripture Union Of Western Australia,7 Irvine St,Bayswater,WA,6053,7 Irvine St.Bayswater.WA.6053,-31.9117946,115.918019,,,www.suwa.org.au,,,34 474 372 309,Active,Entity Name,25% ABN Accuracy
Religious Organisations,Seaford Ecumenical Mission,Cnr Main and Grand Boulevard,Seaford,SA,5169,Cnr Main and Grand Boulevard.Seaford.SA.5169,-35.1853753,138.4809453,,,,,,40 683 967 385,Active,Entity Name,25% ABN Accuracy
Religious Organisations,Seventh Day Adventist Reform Movement,14 Gilbert Rd,Somerton Park,SA,5044,14 Gilbert Rd.Somerton Park.SA.5044,-34.9929889,138.5240958,,,,,,82 496 201 901,Active,Entity Name (Historic),25% ABN Accuracy
Religious Organisations,Social Policy Connections,34 Bedford St,Box Hill,VIC,3128,34 Bedford St.Box Hill.VIC.3128,-37.8267849,145.1321947,,admin@socialpolicyconnections.com.au,http://www.socialpolicyconnections.com.au/,,,97 387 847 085,Active,Entity Name,25% ABN Accuracy
Religious Organisations,Society Of Christian Doctrine,4 Sandleheath Rd,Elizabeth Grove,SA,5112,4 Sandleheath Rd.Elizabeth Grove.SA.5112,-34.7371675,138.6743376,,,,,,16 479 430 975,Active,Entity Name,25% ABN Accuracy
Religious Organisations,Society Of St Pius X,19 Tynong Rd,Tynong,VIC,3813,19 Tynong Rd.Tynong.VIC.3813,-38.083221,145.623687,,,,,,88 002 738 365,Active,Entity Name,25% ABN Accuracy
Religious Organisations,Society Of St Pius X,40 Ludstone St,Hampton,VIC,3188,40 Ludstone St.Hampton.VIC.3188,-37.933755,145.00825,,,,,,88 002 738 365,Active,Entity Name,25% ABN Accuracy
Religious Organisations,South Eastern Christian Centre,2- 8 Gleneagles Dr,Endeavour Hills,VIC,3802,2- 8 Gleneagles Dr.Endeavour Hills.VIC.3802,-37.966261,145.263642,,,secc.org.au,,,49 650 744 395,Active,Entity Name,25% ABN Accuracy
Religious Organisations,Spiritual Assembly of the Baha'is of Stirling,,Tuart Hill,WA,6060,.Tuart Hill.WA.6060,-31.8966012,115.8355193,,,,,,66 040 026 087,Active,Entity Name,25% ABN Accuracy
Religious Organisations,St Bartholomews House,Swan Unit,Midland,WA,6056,Swan Unit.Midland.WA.6056,-31.8918569,116.0134727,,,,,,92 491 228 162,Active,Entity Name,25% ABN Accuracy
Religious Organisations,St Brigid's Catholic Church,13 High St,Healesville,VIC,3777,13 High St.Healesville.VIC.3777,-37.6564368,145.5143964,,,www.stbrigidshealesville.cam.org.au/,,,99 374 070 760,Active,Entity Name,25% ABN Accuracy
Religious Organisations,St Columban's Mission Society Office,69 Woodland St,Essendon,VIC,3040,69 Woodland St.Essendon.VIC.3040,-37.7432131,144.9227742,,,www.columban.org.au,,,17 686 524 625,Active,Entity Name,25% ABN Accuracy
Religious Organisations,St Marks Community Centre,Cnr George and Moor Sts,Fitzroy,VIC,3065,Cnr George and Moor Sts.Fitzroy.VIC.3065,-37.8017189,144.9790365,,,,,,35 967 059 134,Active,Entity Name,25% ABN Accuracy
Religious Organisations,Subud Melbourne,166-168 Elder St,Heatherton,VIC,3202,166-168 Elder St.Heatherton.VIC.3202,-37.9476241,145.1013334,,,,,,54 320 269 704,Active,Entity Name,25% ABN Accuracy
Religious Organisations,Tasmanian Council Of Churches,35 Tower Rd,New Town,TAS,7008,35 Tower Rd.New Town.TAS.7008,-42.8516985,147.306732,,,,,,78 305 140 399,Active,Entity Name,25% ABN Accuracy
Religious Organisations,The Catholic Diocese of Broome,27 Robinson St,Broome,WA,6725,27 Robinson St.Broome.WA.6725,-17.960102,122.2377805,,,www.broomediocese.org/index.html,,,37 040 099 127,Active,Trading Name,25% ABN Accuracy
Religious Organisations,The Greek Orthodox Community Of SA,L 1 262-288 Franklin St,Adelaide,SA,5000,L 1 262-288 Franklin St.Adelaide.SA.5000,-34.9272745,138.5891371,,,http://www.gocsa.org.au,,,39 650 504 515,Active,Trading Name,25% ABN Accuracy
Religious Organisations,The Sufi Movement In Australia Inc,16 Petronella Ave,Wheelers Hill,VIC,3150,16 Petronella Ave.Wheelers Hill.VIC.3150,-37.9031427,145.1919855,,irenenuriadaly@iprimus.com.au,,,,65 200 668 712,Active,Entity Name,25% ABN Accuracy
Religious Organisations,Theosophical Society,,suppressed,suppressed,,.suppressed.suppressed.,,,,,,,,76 487 580 644,Active,Entity Name,25% ABN Accuracy
Religious Organisations,Tibetan Buddhist Society,1425 Mickleham Rd,Yuroke,VIC,3063,1425 Mickleham Rd.Yuroke.VIC.3063,-37.5946381,144.8804656,,contact@tushika.org,http://www.tibetanbuddhistsociety.org/,,,53 194 089 142,Active,Trading Name,25% ABN Accuracy
Religious Organisations,Tribunal Of The Catholic Church,383 Albert St,East Melbourne,VIC,3002,383 Albert St.East Melbourne.VIC.3002,-37.8100705,144.9776771,,,,,,39 028 643 733,Active,Trading Name,25% ABN Accuracy
Religious Organisations,Trinity North East,2-18 Golden Grove Rd,Modbury North,SA,5092,2-18 Golden Grove Rd.Modbury North.SA.5092,-34.8263298,138.6926785,,admin@trinitynortheast.org.au,http://www.trinitynortheast.org.au,,,46 556 124 243,Active,Entity Name,25% ABN Accuracy
Religious Organisations,Truth & Liberation Concern (Christian Community Church),265 Canterbury Rd,Bayswater North,VIC,3153,265 Canterbury Rd.Bayswater North.VIC.3153,-37.8315445,145.2743551,,,,,,76 587 071 524,Active,Entity Name,25% ABN Accuracy
Religious Organisations,Uniting Care Wesley Adelaide,Kuitpo Community Admnstrn and Rehabilitation,Hope Forest,SA,5172,Kuitpo Community Admnstrn and Rehabilitation.Hope Forest.SA.5172,-35.2795209,138.6212558,,,,,,33 174 490 373,Active,Other Name,25% ABN Accuracy
Religious Organisations,Victorian Council Of Christian Education,2A Chapel St,St Kilda,VIC,3182,2A Chapel St.St Kilda.VIC.3182,-37.858951,144.992994,,,,,,96 810 755 635,Active,Entity Name,25% ABN Accuracy
Religious Organisations,Vietnamese Christian Community Incorporated,29 South Tce,Pooraka,SA,5095,29 South Tce.Pooraka.SA.5095,-34.8351979,138.6126578,,,,,,35 403 543 569,Active,Entity Name (Historic),25% ABN Accuracy
Religious Organisations,Watchtower Bible & Tract Society,758 Nepean Hwy,Mt Martha,VIC,3934,758 Nepean Hwy.Mt Martha.VIC.3934,-38.2469992,145.0377535,,,,,,42 002 861 225,Active,Entity Name,25% ABN Accuracy
Religious Organisations,West City Christian Church,86-88 Central Ave,Altona Meadows,VIC,3028,86-88 Central Ave.Altona Meadows.VIC.3028,-37.8706321,144.7694552,,westcitychristianchurch@gmail.com,,,,29 995 453 295,Active,Entity Name,25% ABN Accuracy
Religious Organisations,Woman's Christian Temperance Union,Unit 17 4 Ventnor Ave,West Perth,WA,6005,Unit 17 4 Ventnor Ave.West Perth.WA.6005,-31.9509363,115.837809,,,,,,37 470 458 235,Active,Entity Name,25% ABN Accuracy
Religious Organisations,World to Christ International,,McKinnon,VIC,3204,.McKinnon.VIC.3204,-37.9104488,145.0337951,,wtciaus@gmail.com,http://www.wtci.org.au,,,96 802 114 776,Active,Entity Name,25% ABN Accuracy
Religious Organisations,Youth For Christ,60 Victoria St,Warragul,VIC,3820,60 Victoria St.Warragul.VIC.3820,-38.1596338,145.9302325,,,,,,75 034 537 271,Active,Entity Name,25% ABN Accuracy
Religious Organisations,CityLife Church,284 Thompsons Rd,Lower Templestowe,VIC,3107,284 Thompsons Rd.Lower Templestowe.VIC.3107,-37.7670778,145.1071093,,,,,,25 185 756 875,Cancelled,Trading Name,25% ABN Accuracy
Religious Organisations,Fruitful Vine Ministries,500 Kelletts Rd,Lysterfield,VIC,3156,500 Kelletts Rd.Lysterfield.VIC.3156,-37.92328,145.2819551,,,http://www.fruitfulvine.org,,,14 086 906 381,Cancelled,Entity Name,25% ABN Accuracy
Religious Organisations,Lutheran Church,8 Clarence St,Lameroo,SA,5302,8 Clarence St.Lameroo.SA.5302,-35.3264801,140.5137362,,,,,,74 195 858 811,Cancelled,Entity Name,25% ABN Accuracy
Religious Organisations,Mary MacKillop Centre,,Mt Eliza,VIC,3930,.Mt Eliza.VIC.3930,-38.1952209,145.0879338,,retreat.mteliza@sosj.org.au,,,,49 167 462 561,Cancelled,Entity Name,25% ABN Accuracy
Religious Organisations,Mission Interlink,44 Rutland Rd,Box Hill,VIC,3128,44 Rutland Rd.Box Hill.VIC.3128,-37.8203628,145.1265908,,,,,,16 270 803 390,Cancelled,Trading Name,25% ABN Accuracy
Religious Organisations,Mission Travel,605 Camberwell Rd,Camberwell,VIC,3124,605 Camberwell Rd.Camberwell.VIC.3124,-37.8472382,145.0751389,,,http://www.missiontravel.com.au/,,,91 534 867 393,Cancelled,Other Name,25% ABN Accuracy
Religious Organisations,South American Missionary Society,149 Broadgully Rd,Diamond Creek,VIC,3089,149 Broadgully Rd.Diamond Creek.VIC.3089,-37.668082,145.1627856,,,,,,32 223 440 634,Cancelled,Entity Name,25% ABN Accuracy
Religious Organisations,Students for Christ Victoria & Tasmania,11- 17 Evans St,Burwood,VIC,3125,11- 17 Evans St.Burwood.VIC.3125,-37.8531163,145.1023569,,,,,,30 754 803 649,Cancelled,Trading Name,25% ABN Accuracy
Religious Organisations,Sukyo Mahikari Australia,Hobart Centre 1st Floor Biggins Block Old Hobart High School,North Hobart,TAS,7000,Hobart Centre 1st Floor Biggins Block Old Hobart High School.North Hobart.TAS.7000,-42.8707933,147.3166017,,,,,,34 310 903 471,Cancelled,Entity Name,25% ABN Accuracy
Religious Organisations,Anglicare Tasmania Inc,6 Strahan St,South Burnie,TAS,7320,6 Strahan St.South Burnie.TAS.7320,-41.0592613,145.9078521,,,,,,90 979 742 836,Active,Entity Name,50% ABN Accuracy
Religious Organisations,Assemblies Of God,114 Nollamara Ave,Nollamara,WA,6061,114 Nollamara Ave.Nollamara.WA.6061,-31.8809696,115.8472318,,,,,,16 231 783 503,Active,Entity Name,50% ABN Accuracy
Religious Organisations,Assembly Of God,65 Albert St,Sebastopol,VIC,3356,65 Albert St.Sebastopol.VIC.3356,-37.5874459,143.841344,,office@citychurchballarat.com,http://www.citychurchballarat.com,,,60 909 571 262,Active,Trading Name,50% ABN Accuracy
Religious Organisations,Assembly Of God,88 Main Rd,Hepburn Springs,VIC,3461,88 Main Rd.Hepburn Springs.VIC.3461,-37.3151819,144.1378618,,office@citychurchballarat.com,http://www.Citychurchballarat.com,,,60 909 571 262,Active,Trading Name,50% ABN Accuracy
Religious Organisations,Australian Christian Churches,300 Albert St,East Melbourne,VIC,3002,300 Albert St.East Melbourne.VIC.3002,-37.8098951,144.9816961,,,,,,58 123 514 361,Active,Entity Name,50% ABN Accuracy
Religious Organisations,Australian Fellowship Of Evangelical Students,29 Deepdean Ave,Mitchell Park,SA,5043,29 Deepdean Ave.Mitchell Park.SA.5043,-35.0090147,138.5653772,,,,,,91 509 626 599,Active,Entity Name,50% ABN Accuracy
Religious Organisations,Catholic Church,Kentish Rd,Gawler Belt,SA,5118,Kentish Rd.Gawler Belt.SA.5118,-34.5794358,138.7323038,,,,,,45 373 620 104,Active,Business Name,50% ABN Accuracy
Religious Organisations,Catholic Development Fund,65 Foster St,Sale,VIC,3850,65 Foster St.Sale.VIC.3850,-38.1113214,147.0633659,,,,,,15 274 943 760,Active,Trading Name,50% ABN Accuracy
Religious Organisations,Catholic Development Fund,Cnr Yarra and Myer Sts,Geelong,VIC,3220,Cnr Yarra and Myer Sts.Geelong.VIC.3220,-38.152145,144.3613451,,,,,,15 274 943 760,Active,Trading Name,50% ABN Accuracy
Religious Organisations,Catholic Development Fund,160 Foster St,Dandenong,VIC,3175,160 Foster St.Dandenong.VIC.3175,-37.989254,145.2177647,,,,,,15 274 943 760,Active,Trading Name,50% ABN Accuracy
Religious Organisations,Catholic Development Fund,96 Wellington Parade,East Melbourne,VIC,3002,96 Wellington Parade.East Melbourne.VIC.3002,-37.8163605,144.9869114,,invest@melbcdf.org.au,www.melbcdf.org.au,,,15 274 943 760,Active,Trading Name,50% ABN Accuracy
Religious Organisations,Catholic Education Office,,Broome,WA,6725,.Broome.WA.6725,-17.96182,122.236998,,,,,,91 893 631 195,Active,Entity Name,50% ABN Accuracy
Religious Organisations,Catholic Parish,34 Santa Gertrudis Dr,Lower Chittering,WA,6084,34 Santa Gertrudis Dr.Lower Chittering.WA.6084,-31.5605371,116.0781125,,,http://www.ginginchitteringparish.org.au,,,25 328 758 007,Active,Other Name,50% ABN Accuracy
Religious Organisations,Chabad House,,Launceston,TAS,7250,.Launceston.TAS.7250,-41.439068,147.1357671,,,,,,69 075 532 197,Active,Entity Name (Historic),50% ABN Accuracy
Religious Organisations,Christian Business Men - Australia,1A Sandford St,Tea Tree Gully,SA,5091,1A Sandford St.Tea Tree Gully.SA.5091,-34.8194736,138.7226522,,,,,,42 005 622 515,Active,Business Name,50% ABN Accuracy
Religious Organisations,Christian Church In Australia,111 George Way,Cannington,WA,6107,111 George Way.Cannington.WA.6107,-32.0110762,115.9364594,,,,,,44 902 486 497,Active,Entity Name,50% ABN Accuracy
Religious Organisations,Christian Family Church,33 Cants Rd,Colac,VIC,3250,33 Cants Rd.Colac.VIC.3250,-38.3405406,143.5684293,,,,,,17 073 741 934,Active,Entity Name (Historic),50% ABN Accuracy
Religious Organisations,Christian Outreach Centre,40 Donovans Rd,Warrnambool,VIC,3280,40 Donovans Rd.Warrnambool.VIC.3280,-38.3663025,142.4888369,,,,,,72 157 669 672,Active,Entity Name,50% ABN Accuracy
Religious Organisations,Common Ground Church,Maiden Gully Hall Carolyn Way,Maiden Gully,VIC,3551,Maiden Gully Hall Carolyn Way.Maiden Gully.VIC.3551,-36.7431117,144.2100572,,info@commongroundlife.com.au,http://www.commongroundlife.com.au,,,53 573 084 286,Active,Entity Name,50% ABN Accuracy
Religious Organisations,Congregational Christian Church in Samoa Melbourne Parish Inc.,1 Hollow Way,Mill Park,VIC,3082,1 Hollow Way.Mill Park.VIC.3082,-37.6544138,145.0604313,,cccsmelbparish@yahoo.com.au,,,,39 097 054 918,Active,Entity Name,50% ABN Accuracy
Religious Organisations,Connect Christian Church,6 Bray St,Hastings,VIC,3915,6 Bray St.Hastings.VIC.3915,-38.3135568,145.1813525,,,,,,11 170 013 113,Active,Trading Name,50% ABN Accuracy
Religious Organisations,Coptic Orthodox Church,318 Shepperton Rd,East Victoria Park,WA,6101,318 Shepperton Rd.East Victoria Park.WA.6101,-31.987422,115.9098184,,,,,,73 797 860 219,Active,Trading Name,50% ABN Accuracy
Religious Organisations,Croatian Catholic Centre,171 South Rd,Ridleyton,SA,5008,171 South Rd.Ridleyton.SA.5008,-34.8950867,138.5685058,,,,,,53 848 303 699,Active,Trading Name,50% ABN Accuracy
Religious Organisations,Daniel Villani,12 Loton Ave,Midland,WA,6056,12 Loton Ave.Midland.WA.6056,-31.8930506,116.0154588,,,,,,26 318 079 970,Active,Entity Name,50% ABN Accuracy
Religious Organisations,Daughters Of Charity,8 Wairoa Ave,Brighton,VIC,3186,8 Wairoa Ave.Brighton.VIC.3186,-37.9044691,145.0131049,,,,,,37 783 925 190,Active,Trading Name,50% ABN Accuracy
Religious Organisations,Greek Orthodox Archdiocese Of Australia,23-29 Victoria St,Coburg,VIC,3058,23-29 Victoria St.Coburg.VIC.3058,-37.743072,144.963871,,,,,,69 434 479 912,Active,Entity Name,50% ABN Accuracy
Religious Organisations,Greek Orthodox Archdiocese Of Australia,1 Gladstone St,Moonee Ponds,VIC,3039,1 Gladstone St.Moonee Ponds.VIC.3039,-37.7690212,144.923657,,,,,,69 434 479 912,Active,Entity Name,50% ABN Accuracy
Religious Organisations,Greek Orthodox Archdiocese Of Australia,44 Knight St,Clayton,VIC,3168,44 Knight St.Clayton.VIC.3168,-37.928593,145.115029,,,,,,69 434 479 912,Active,Entity Name,50% ABN Accuracy
Religious Organisations,Greek Orthodox Archdiocese Of Australia,531 Centre Rd,Bentleigh,VIC,3204,531 Centre Rd.Bentleigh.VIC.3204,-37.9192729,145.0467105,,,,,,69 434 479 912,Active,Entity Name,50% ABN Accuracy
Religious Organisations,Greek Orthodox Archdiocese Of Australia,7 Macedon Ave,Balwyn North,VIC,3104,7 Macedon Ave.Balwyn North.VIC.3104,-37.7921772,145.0726317,,,,,,69 434 479 912,Active,Entity Name,50% ABN Accuracy
Religious Organisations,Greek Orthodox Archdiocese Of Australia,1 Hopetoun Parade,Box Hill,VIC,3128,1 Hopetoun Parade.Box Hill.VIC.3128,-37.819219,145.1190907,,,,,,69 434 479 912,Active,Entity Name,50% ABN Accuracy
Religious Organisations,Iglesia Ni Cristo,241 Civic Parade,Altona,VIC,3018,241 Civic Parade.Altona.VIC.3018,-37.8624402,144.8142094,,,,,,46 002 812 259,Active,Entity Name,50% ABN Accuracy
Religious Organisations,Integrated Profit Solutions,10 Fellows Rd,Point Lonsdale,VIC,3225,10 Fellows Rd.Point Lonsdale.VIC.3225,-38.2852466,144.6033696,,,http://www.profitsolutions.com.au/,,,28 006 310 952,Active,Business Name (Historic),50% ABN Accuracy
Religious Organisations,Jehovah's Witnesses,1A Mary Ct,Robinvale,VIC,3549,1A Mary Ct.Robinvale.VIC.3549,-34.5953605,142.7753875,,,,,,42 002 861 225,Active,Trading Name,50% ABN Accuracy
Religious Organisations,LifeLink,23 Victoria Sq,Perth,WA,6000,23 Victoria Sq.Perth.WA.6000,-31.9555048,115.8654633,,,,,,48 725 340 574,Active,Trading Name,50% ABN Accuracy
Religious Organisations,Lutheran Church of Australia,182 Hancock Rd,Tea Tree Gully,SA,5091,182 Hancock Rd.Tea Tree Gully.SA.5091,-34.8194328,138.7182404,,,,,,45 585 856 589,Active,Entity Name (Historic),50% ABN Accuracy
Religious Organisations,Mission To Seafarers,61 Cliff St,Portland,VIC,3305,61 Cliff St.Portland.VIC.3305,-38.3523501,141.6094505,,,,,,90 430 045 030,Active,Entity Name,50% ABN Accuracy
Religious Organisations,Presentation Sisters,22 Arbon Way,Lockridge,WA,6054,22 Arbon Way.Lockridge.WA.6054,-31.8801704,115.9512575,,,,,,90 115 490 579,Active,Trading Name,50% ABN Accuracy
Religious Organisations,Scripture Union,34 Paterson St,Launceston,TAS,7250,34 Paterson St.Launceston.TAS.7250,-41.436556,147.137156,,,,,,34 474 372 309,Active,Trading Name,50% ABN Accuracy
Religious Organisations,Scripture Union Victoria,157 Heidelberg Rd,Northcote,VIC,3070,157 Heidelberg Rd.Northcote.VIC.3070,-37.7835702,145.0068632,,,,,,17 004 391 208,Active,Entity Name,50% ABN Accuracy
Religious Organisations,Seventh-Day Adventist Community Services,,Prospect,SA,5082,.Prospect.SA.5082,-34.8882202,138.5941014,,,,,,52 000 003 930,Active,Business Name (Historic),50% ABN Accuracy
Religious Organisations,Soka Gakkai International Australia,12 Ripon Gr,Elsternwick,VIC,3185,12 Ripon Gr.Elsternwick.VIC.3185,-37.8833747,144.9993522,,,,,,74 005 126 107,Active,Entity Name,50% ABN Accuracy
Religious Organisations,St Vincent De Paul Society,74 High St,Wodonga,VIC,3690,74 High St.Wodonga.VIC.3690,-36.1180362,146.890008,,wodonga.centre@svdp-vic.org.au,https://www.vinnies.org.au/,,,46 472 591 335,Active,Other Name,50% ABN Accuracy
Religious Organisations,Tear Australia,Unit 1/4 Solwood Lane,Blackburn,VIC,3130,Unit 1/4 Solwood Lane.Blackburn.VIC.3130,-37.8200069,145.1543494,,,,,,85 085 413 832,Active,Entity Name,50% ABN Accuracy
Religious Organisations,The Revival Fellowship,45 John Rice Ave,Elizabeth Vale,SA,5112,45 John Rice Ave.Elizabeth Vale.SA.5112,-34.7489037,138.6686955,,,,,,81 311 970 074,Active,Entity Name,50% ABN Accuracy
Religious Organisations,The Salvation Army,118 Burke St,Warragul,VIC,3820,118 Burke St.Warragul.VIC.3820,-38.1588351,145.919035,,,,,,94 917 169 560,Active,Trading Name,50% ABN Accuracy
Religious Organisations,Transformation Centre,107 Woods St,Newport,VIC,3015,107 Woods St.Newport.VIC.3015,-37.8455019,144.8717037,,,Visit Our Website,,,42 780 578 611,Active,Business Name,50% ABN Accuracy
Religious Organisations,Trumpet Call Ministries Inc.,46 Applewood Dr,Knoxfield,VIC,3180,46 Applewood Dr.Knoxfield.VIC.3180,-37.8775774,145.248861,,,,,,51 339 293 329,Active,Entity Name (Historic),50% ABN Accuracy
Religious Organisations,Westminster Presbyterian Church,72 Sutton St,Mandurah,WA,6210,72 Sutton St.Mandurah.WA.6210,-32.52702,115.72369,,tony@wpcmc.net,http://www.wpcmc.net,,,14 209 061 363,Active,Trading Name,50% ABN Accuracy
Religious Organisations,Youth With A Mission,1 Kent Rd,Surrey Hills,VIC,3127,1 Kent Rd.Surrey Hills.VIC.3127,-37.8275094,145.0902174,,,,,,63 932 277 049,Active,Entity Name,50% ABN Accuracy
Religious Organisations,Youthcare,1/ 103 Catherine St,Morley,WA,6943,1/ 103 Catherine St.Morley.WA.6943,-31.902272,115.900287,,info@youthcare.org.au,http://www.youthcare.org.au,,,70 172 899 396,Active,Trading Name,50% ABN Accuracy
Religious Organisations,Aboriginal Catholic Ministry,434 St Georges Rd,Thornbury,VIC,3071,434 St Georges Rd.Thornbury.VIC.3071,-37.7551138,144.9946824,,,,,,40 453 682 263,Cancelled,Entity Name,50% ABN Accuracy
Religious Organisations,Assemblies Of God In Australia,Princes Hwy,Mulgrave,VIC,3170,Princes Hwy.Mulgrave.VIC.3170,-37.9331882,145.156653,,,,,,95 979 076 984,Cancelled,Entity Name,50% ABN Accuracy
Religious Organisations,Christian Revival Crusade,118 Ballan Rd,Werribee,VIC,3030,118 Ballan Rd.Werribee.VIC.3030,-37.8952559,144.6368529,,,,,,52 435 364 755,Cancelled,Entity Name,50% ABN Accuracy
Religious Organisations,Rhema Family Church,1 Thorogood St,Burswood,WA,6100,1 Thorogood St.Burswood.WA.6100,-31.9664187,115.8936707,,,,,,52 045 956 558,Cancelled,Trading Name (Historic),50% ABN Accuracy
Religious Organisations,The Mission to Seafarers,7 The Esplanade,North Shore,VIC,3214,7 The Esplanade.North Shore.VIC.3214,-38.0997062,144.3691362,,,,,,57 351 654 755,Cancelled,Other Name (Historic),50% ABN Accuracy
Religious Organisations,The Mission To Seafarers,166 Dempster Strs,Esperance,WA,6450,166 Dempster Strs.Esperance.WA.6450,-33.869532,121.8904581,,seafarers@westnet.com.au,www.mts.org.au/esperance.html,,,57 351 654 755,Cancelled,Other Name (Historic),50% ABN Accuracy
Religious Organisations,All For Jesus Evangelistic Association Inc,13 Perkins Ave,Hoppers Crossing,VIC,3029,13 Perkins Ave.Hoppers Crossing.VIC.3029,-37.8671872,144.6913964,,,,,,71 794 384 101,Active,Entity Name (Historic),75% ABN Accuracy
Religious Organisations,Anglican Institute Of Theology Religious & Education,Hardy Rd,Nedlands,WA,6009,Hardy Rd.Nedlands.WA.6009,-31.9715089,115.8135299,,,,,,59 962 540 635,Active,Other Name,75% ABN Accuracy
Religious Organisations,Community Of Christ,2 - 4 Logan St St,Frankston,VIC,3199,2 - 4 Logan St St.Frankston.VIC.3199,-38.1458595,145.1433716,,,,,,87 586 411 904,Active,Entity Name,75% ABN Accuracy
Religious Organisations,Community Of Christ,241 Poath Rd,Hughesdale,VIC,3166,241 Poath Rd.Hughesdale.VIC.3166,-37.901046,145.0751167,,,,,,87 586 411 904,Active,Entity Name,75% ABN Accuracy
Religious Organisations,Concern Australia,215 Wellington St,Collingwood,VIC,3066,215 Wellington St.Collingwood.VIC.3066,-37.8011841,144.98681,,,,,,12 060 206 671,Active,Trading Name,75% ABN Accuracy
Religious Organisations,Connections UnitingCare,48 Blackburn Rd,Blackburn,VIC,3130,48 Blackburn Rd.Blackburn.VIC.3130,-37.8232012,145.1521131,,,,,,90 676 577 035,Active,Entity Name,75% ABN Accuracy
Religious Organisations,Eternity Aid,37 Graham Ct,Hoppers Crossing,VIC,3029,37 Graham Ct.Hoppers Crossing.VIC.3029,-37.8738249,144.7292471,,,,,,24 004 350 798,Active,Business Name (Historic),75% ABN Accuracy
Religious Organisations,Mighty Living Waters Life Fellowship,,Riverton,WA,6148,.Riverton.WA.6148,-32.0337878,115.8931707,,,,,,12 086 262 816,Active,Entity Name,75% ABN Accuracy
Religious Organisations,Prahran Mission,15 Cromwell Rd,South Yarra,VIC,3141,15 Cromwell Rd.South Yarra.VIC.3141,-37.8453599,144.9995029,,,http://www.prahranmission.org.au,,,77 812 307 472,Active,Entity Name,75% ABN Accuracy
Religious Organisations,Punch Bowl Bible Chapel,100 Punchbowl Rd,Punchbowl,TAS,7249,100 Punchbowl Rd.Punchbowl.TAS.7249,-41.4575797,147.1659863,,,,,,39 766 352 643,Active,Entity Name (Historic),75% ABN Accuracy
Religious Organisations,St Bartholomews House Inc,Unit 3/ 91 Patterson Dr,Middle Swan,WA,6056,Unit 3/ 91 Patterson Dr.Middle Swan.WA.6056,-31.8739595,116.0183683,,,,,,92 491 228 162,Active,Entity Name,75% ABN Accuracy
Religious Organisations,Word For The World Christian Fellowship,21 Honeyeater Crst,Taylors Lakes,VIC,3038,21 Honeyeater Crst.Taylors Lakes.VIC.3038,-37.6946198,144.7844877,,,,,,19 590 992 488,Active,Trading Name,75% ABN Accuracy
Religious Organisations,Abacus Christian Church,214 William St,Northbridge,WA,6003,214 William St.Northbridge.WA.6003,-31.9489558,115.8597143,,,,,,,,,
Religious Organisations,Aboriginal Catholic Ministry & Council,5 Baker Ave,Perth,WA,6000,5 Baker Ave.Perth.WA.6000,-31.9432237,115.8649072,,,,,,92 110 379 300,Active,Entity Name,99% ABN Accuracy
Religious Organisations,Aboriginal Evangelical Church Balga,16 Highclere Blv,Marangaroo,WA,6064,16 Highclere Blv.Marangaroo.WA.6064,-31.8327742,115.8379199,,,,,,,,,
Religious Organisations,Access Ministries,Level 5/ 695 Burke Rd,Camberwell,VIC,3124,Level 5/ 695 Burke Rd.Camberwell.VIC.3124,-37.8321817,145.0560992,,,,,,59 004 240 779,Active,Business Name,99% ABN Accuracy
Religious Organisations,Adelaide Revival Fellowship Incorporated,25 Belair Rd,Kingswood,SA,5062,25 Belair Rd.Kingswood.SA.5062,-34.967611,138.6092136,,vogue@adelaiderevival.com,http://www.adelaiderevival.com,,,95 058 625 152,Active,Entity Name,99% ABN Accuracy
Religious Organisations,Adelaide Theosophical Society Inc,310 South Tce,Adelaide,SA,5000,310 South Tce.Adelaide.SA.5000,-34.9348405,138.6115295,,,,,,76 487 580 644,Active,Entity Name,99% ABN Accuracy
Religious Organisations,All Saints' Parish of Newtown & Geelong West,113 Nobel St,Newtown,VIC,3220,113 Nobel St.Newtown.VIC.3220,-38.1536281,144.3397553,,office@allsaints.net,http://www.allsaintsnewtown.com,,,,,,
Religious Organisations,Amazing Discoveries Australia,1st Floor Suite 6 30- 32 Ellingworth Parade,Box Hill,VIC,3128,1st Floor Suite 6 30- 32 Ellingworth Parade.Box Hill.VIC.3128,-37.8208563,145.1259313,,,,,,,,,
Religious Organisations,Ambassadors Of Jesus Christian Assemblies,?Embassy? 25 Wheeler Vic,Corryong,VIC,3707,?Embassy? 25 Wheeler Vic.Corryong.VIC.3707,-36.1965306,147.9066468,,,,,,,,,
Religious Organisations,Anglican Community Of The Holy Name,40 Cavanagh St,Cheltenham,VIC,3192,40 Cavanagh St.Cheltenham.VIC.3192,-37.9614637,145.0658919,,,,,,,,,
Religious Organisations,Anglican Parish Of The Bellarine,11-15 Brown St,Portarlington,VIC,3223,11-15 Brown St.Portarlington.VIC.3223,-38.1166488,144.6540282,,,http://www.bellarineparish.org/,,,,,,
Religious Organisations,Apostolic Campsite Busselton,189 Caves Rd,Busselton,WA,6280,189 Caves Rd.Busselton.WA.6280,-33.6585754,115.2384416,,,,,,,,,
Religious Organisations,Ashburton Presbyterian Church,1 High St,Ashburton,VIC,3147,1 High St.Ashburton.VIC.3147,-37.8603798,145.0637899,,broakes@optusnet.com.au,,,,52 417 600 813,Active,Entity Name,99% ABN Accuracy
Religious Organisations,Australian Baptist Missionary Society Inc,597 Burwood Rd,Hawthorn,VIC,3122,597 Burwood Rd.Hawthorn.VIC.3122,-37.8232504,145.0439544,,,,,,74 130 443 130,Active,Entity Name (Historic),99% ABN Accuracy
Religious Organisations,Australian Burmabuddhist Association In Western Australia Inc,92 Girrawheen Ave,Girrawheen,WA,6064,92 Girrawheen Ave.Girrawheen.WA.6064,-31.8401225,115.8407389,,,,,,,,,
Religious Organisations,Australian Christian Student Movement Pty Ltd,180 Palmerston St,Carlton,VIC,3053,180 Palmerston St.Carlton.VIC.3053,-37.795895,144.968803,,,,,,,,,
Religious Organisations,Australian Jesuit Foundation,326 Church St,Richmond,VIC,3121,326 Church St.Richmond.VIC.3121,-37.8218538,144.9979319,,,,,,24 107 869 652,Active,Entity Name,99% ABN Accuracy
Religious Organisations,Baha 'i Faith,,suppressed,suppressed,,.suppressed.suppressed.,,,,,,,,,,,
Religious Organisations,Baha'i Centre of Learning South Australia,275 Flinders St,Adelaide,SA,5000,275 Flinders St.Adelaide.SA.5000,-34.9267847,138.61067,,,,,,,,,
Religious Organisations,Bahai Faith,635 Sawpit Rd,Hindmarsh Valley,SA,5211,635 Sawpit Rd.Hindmarsh Valley.SA.5211,-35.4687171,138.582633,,annemieka9@adam.com.au,http://www.bahai.org.au,,,,,,
Religious Organisations,Baha'i Faith,20 Param St,Grovedale,VIC,3216,20 Param St.Grovedale.VIC.3216,-38.1945876,144.3351441,,,,,,,,,
Religious Organisations,Baha'i Faith,1 Tasman Hwy,Hobart,TAS,7000,1 Tasman Hwy.Hobart.TAS.7000,-42.87836,147.3336028,,,,,,,,,
Religious Organisations,Baha'I Faith,Old Paradise Rd,Sheffield,TAS,7306,Old Paradise Rd.Sheffield.TAS.7306,-41.4094732,146.3372719,,,,,,,,,
Religious Organisations,Baha'i Faith,,Springvale,VIC,3171,.Springvale.VIC.3171,-37.9473307,145.1541397,,,,,,,,,
Religious Organisations,Baha'i Faith,,suppressed,suppressed,,.suppressed.suppressed.,,,,,,,,,,,
Religious Organisations,Baha'i Faith,,suppressed,suppressed,,.suppressed.suppressed.,,,,,,,,,,,
Religious Organisations,Baha'i Faith,453 Marmion St,Myaree,WA,6154,453 Marmion St.Myaree.WA.6154,-32.0401732,115.8153206,,,,,,,,,
Religious Organisations,Baha'i Faith,17 Coral St,South Bunbury,WA,6230,17 Coral St.South Bunbury.WA.6230,-33.3589271,115.6379039,,,,,,,,,
Religious Organisations,Baha'i Faith (South Australia),,Munno Para,SA,5115,.Munno Para.SA.5115,-34.6684704,138.6969036,,,,,,,,,
Religious Organisations,Baha'i National Office,,suppressed,suppressed,,.suppressed.suppressed.,,,,,,,,,,,
Religious Organisations,Balya Retreat,130 Mayo Rd,Gidgegannup,WA,6083,130 Mayo Rd.Gidgegannup.WA.6083,-31.77826,116.252707,,,,,,,,,
Religious Organisations,Bayview Church,1 Inglewood Crst,Rosebud,VIC,3939,1 Inglewood Crst.Rosebud.VIC.3939,-38.373735,144.907972,,info@bayviewchurch.org,www.bayviewchurch.org/,,,,,,
Religious Organisations,Bellarine Assembly (RCI),131 Helms St,Newcomb,VIC,3219,131 Helms St.Newcomb.VIC.3219,-38.1717391,144.3991901,,,,,,,,,
Religious Organisations,Bellarine Assembly (RCI),137 Helms St,Newcomb,VIC,3219,137 Helms St.Newcomb.VIC.3219,-38.1723329,144.3989583,,,,,,,,,
Religious Organisations,Benwerren,30 Benwerren Dr,Yarra Junction,VIC,3797,30 Benwerren Dr.Yarra Junction.VIC.3797,-37.7799404,145.6273115,,,,,,72 005 946 789,Active,Entity Name,99% ABN Accuracy
Religious Organisations,Beth Shean Inc,1636 Railton Rd,Mersey Lea,TAS,7305,1636 Railton Rd.Mersey Lea.TAS.7305,-41.3640415,146.4656955,,,,,,,,,
Religious Organisations,Bible Baptist Church & Christian Academy,Chidlow St,Mt Helena,WA,6082,Chidlow St.Mt Helena.WA.6082,-31.8729802,116.2151821,,,,,,55 077 253 476,Cancelled,Trading Name (Historic),99% ABN Accuracy
Religious Organisations,Bible Society The,19 Arabrie Ave,Edwardstown,SA,5039,19 Arabrie Ave.Edwardstown.SA.5039,-34.9897512,138.5707546,,,http://www.biblesociety.org.au/,,,,,,
Religious Organisations,Bible-Line,Spencer Ave,Yokine,WA,6060,Spencer Ave.Yokine.WA.6060,-31.9035851,115.8625307,,,,,,,,,
Religious Organisations,Big House Communities,255 Outlook Dr,Dandenong North,VIC,3175,255 Outlook Dr.Dandenong North.VIC.3175,-37.9398721,145.2111196,,,,,,72 271 634 868,Active,Trading Name,99% ABN Accuracy
Religious Organisations,Brighton Hebrew Congregation,132- 136 Marriage Rd,Brighton East,VIC,3187,132- 136 Marriage Rd.Brighton East.VIC.3187,-37.9202989,145.0209636,,,,,,77 565 365 288,Active,Trading Name,99% ABN Accuracy
Religious Organisations,Buddhist Discussion Centre (Upwey) Ltd,33 Brooking St,Upwey,VIC,3158,33 Brooking St.Upwey.VIC.3158,-37.914793,145.3348931,,wbu@bdcu.org.au,www.bdcu.org.au,,1980,,,,
Religious Organisations,Buddhist Meditation Association of Vic Inc,43 Hemming St,Dandenong,VIC,3175,43 Hemming St.Dandenong.VIC.3175,-37.9834311,145.2061145,,,,,,,,,
Religious Organisations,Buddhist Temple Wat Ratanaprathib Vihara,45 Smith St,Thebarton,SA,5031,45 Smith St.Thebarton.SA.5031,-34.9161886,138.5732095,,,,,,,,,
Religious Organisations,Buddhist Vihara Daham Niketanaya,1690 Mickelham Rd,Yuroke,VIC,3063,1690 Mickelham Rd.Yuroke.VIC.3063,-37.5770479,144.875666,,,,,,,,,
Religious Organisations,Budhist Centre (Tibetan Kagyu),13-15 Bryan St,Invermay,TAS,7248,13-15 Bryan St.Invermay.TAS.7248,-41.4207586,147.1371238,,,,,,,,,
Religious Organisations,C3 Church Scarborough,"Preston Room, Hotel Rendezvous",Scarborough,WA,6019,"Preston Room, Hotel Rendezvous.Scarborough.WA.6019",-31.8934726,115.7565917,,,,,,,,,
Religious Organisations,Campus Crusade For Christ Australia,1/ 8 Anzed Ct,Mulgrave,VIC,3170,1/ 8 Anzed Ct.Mulgrave.VIC.3170,-37.92046,145.149777,,info@ccca.org.au,www.ccca.org.au,,,25 126 098 398,Active,Trading Name,99% ABN Accuracy
Religious Organisations,Careforce Ministries Training School,89 Monbulk Rd,Mt Evelyn,VIC,3796,89 Monbulk Rd.Mt Evelyn.VIC.3796,-37.7975734,145.3947385,,,,,,12 072 679 067,Cancelled,Entity Name (Historic),99% ABN Accuracy
Religious Organisations,Catholic Diocesan Office,5 Lyons St South,Ballarat,VIC,3350,5 Lyons St South.Ballarat.VIC.3350,-37.5625075,143.8521214,,,,,,,,,
Religious Organisations,Catholic Diocesan Youth Ministry,,Broome,WA,6725,.Broome.WA.6725,-17.96182,122.236998,,,,,,,,,
Religious Organisations,Catholic Historical Commission,383 Albert St,East Melbourne,VIC,3002,383 Albert St.East Melbourne.VIC.3002,-37.8100705,144.9776771,,,,,,,,,
Religious Organisations,Catholic Parish House,,Jurien Bay,WA,6516,.Jurien Bay.WA.6516,-30.3067032,115.0373581,,,,,,,,,
Religious Organisations,Catholic Traditional,40 Ludstone St,Hampton,VIC,3188,40 Ludstone St.Hampton.VIC.3188,-37.933755,145.00825,,,,,,,,,
Religious Organisations,Centacare Kimberley,,Broome,WA,6725,.Broome.WA.6725,-17.96182,122.236998,,,,,,86 990 067 369,Active,Entity Name (Historic),99% ABN Accuracy
Religious Organisations,Ch'an Academy,33 Brooking St,Upwey,VIC,3158,33 Brooking St.Upwey.VIC.3158,-37.914793,145.3348931,,,,,,42 611 496 488,Active,Other Name,99% ABN Accuracy
Religious Organisations,Chinese Christian Church Of Victoria Inc.,Cnr Orrong and Wynnstay Rds,Armadale,VIC,3143,Cnr Orrong and Wynnstay Rds.Armadale.VIC.3143,-37.8529643,145.0117741,,,,,,,,,
Religious Organisations,Christadelphian Answering Service,52 Alpine Way,Kilsyth,VIC,3137,52 Alpine Way.Kilsyth.VIC.3137,-37.8041092,145.3329055,,,,,,,,,
Religious Organisations,Christadelphian Diamond Valley Bible Centre,230 Mine Rd,Nutfield,VIC,3099,230 Mine Rd.Nutfield.VIC.3099,-37.6006526,145.2044103,,,,,,,,,
Religious Organisations,Christadelphian Ecclesia Hall,59 Raeburn Rd,Breadalbane,TAS,7258,59 Raeburn Rd.Breadalbane.TAS.7258,-41.5305412,147.197062,,,,,,,,,
Religious Organisations,Christian Brethren Assemblies,127-133 Garnett Rd,Wheelers Hill,VIC,3150,127-133 Garnett Rd.Wheelers Hill.VIC.3150,-37.9210258,145.1992232,,,,,,,,,
Religious Organisations,Christian Brethren Assemblies,20 Fellows St,Kew,VIC,3101,20 Fellows St.Kew.VIC.3101,-37.7997134,145.0279362,,,,,,,,,
Religious Organisations,Christian Brethren Family Care Opportunity Shop,116 Railway Ave,Ringwood East,VIC,3135,116 Railway Ave.Ringwood East.VIC.3135,-37.8115165,145.2526126,,,,,,,,,
Religious Organisations,Christian City Church Whitehorse,27 Bank St,Box Hill,VIC,3128,27 Bank St.Box Hill.VIC.3128,-37.8195441,145.1267632,,,,,,,,,
Religious Organisations,Christian Dance Fellowship Tasmanian Branch,75 Alomes Rd,Forcett,TAS,7173,75 Alomes Rd.Forcett.TAS.7173,-42.8268702,147.6279449,,,,,,,,,
Religious Organisations,Christian Life Ministries Church in Perth,173 Gildertriffe St,Scarborough,WA,6019,173 Gildertriffe St.Scarborough.WA.6019,-31.8952276,115.7744382,,robert.whately@gmail.com,www.christianlifeministries.com.au,,,,,,
Religious Organisations,Christian Orthodox Brotherhood of Apostle Paul Corp,99 Buckley St,Footscray,VIC,3011,99 Buckley St.Footscray.VIC.3011,-37.8037164,144.8938498,,,,,,,,,
Religious Organisations,Christian Youth Camps Of S.A. Inc.,,Wellington,SA,5259,.Wellington.SA.5259,-35.3318073,139.3821999,,,,,,86 857 437 624,Active,Entity Name,99% ABN Accuracy
Religious Organisations,Churchwest Kalgoorlie,46 Hannan St,Kalgoorlie,WA,6430,46 Hannan St.Kalgoorlie.WA.6430,-30.7435116,121.4762117,,,http://www.churchwest.org,,,,,,
Religious Organisations,City On A Hill: Geelong,370 Moorabool St,South Geelong,VIC,3220,370 Moorabool St.South Geelong.VIC.3220,-38.1579601,144.3545725,,info@cityonahill.com.au,http://cityonahill.com.au,,,,,,
Religious Organisations,City on a Hill: West,Hoyts Highpoint/ 120-200 Rosamond Rd,Maribyrnong,VIC,3032,Hoyts Highpoint/ 120-200 Rosamond Rd.Maribyrnong.VIC.3032,-37.7740565,144.8888811,,info@cityonahill.com.au,http://www.cityonahill.com.au,,,,,,
Religious Organisations,CityLight Church,Wetlands Education Centre 184 Hope Rd,Bibra Lake,WA,6163,Wetlands Education Centre 184 Hope Rd.Bibra Lake.WA.6163,-32.086263,115.8307567,,info@citylightchurch.net.au,www.citylightchurch.net.au,,,55 009 562 430,Active,Entity Name,99% ABN Accuracy
Religious Organisations,Company Of Sinners Inc.,23 Keith Rd,Blackwood,SA,5051,23 Keith Rd.Blackwood.SA.5051,-35.0255695,138.6228743,,,,,,38 704 573 873,Active,Entity Name,99% ABN Accuracy
Religious Organisations,Covenant Baptist Church (Reformed),Cnr Fourth Ave and Central Rd,Rossmoyne,WA,6148,Cnr Fourth Ave and Central Rd.Rossmoyne.WA.6148,-32.0385949,115.8677088,,,,,,,,,
Religious Organisations,Crossroads Victoria Christian Fellowship With Disabled Persons,Suite 1 587 Canterbury Rd,Surrey Hills,VIC,3127,Suite 1 587 Canterbury Rd.Surrey Hills.VIC.3127,-37.8254882,145.0950433,,,,,,,,,
Religious Organisations,CWG Mission 1,,Kelmscott,WA,6111,.Kelmscott.WA.6111,-32.1144464,116.0149215,,,,,,,,,
Religious Organisations,David House Fellowship Inc.,908 North Rd,Bentleigh East,VIC,3165,908 North Rd.Bentleigh East.VIC.3165,-37.906875,145.061249,,,,,,65 043 285 064,Active,Entity Name,99% ABN Accuracy
Religious Organisations,Dhammagiri Forest Hermitage,,suppressed,suppressed,,.suppressed.suppressed.,,,,,,,,,,,
Religious Organisations,Diggerland Church Inc.,26 Indi Ave,Red Cliffs,VIC,3496,26 Indi Ave.Red Cliffs.VIC.3496,-34.3070459,142.187691,,,,,,38 710 394 652,Active,Entity Name,99% ABN Accuracy
Religious Organisations,Doreen Baptist Church,25 Hazelglen Dr,Doreen,VIC,3754,25 Hazelglen Dr.Doreen.VIC.3754,-37.5885515,145.1367643,,pastor@doreenbaptist.org.au,http://www.doreenbaptist.org.au,,,40 853 576 644,Active,Entity Name,99% ABN Accuracy
Religious Organisations,Elizabeth Revival Centre,45 John Rice Ave,Elizabeth Vale,SA,5112,45 John Rice Ave.Elizabeth Vale.SA.5112,-34.7489037,138.6686955,,,,,,,,,
Religious Organisations,Faith Baptist Church,Primary School Hall Anglesea St,South Hobart,TAS,7004,Primary School Hall Anglesea St.South Hobart.TAS.7004,-42.8940338,147.311269,,,,,,26 486 858 083,Active,Trading Name,99% ABN Accuracy
Religious Organisations,Followers of Christ,,Karingal,VIC,3199,.Karingal.VIC.3199,-38.1421518,145.1581699,,,,,,,,,
Religious Organisations,Franciscan Sisters Of The Heart Of Jesus (SOHOJIC),2 Franciscan Ave,Lockleys,SA,5032,2 Franciscan Ave.Lockleys.SA.5032,-34.9238846,138.5267336,,,,,,,,,
Religious Organisations,Free Presbyterian Church Of Western Australia,5 Thistle Gr,Currambine,WA,6028,5 Thistle Gr.Currambine.WA.6028,-31.730446,115.7421024,,,,,,,,,
Religious Organisations,Freedom Church Warrnambool (ACC),141B Koroit St,Warrnambool,VIC,3280,141B Koroit St.Warrnambool.VIC.3280,-38.3836899,142.483245,,info@freedomchurch3280.com.au,http://www.freedomchurch3280.com.au,,,,,,
Religious Organisations,Fresh Christian Fellowship,90A Flores Rd,Geraldton,WA,6530,90A Flores Rd.Geraldton.WA.6530,-28.7543156,114.6305634,,freshchristianfellowship@gmail.com,,,,32 369 796 505,Cancelled,Entity Name,99% ABN Accuracy
Religious Organisations,Friends Religious Society Of,Shop 12/ 210 Toorak Rd,South Yarra,VIC,3141,Shop 12/ 210 Toorak Rd.South Yarra.VIC.3141,-37.8396973,144.9943026,,vicclerk@quakers.org.au,http://www.vic.quakers.org.au,,,,,,
Religious Organisations,Fusion Australian (WA) Inc,92 Marine Tce,Geraldton,WA,6530,92 Marine Tce.Geraldton.WA.6530,-28.7726632,114.609864,,,,,,,,,
Religious Organisations,Geneva Fellowship Inc.,197 Moriarty Rd,Latrobe,TAS,7307,197 Moriarty Rd.Latrobe.TAS.7307,-41.2269791,146.4391536,,,,,,99 742 773 710,Active,Entity Name,99% ABN Accuracy
Religious Organisations,GFS Anglican Ministry,240 Adelaide Tce,Perth,WA,6000,240 Adelaide Tce.Perth.WA.6000,-31.9579634,115.8669173,,,,,,,,,
Religious Organisations,Gideons International In Australia,,suppressed,suppressed,,.suppressed.suppressed.,,,,,,,,,,,
Religious Organisations,GLO Training Centre,20 King St,Smithton,TAS,7330,20 King St.Smithton.TAS.7330,-40.8394183,145.1251285,,,,,,,,,
Religious Organisations,God Squad Christian Motorcycle Club,215 Wellington St,Collingwood,VIC,3066,215 Wellington St.Collingwood.VIC.3066,-37.8011841,144.98681,,,,,,,,,
Religious Organisations,God's Farm,94 Woodlands Rd,Wilyabrup,WA,6280,94 Woodlands Rd.Wilyabrup.WA.6280,-33.7844047,115.0233052,,,,,,,,,
Religious Organisations,Good Shepherd Centre for Justice & Fair Trade,261 Victoria St,Abbotsford,VIC,3067,261 Victoria St.Abbotsford.VIC.3067,-37.8095929,144.993047,,,,,,,,,
Religious Organisations,Good Shepherd Sisters,,St Kilda,VIC,3182,.St Kilda.VIC.3182,-37.864,144.982,,,,,,,,,
Religious Organisations,Gospel Across the World,1st Floor Suite 6 30- 32 Ellingworth Parade,Box Hill,VIC,3128,1st Floor Suite 6 30- 32 Ellingworth Parade.Box Hill.VIC.3128,-37.8208563,145.1259313,,,,,,,,,
Religious Organisations,GreaterLife Church,4/ 347-349 Old Geelong Rd,Hoppers Crossing,VIC,3029,4/ 347-349 Old Geelong Rd.Hoppers Crossing.VIC.3029,-37.871642,144.7238705,,admin@greaterlife.com.au,http://www.greaterlife.com.au,,,,,,
Religious Organisations,Greek Orthodox Archdiocese Of Australia (Queenstown),2 West St,Queenstown,SA,5014,2 West St.Queenstown.SA.5014,-34.8599711,138.5068262,,,,,,,,,
Religious Organisations,Greek Orthodox Community Of Melbourne & Victoria,64 St David St,Thornbury,VIC,3071,64 St David St.Thornbury.VIC.3071,-37.7617639,145.0060023,,,,,,,,,
Religious Organisations,Greek Orthodox Community Of Melbourne & Victoria,Old Heidelberg Rd,Alphington,VIC,3078,Old Heidelberg Rd.Alphington.VIC.3078,-37.7801038,145.035557,,,,,,,,,
Religious Organisations,Greek Orthodox Community Of Melbourne & Victoria,380 High St,Prahran,VIC,3181,380 High St.Prahran.VIC.3181,-37.8529858,145.0004439,,,,,,,,,
Religious Organisations,Greek Orthodox Community Of Melbourne & Victoria,186 Victoria Parade,East Melbourne,VIC,3002,186 Victoria Parade.East Melbourne.VIC.3002,-37.8088442,144.9781607,,,,,,,,,
Religious Organisations,Greek Orthodox Community Of Melbourne & Victoria,2 Leeds St,Footscray,VIC,3011,2 Leeds St.Footscray.VIC.3011,-37.7974318,144.9010827,,,,,,,,,
Religious Organisations,Greek Orthodox Community Of Melbourne & Victoria,168 Lonsdale St,Melbourne,VIC,3000,168 Lonsdale St.Melbourne.VIC.3000,-37.810578,144.9673792,,info@greekcommunity.com.au,,,,,,,
Religious Organisations,Healesville Uniting Church,286 Maroondah Hwy,Healesville,VIC,3777,286 Maroondah Hwy.Healesville.VIC.3777,-37.6538805,145.517995,,jenniewren62@gmail.com,http://healesville.unitingchurch.org.au/,,,99 739 326 576,Active,Trading Name,99% ABN Accuracy
Religious Organisations,Heathmont Interchurch Help Incorporated,136 Canterbury Rd,Heathmont,VIC,3135,136 Canterbury Rd.Heathmont.VIC.3135,-37.8282557,145.2468628,,,,,,,,,
Religious Organisations,Helping Hand Centre Inc,792-806 Heatherton Rd,Springvale,VIC,3171,792-806 Heatherton Rd.Springvale.VIC.3171,-37.9615929,145.1430156,,,,,,,,,
Religious Organisations,Holy Trinity Church,,suppressed,suppressed,,.suppressed.suppressed.,,,,,,,,,,,
Religious Organisations,Hor-Kwong C,,suppressed,suppressed,,.suppressed.suppressed.,,,,,,,,,,,
Religious Organisations,ICCR,,suppressed,suppressed,,.suppressed.suppressed.,,,,,,,,,,,
Religious Organisations,Insight For Living Inc,7/ 9 Jersey Rd,Bayswater,VIC,3153,7/ 9 Jersey Rd.Bayswater.VIC.3153,-37.8402714,145.2800421,,,,,,57 813 130 585,Active,Entity Name,99% ABN Accuracy
Religious Organisations,Institute Of Religious Women,242 Hutt St,Adelaide,SA,5000,242 Hutt St.Adelaide.SA.5000,-34.9339491,138.6127655,,,,,,,,,
Religious Organisations,Interserve Australia Inc,Suites 17 18 653 Mountain Hwy,Bayswater,VIC,3153,Suites 17 18 653 Mountain Hwy.Bayswater.VIC.3153,-37.8416103,145.2610408,,,,,,12 041 298 204,Active,Entity Name,99% ABN Accuracy
Religious Organisations,Islamic Co-Ordinating Hallal Board,155 Lygon St,Brunswick East,VIC,3057,155 Lygon St.Brunswick East.VIC.3057,-37.7732882,144.9710576,,,,,,,,,
Religious Organisations,Islamic Information & Support Centre of Australia (IISCA),31 Edward St,Brunswick,VIC,3056,31 Edward St.Brunswick.VIC.3056,-37.7737195,144.9623236,,info@iisca.org,,,,,,,
Religious Organisations,Islamic Society Of Victoria,90 Cramer St,Preston,VIC,3072,90 Cramer St.Preston.VIC.3072,-37.7390496,144.9931546,,,,,,79 036 396 525,Active,Entity Name,99% ABN Accuracy
Religious Organisations,Islamic Trust of Victoria,201 Sayers Rd,Laverton,VIC,3028,201 Sayers Rd.Laverton.VIC.3028,-37.8525971,144.7219401,,,,,,,,,
Religious Organisations,Jehovah's Witnesses-Kingdom Halls,,Ridgehaven,SA,5097,.Ridgehaven.SA.5097,-34.825444,138.69561,,,,,,,,,
Religious Organisations,Jesus Is The Way Spanish Church,210 Nicholson St,Footscray,VIC,3011,210 Nicholson St.Footscray.VIC.3011,-37.80302,144.898769,,,,,,,,,
Religious Organisations,Jewish Synagogue,59 Argyle St,Hobart,TAS,7000,59 Argyle St.Hobart.TAS.7000,-42.879577,147.3280012,,,,,,,,,
Religious Organisations,Joy Christian Church,14 Station Rd,St Leonards,TAS,7250,14 Station Rd.St Leonards.TAS.7250,-41.4590716,147.1991716,,,,,,64 478 510 572,Active,Entity Name,99% ABN Accuracy
Religious Organisations,Jurien Bay Community Church Non Denominational,,Cervantes,WA,6511,.Cervantes.WA.6511,-30.5017292,115.0762536,,,,,,,,,
Religious Organisations,Kardinia Christian Church,1- 11 Kardinia Dr,Bell Post Hill,VIC,3215,1- 11 Kardinia Dr.Bell Post Hill.VIC.3215,-38.114263,144.3302344,,,www.kardiniachurch.com/home,,,,,,
Religious Organisations,Kardinia Church Warrnambool,35 Hoddle St,Warrnambool,VIC,3280,35 Hoddle St.Warrnambool.VIC.3280,-38.3663285,142.4661585,,sandro.schietroma@kardiniachurch.com,,,,,,,
Religious Organisations,Kimberley Evangelisers Of Youth,,Broome,WA,6725,.Broome.WA.6725,-17.96182,122.236998,,,,,,,,,
Religious Organisations,Kingston SE New Life Centre Inc.,33 James St,Kingston Se,SA,5275,33 James St.Kingston Se.SA.5275,-36.8281034,139.8554227,,kingstonse.nlc@bigpond.com,,,,45 464 073 996,Active,Entity Name,99% ABN Accuracy
Religious Organisations,Kuitpo Community,Kuitpo Community Admnstrn and Rehabilitation,Hope Forest,SA,5172,Kuitpo Community Admnstrn and Rehabilitation.Hope Forest.SA.5172,-35.2795209,138.6212558,,,,,,,,,
Religious Organisations,Leongatha Seventh-day Adventist Church,5 Hassett St,Leongatha,VIC,3953,5 Hassett St.Leongatha.VIC.3953,-38.4752106,145.950584,,krisandgrae@hotmail.com,http://leongatha.adventist.org.au/,,,,,,
Religious Organisations,Liber8 Church,3 Jamieson St,Warrnambool,VIC,3280,3 Jamieson St.Warrnambool.VIC.3280,-38.3772902,142.482727,,info@liber8.org.au,liber8.org.au,,1994,,,,
Religious Organisations,Liberty Life Church,121 Morphett Rd,Camden Park,SA,5038,121 Morphett Rd.Camden Park.SA.5038,-34.961393,138.5369343,,info@libertylife.com.au,www.libertylife.com.au,,,83 008 192 014,Active,Business Name,99% ABN Accuracy
Religious Organisations,Life in the Word and Better Education,1st Floor Suite 6 30- 32 Ellingworth Parade,Box Hill,VIC,3128,1st Floor Suite 6 30- 32 Ellingworth Parade.Box Hill.VIC.3128,-37.8208563,145.1259313,,,,,,,,,
Religious Organisations,LifeWorks Relationship Counselling and Education Services,648 High St,Reservoir,VIC,3073,648 High St.Reservoir.VIC.3073,-37.7299448,145.005701,,,,,,50 071 373 950,Active,Entity Name,99% ABN Accuracy
Religious Organisations,LifeWorks Relationship Counselling and Education Services,5 Everage St,Moonee Ponds,VIC,3039,5 Everage St.Moonee Ponds.VIC.3039,-37.7658162,144.9219058,,lifeworks@lifeworks.com.au,http://www.lifeworks.com.au,,,50 071 373 950,Active,Entity Name,99% ABN Accuracy
Religious Organisations,Lingsu (Aus),499 South Rd,Ashford,SA,5035,499 South Rd.Ashford.SA.5035,-34.9467575,138.5718451,,,,,,,,,
Religious Organisations,Loyal Order of the Moorabbit,,Mabins Well,VIC,2716,.Mabins Well.VIC.2716,-34.922211,145.5389444,,,,,,,,,
Religious Organisations,Lutheran Church Community Care,309 Prospect Rd,Prospect,SA,5082,309 Prospect Rd.Prospect.SA.5082,-34.8673737,138.5930439,,,http://www.lccsa.org.au,,,,,,
Religious Organisations,Mahmood Mosque,6 - 8 Toogood Ave,Beverley,SA,5009,6 - 8 Toogood Ave.Beverley.SA.5009,-34.8978608,138.5442813,,,,,,,,,
Religious Organisations,Manoah-Christian Senior Citizens Homes,86 Mills Rd,Martin,WA,6110,86 Mills Rd.Martin.WA.6110,-32.0801016,116.0226862,,,,,,,,,
Religious Organisations,Melbourne Pastors Network,7 Rimmer St,Mentone,VIC,3194,7 Rimmer St.Mentone.VIC.3194,-37.9752131,145.0595234,,,,,,,,,
Religious Organisations,Methodist Trinity Church,157 Kidds Rd,Doveton,VIC,3177,157 Kidds Rd.Doveton.VIC.3177,-37.9875334,145.2354296,,,tmc.cmca.ws,,,,,,
Religious Organisations,Mikveh Chaya Mousske Schneerson,38 Empress Rd,St Kilda East,VIC,3183,38 Empress Rd.St Kilda East.VIC.3183,-37.867862,145.0017077,,,,,,,,,
Religious Organisations,Millennium Christian Life Centre The,78 Atherton Rd,Oakleigh,VIC,3166,78 Atherton Rd.Oakleigh.VIC.3166,-37.8993898,145.0935136,,,,,,,,,
Religious Organisations,Millennium Life Charity Organisation,229 New St,Brighton,VIC,3186,229 New St.Brighton.VIC.3186,-37.9124586,144.9913545,,,,,2000,,,,
Religious Organisations,Moral Re Armament,,suppressed,suppressed,,.suppressed.suppressed.,,,,,www.au.iofc.com,,,,,,
Religious Organisations,Moral Rearmament,226 Kooyong Rd,Toorak,VIC,3142,226 Kooyong Rd.Toorak.VIC.3142,-37.840517,145.023803,,,,,,,,,
Religious Organisations,Morley Worship Centre,328 Walter Rd,Morley,WA,6062,328 Walter Rd.Morley.WA.6062,-31.8950401,115.9056642,,,,,,,,,
Religious Organisations,Native Valley Bible Fellowship,,Nairne,SA,5252,.Nairne.SA.5252,-35.036328,138.9126371,,,,,,75 665 516 239,Active,Entity Name,99% ABN Accuracy
Religious Organisations,Ninga Mia Fellowship,Ninga Mia Village,Kalgoorlie,WA,6430,Ninga Mia Village.Kalgoorlie.WA.6430,-30.7315796,121.4920321,,,,,,,,,
Religious Organisations,OAC Ministries (Aust) Ltd,Unit 2/ 9-11 Highview Dr,Doncaster,VIC,3108,Unit 2/ 9-11 Highview Dr.Doncaster.VIC.3108,-37.7928507,145.1314576,,,,,,,,,
Religious Organisations,"Office Of Justice,Ecology & Peace",,Broome,WA,6725,.Broome.WA.6725,-17.96182,122.236998,,,,,,,,,
Religious Organisations,Oracle Ministry,16 Martin St,Thornbury,VIC,3071,16 Martin St.Thornbury.VIC.3071,-37.7611764,145.0016105,,minister@oracleministry.com,http://www.oracleministry.com,,,,,,
Religious Organisations,Order Of St Luke The Physician (Australasia),112 100 Harold St,Wantirna,VIC,3152,112 100 Harold St.Wantirna.VIC.3152,-37.853066,145.2276675,,natsec@osl.org.au,Visit Us,,,,,,
Religious Organisations,Order Of The Cross (melb Group) The,42 Terrara Rd,Vermont,VIC,3133,42 Terrara Rd.Vermont.VIC.3133,-37.8415395,145.1898667,,,,,,,,,
Religious Organisations,Origins Centre The,Jayes Rd,Balingup,WA,6253,Jayes Rd.Balingup.WA.6253,-33.7797198,116.0197058,,origins@iinet.com.au,http://origins.mysouthwest.com.au,,,,,,
Religious Organisations,Our Lady's Parish Church Craigieburn,171 Craigieburn Rd,Craigieburn,VIC,3064,171 Craigieburn Rd.Craigieburn.VIC.3064,-37.5984792,144.931031,,info@ourladys.org,http://www.our-ladys.org,,1985,,,,
Religious Organisations,Perth Bible College (Inc),1 College Ct,Karrinyup,WA,6018,1 College Ct.Karrinyup.WA.6018,-31.8733785,115.7668804,,college@pbc.wa.edu.au,http://http://www.pbc.wa.edu.au,,,52 599 089 532,Active,Entity Name,99% ABN Accuracy
Religious Organisations,Planetshakers Church,40 Lakeside Bvd,Pakenham,VIC,3810,40 Lakeside Bvd.Pakenham.VIC.3810,-38.0655804,145.4529561,,southeast@planetshakers.com,www.planetshakers.com/australia/southeast,,,,,,
Religious Organisations,Planetshakers Church,360 Main Rd,Lower Plenty,VIC,3093,360 Main Rd.Lower Plenty.VIC.3093,-37.7302994,145.1278408,,web@planetshakers.com,www2.planetshakers.com/australia/northeast,,,,,,
Religious Organisations,Pontian Brotherhood Of SA Incorporated,674 Torrens Rd,Pennington,SA,5013,674 Torrens Rd.Pennington.SA.5013,-34.8629417,138.5286095,,,,,,,,,
Religious Organisations,Poor Clare Monastery,18-20 Edwards Rd,Kennington,VIC,3550,18-20 Edwards Rd.Kennington.VIC.3550,-36.7680811,144.3057445,,,,,,,,,
Religious Organisations,Post Disaster Ministry,212 Pirie St,Adelaide,SA,5000,212 Pirie St.Adelaide.SA.5000,-34.9251189,138.6076449,,,,,,,,,
Religious Organisations,Potters House Christian Church Geelong,23 Elizabeth St,Geelong West,VIC,3218,23 Elizabeth St.Geelong West.VIC.3218,-38.1399635,144.3397553,,grplum@gmail.com,http://www.geelongchurch.com,,,,,,
Religious Organisations,Potters House Christian Fellowship Dandenong,Lvl 1/ 1-7 Langhorne St,Dandenong,VIC,3175,Lvl 1/ 1-7 Langhorne St.Dandenong.VIC.3175,-37.986723,145.2147225,,,,,,,,,
Religious Organisations,Prayer Room,92 Gascoyne Way,Cooloongup,WA,6168,92 Gascoyne Way.Cooloongup.WA.6168,-32.3050958,115.7663257,,,,,,,,,
Religious Organisations,Presbyterian Youth Victoria,268 Canterbury Rd,Heathmont,VIC,3135,268 Canterbury Rd.Heathmont.VIC.3135,-37.8326858,145.2351997,,,,,,,,,
Religious Organisations,Presentation Sisters Convent,,Myrtleford,VIC,3737,.Myrtleford.VIC.3737,-36.5533215,146.724543,,,,,,,,,
Religious Organisations,Prison Fellowship Of Australia - WA Council,Unit 3/ 436 Lord St,Mt Lawley,WA,6050,Unit 3/ 436 Lord St.Mt Lawley.WA.6050,-31.938645,115.8775682,,,,,,35 550 201 911,Active,Trading Name,99% ABN Accuracy
Religious Organisations,Purpose Living City Church,"Melbourne High School, T 29, Alexandra Ave",South Yarra,VIC,3141,"Melbourne High School, T 29, Alexandra Ave.South Yarra.VIC.3141",-37.8296188,144.9868789,,,,,,,,,
Religious Organisations,Quakers (Religious Society of Friends),14 Desaumarez St,Kensington Park,SA,5068,14 Desaumarez St.Kensington Park.SA.5068,-34.9217416,138.6578594,,,,,,,,,
Religious Organisations,Redemption Churches,,suppressed,suppressed,,.suppressed.suppressed.,,,,Truth@RedemptionChurches.com,,,,,,,
Religious Organisations,Riverview Bible College,1 Thorogood St,Burswood,WA,6100,1 Thorogood St.Burswood.WA.6100,-31.9664187,115.8936707,,,,,,,,,
Religious Organisations,Salesians of Don Bosco,1A Ventnor St,Chadstone,VIC,3148,1A Ventnor St.Chadstone.VIC.3148,-37.8902687,145.0985884,,,,,,,,,
Religious Organisations,Salesians of Don Bosco,Lysterfield Rd,Lysterfield,VIC,3156,Lysterfield Rd.Lysterfield.VIC.3156,-37.9164421,145.299905,,,,,,,,,
Religious Organisations,Salvation Army Corps The,70 Henna St,Warrnambool,VIC,3280,70 Henna St.Warrnambool.VIC.3280,-38.3791485,142.4782361,,,,,,,,,
Religious Organisations,Salvos Ferntree Gully,3/ 1841 Ferntree Gully Rd,Mountain Gate,VIC,3156,3/ 1841 Ferntree Gully Rd.Mountain Gate.VIC.3156,-37.8830794,145.2710659,,,http://www.salvationarmy.org.au,,,,,,
Religious Organisations,Scripture Union In N.T.,,suppressed,suppressed,,.suppressed.suppressed.,,,,info@sunt.org.au,http://sunt.org.au,,,,,,
Religious Organisations,Seventh Day Adventist Church (Sale),53 Stawell St,Sale,VIC,3850,53 Stawell St.Sale.VIC.3850,-38.1029685,147.0644679,,,,,,,,,
Religious Organisations,Seventh Day Adventists Churches,101 Lava St,Warrnambool,VIC,3280,101 Lava St.Warrnambool.VIC.3280,-38.3826427,142.4860668,,,,,,,,,
Religious Organisations,Seventh Day Adventists Churches,71 King St,Hamilton,VIC,3300,71 King St.Hamilton.VIC.3300,-37.7304953,142.0127802,,,,,,,,,
Religious Organisations,Seventh Day Adventists Churches,85 Cape Nelson Rd,Portland,VIC,3305,85 Cape Nelson Rd.Portland.VIC.3305,-38.3628608,141.6041979,,,,,,,,,
Religious Organisations,Sikh Cultural Society of Victoria The,344 Hume Hwy,Craigieburn,VIC,3064,344 Hume Hwy.Craigieburn.VIC.3064,-37.6128133,144.9475039,,,,,,,,,
Religious Organisations,Sikh Society Of South Australia Inc,10 Mt Barker Rd,Glen Osmond,SA,5064,10 Mt Barker Rd.Glen Osmond.SA.5064,-34.9636077,138.6450924,,,,,,87 775 890 155,Active,Entity Name,99% ABN Accuracy
Religious Organisations,Silver City CRC,,suppressed,suppressed,,.suppressed.suppressed.,,,,,,,,,,,
Religious Organisations,Sirius USEIT,1 Inez Ave,Eltham,VIC,3095,1 Inez Ave.Eltham.VIC.3095,-37.7102348,145.1415282,,,www.siriususeit.com/cp.html,,,,,,
Religious Organisations,Slavic Gospel Association,351 Princes Hwy,Noble Park,VIC,3174,351 Princes Hwy.Noble Park.VIC.3174,-37.9644458,145.1908639,,,,,,31 731 714 749,Active,Entity Name,99% ABN Accuracy
Religious Organisations,Soul Care Industries,,Ocean Grove,VIC,3226,.Ocean Grove.VIC.3226,-38.2573292,144.5382417,,,,,,,,,
Religious Organisations,Southland Harvest Fellowship,Sandor's Motor Inn / 179 Deakin Ave,Mildura,VIC,3500,Sandor's Motor Inn / 179 Deakin Ave.Mildura.VIC.3500,-34.1900583,142.1557745,,,,,,41 970 147 426,Active,Entity Name,99% ABN Accuracy
Religious Organisations,Spiritualist Church & Psychic Research,,Moonah,TAS,7009,.Moonah.TAS.7009,-42.8462562,147.2945822,,,,,,,,,
Religious Organisations,St Anthonys Coptic Orthodox Monastery,,Heathcote,VIC,3523,.Heathcote.VIC.3523,-36.9147151,144.7006992,,,,,,,,,
Religious Organisations,St Columbans Mission Priests Residence,69 Woodland St,Essendon North,VIC,3041,69 Woodland St.Essendon North.VIC.3041,-37.7432131,144.9227742,,,,,,,,,
Religious Organisations,St Joseph's Times Of Mass & Reconciliation,Cnr Macquarrie & Harrington Strs,Hobart,TAS,7000,Cnr Macquarrie & Harrington Strs.Hobart.TAS.7000,-42.8855987,147.3264888,,,,,,,,,
Religious Organisations,St Marys House Of Welcome,165 Brunswick St,Fitzroy,VIC,3065,165 Brunswick St.Fitzroy.VIC.3065,-37.802578,144.9775239,,,,,,54 050 278 754,Active,Entity Name,99% ABN Accuracy
Religious Organisations,St Matthew's Prahran,157A High St,Prahran,VIC,3181,157A High St.Prahran.VIC.3181,-37.8513966,144.9927499,,info@stmatts.com.au,Visit Our Website,,,,,,
Religious Organisations,St Vincent De Paul Society Family Centre,7 Doswell Tce,Kadina,SA,5554,7 Doswell Tce.Kadina.SA.5554,-33.9611079,137.7120903,,,,,,,,,
Religious Organisations,Subud Spiritual Association,222 Shepperton Rd,East Victoria Park,WA,6101,222 Shepperton Rd.East Victoria Park.WA.6101,-31.9828523,115.9068616,,,,,,,,,
Religious Organisations,Sukyo Mahikari Adelaide,,Adelaide,SA,5000,.Adelaide.SA.5000,-34.9328294,138.6038129,,,,,,,,,
Religious Organisations,Sukyo Mahikari Hobart,3rd Floor Biggins Block 67 Letitia St,North Hobart,TAS,7000,3rd Floor Biggins Block 67 Letitia St.North Hobart.TAS.7000,-42.8683951,147.31992,,,,,,,,,
Religious Organisations,Sukyo Mahikari Melbourne,19 Garden Rd,Camberwell,VIC,3124,19 Garden Rd.Camberwell.VIC.3124,-37.843591,145.0917686,,,,,,,,,
Religious Organisations,Swan Hill Presbyterian Church,325 Campbell St,Swan Hill,VIC,3585,325 Campbell St.Swan Hill.VIC.3585,-35.3433672,143.5610484,,pastormiles5@gmail.com,,,,89 161 075 037,Active,Entity Name,99% ABN Accuracy
Religious Organisations,Tashs Tarot Reading,,Cobram,VIC,3644,.Cobram.VIC.3644,-35.919227,145.6395916,,tashstarot@hotmail.com,http://tashstarotcards.webs.com,,,,,,
Religious Organisations,Temple Society Australia,152 Tucker Rd,Bentleigh,VIC,3204,152 Tucker Rd.Bentleigh.VIC.3204,-37.9196492,145.0516416,,,,,,98 780 927 092,Active,Entity Name,99% ABN Accuracy
Religious Organisations,The Emissaries (S.A.) Inc,Riverdell Clifford Rd,Hillier,SA,5116,Riverdell Clifford Rd.Hillier.SA.5116,-34.6156311,138.7158813,,,,,,83 652 750 227,Active,Entity Name,99% ABN Accuracy
Religious Organisations,The Gideons International Australia,44 Clifton St,Blair Athol,SA,5084,44 Clifton St.Blair Athol.SA.5084,-34.865276,138.5981583,,,,,,,,,
Religious Organisations,The Potter's House Christian Church - Maylands,181 Guildford Rd,Maylands,WA,6051,181 Guildford Rd.Maylands.WA.6051,-31.9302925,115.8929083,,admin@pottershousemaylands.com,http://www.pottershousemaylands.com,,,,,,
Religious Organisations,The Potters House Christian Church Thomastown,1 Austarc Ave,Thomastown,VIC,3074,1 Austarc Ave.Thomastown.VIC.3074,-37.6866912,145.0100351,,ttownphcf@hotmail.com,http://www.pottershousethomastown.com,,,,,,
Religious Organisations,The Salvation Army Crossroads West,333 William St,Perth,WA,6000,333 William St.Perth.WA.6000,-31.9456792,115.8611412,,,,,,,,,
Religious Organisations,The Wellspring Centre Incorporated,Unit 63 10 Y St,Ashburton,VIC,3147,Unit 63 10 Y St.Ashburton.VIC.3147,-37.8619911,145.0791706,,info@wellspringcentre.org.au,http://www.wellspringcentre.org.au,,,,,,
Religious Organisations,Theosophical Fellowship Ltd The,523 Centre Rd,Bentleigh,VIC,3204,523 Centre Rd.Bentleigh.VIC.3204,-37.919127,145.0462799,,,,,,,,,
Religious Organisations,Trinity St. Nicholas Russian Greek-Catholic Church,72 Hotham St,St Kilda East,VIC,3183,72 Hotham St.St Kilda East.VIC.3183,-37.8662615,145.0002991,,vexillaregis@hotmail.com,http://www.stnich.org,,,,,,
Religious Organisations,Unitarian Community of Victoria,,Melbourne,VIC,3000,.Melbourne.VIC.3000,-37.8152065,144.963937,,,,,,,,,
Religious Organisations,Uniting Church in Australia Ferntree Gully,6 The Avenue,Ferntree Gully,VIC,3156,6 The Avenue.Ferntree Gully.VIC.3156,-37.8827117,145.2935723,,ftg.uca@gmail.com,http://ferntreegullyuca.wordpress.com/,,,,,,
Religious Organisations,Wangaratta Community Church,4-6 Docker St,Wangaratta,VIC,3677,4-6 Docker St.Wangaratta.VIC.3677,-36.3547792,146.3227676,,korot4@bigpond.com,https://www.facebook.com/pages/Wangaratta-Community-Church/258961842094,,,99 081 936 629,Cancelled,Trading Name,99% ABN Accuracy
Religious Organisations,Waverley Christian Fellowship,1248 High Street Rd,Wantirna South,VIC,3152,1248 High Street Rd.Wantirna South.VIC.3152,-37.8801772,145.21484,,,,,,89 277 942 075,Active,Entity Name (Historic),99% ABN Accuracy
Religious Organisations,Weightlifters Prophetic,,Busselton,WA,6280,.Busselton.WA.6280,-33.6516465,115.3473335,,,,,,15 484 537 060,Active,Business Name,99% ABN Accuracy
Religious Organisations,Westpoint City Church Inc,Unit 1/ 25 Finance Pl,Malaga,WA,6090,Unit 1/ 25 Finance Pl.Malaga.WA.6090,-31.8537561,115.8959711,,,,,,43 482 539 423,Active,Entity Name,99% ABN Accuracy
Religious Organisations,Willunga Uniting Church,St Jude St,Willunga,SA,5172,St Jude St.Willunga.SA.5172,-35.2753567,138.5570983,,,,,,84 876 420 133,Active,Entity Name,99% ABN Accuracy
Religious Organisations,World Apostolate of Fatima (Fatima Marian Centre),,Murrumbeena,VIC,3163,.Murrumbeena.VIC.3163,-37.8978307,145.070895,,,,,,,,,
Religious Organisations,"Zen Buddhist Community, Jikishoan",,Footscray,VIC,3011,.Footscray.VIC.3011,-37.7988987,144.892357,,,,,,,,,
Religious Organisations,Zionist Federation Of Aust,,Caulfield North,VIC,3161,.Caulfield North.VIC.3161,-37.8712631,145.0190242,,,,,,,,,
Religious Organisations,Ace Global Ministries,4- 22 Showground Rd,Castle Hill,NSW,2154,4- 22 Showground Rd.Castle Hill.NSW.2154,-33.7322113,151.0021031,,,,,,90 647 846 691,Active,Entity Name (Historic),25% ABN Accuracy
Religious Organisations,Adventist Development & Relief Agency,146 Fox Valley Rd,Wahroonga,NSW,2076,146 Fox Valley Rd.Wahroonga.NSW.2076,-33.732193,151.102483,,,,,,13 104 553 808,Active,Business Name,25% ABN Accuracy
Religious Organisations,Alan Walker College Of Evangelism,6 Lincluden Pl,North Parramatta,NSW,2151,6 Lincluden Pl.North Parramatta.NSW.2151,-33.7938417,151.0190046,,,,,,28 299 455 234,Active,Entity Name,25% ABN Accuracy
Religious Organisations,Al-Zahra Muslim Womens Association,21 Firth St,Arncliffe,NSW,2205,21 Firth St.Arncliffe.NSW.2205,-33.9366791,151.1465438,,,,,,84 136 423 269,Active,Entity Name,25% ABN Accuracy
Religious Organisations,AMOS Australian Mission Outreach Support,75 Morris Rd,Rothwell,QLD,4022,75 Morris Rd.Rothwell.QLD.4022,-27.2119514,153.0612146,,,,,,30 093 967 287,Active,Entity Name,25% ABN Accuracy
Religious Organisations,Anglican Board Of Mission Australia,91 Bathurst St,Sydney,NSW,2000,91 Bathurst St.Sydney.NSW.2000,-33.8744245,151.205441,,,,,,18 097 944 717,Active,Entity Name,25% ABN Accuracy
Religious Organisations,Anglican Home Mission Society,45 Hunter St,Parramatta,NSW,2150,45 Hunter St.Parramatta.NSW.2150,-33.8160313,151.0020877,,,,,,88 851 368 006,Active,Entity Name (Historic),25% ABN Accuracy
Religious Organisations,Anglican Media Council,St Andrew's House Sydney Sq,Sydney,NSW,2000,St Andrew's House Sydney Sq.Sydney.NSW.2000,-33.8741229,151.2057103,,,,,,26 776 497 877,Active,Entity Name,25% ABN Accuracy
Religious Organisations,Anglican Retirement Villages,Lvl 2/ 62 Norwest Blv,Baulkham Hills,NSW,2153,Lvl 2/ 62 Norwest Blv.Baulkham Hills.NSW.2153,-33.7367993,150.9583734,,,,,,39 922 848 563,Active,Entity Name (Historic),25% ABN Accuracy
Religious Organisations,AOG Burdekin Community Church,International Dr,Ayr,QLD,4807,International Dr.Ayr.QLD.4807,-19.5744451,147.4066109,,,,,,21 393 756 239,Active,Entity Name,25% ABN Accuracy
Religious Organisations,Apostolic Church Australia,46 Brae St,Inverell,NSW,2360,46 Brae St.Inverell.NSW.2360,-29.7691958,151.1083951,,,,,,24 004 350 798,Active,Entity Name,25% ABN Accuracy
Religious Organisations,Australian Buddhist Mission,Ross Rd,Peats Ridge,NSW,2250,Ross Rd.Peats Ridge.NSW.2250,-33.3663866,151.2363134,,,,,,87 746 086 345,Active,Entity Name,25% ABN Accuracy
Religious Organisations,Australian Federation of Islamic Councils,932 Bourke St,Zetland,NSW,2017,932 Bourke St.Zetland.NSW.2017,-33.9043001,151.2056112,,,muslimsaustralia.com.au,,,37 002 757 155,Active,Entity Name,25% ABN Accuracy
Religious Organisations,Australian Navigators Ltd,29a/ 5 Inglewood Pl,Baulkham Hills,NSW,2153,29a/ 5 Inglewood Pl.Baulkham Hills.NSW.2153,-33.7349879,150.9572057,,,,,,26 001 294 677,Active,Entity Name,25% ABN Accuracy
Religious Organisations,Bahai Community,,Wyong,NSW,2259,.Wyong.NSW.2259,-33.2843475,151.4249427,,,,,,54 858 239 715,Active,Entity Name,25% ABN Accuracy
Religious Organisations,Baha'i Community,173 Mona Vale Rd,Ingleside,NSW,2101,173 Mona Vale Rd.Ingleside.NSW.2101,-33.6839807,151.2585467,,,,,,54 858 239 715,Active,Entity Name,25% ABN Accuracy
Religious Organisations,Benedictine Monks,121 Arcadia Rd,Arcadia,NSW,2159,121 Arcadia Rd.Arcadia.NSW.2159,-33.619439,151.0494467,,,,,,43 955 652 831,Active,Entity Name,25% ABN Accuracy
Religious Organisations,Bible Education Centre Inc,Shop 1/ 76 Bathurst St,Liverpool,NSW,2170,Shop 1/ 76 Bathurst St.Liverpool.NSW.2170,-33.923644,150.921363,,,,,,61 045 749 638,Active,Entity Name,25% ABN Accuracy
Religious Organisations,Blue Mountains City Church,172 Rusden Rd,Mt Riverview,NSW,2774,172 Rusden Rd.Mt Riverview.NSW.2774,-33.7316755,150.6295524,,,,,,24 132 815 816,Active,Entity Name,25% ABN Accuracy
Religious Organisations,Blue Mountains City Church Inc,172 Rusden Rd,Mt Riverview,NSW,2774,172 Rusden Rd.Mt Riverview.NSW.2774,-33.7316755,150.6295524,,office@bmcitychurch.com,Visit our website,,,24 132 815 816,Active,Entity Name,25% ABN Accuracy
Religious Organisations,Brisbane Anglican Maori Mission Inc,At The Rear Of 338 Algester St,Algester,QLD,4115,At The Rear Of 338 Algester St.Algester.QLD.4115,-27.6179683,153.0351553,,info@brisbanemaorimission.com.au,http://www.brisbanemaorimission.com.au,,,89 542 552 399,Active,Entity Name,25% ABN Accuracy
Religious Organisations,Buddhist Council of New South Wales,25/ 56-62 Chandos St,St Leonards,NSW,2065,25/ 56-62 Chandos St.St Leonards.NSW.2065,-33.8218108,151.1978923,,,,,,18 550 218 989,Active,Entity Name,25% ABN Accuracy
Religious Organisations,Buena Vista Opportunity Shop,195 Peisley St,Orange,NSW,2800,195 Peisley St.Orange.NSW.2800,-33.2845405,149.103234,,,,,,71 050 057 620,Active,Business Name,25% ABN Accuracy
Religious Organisations,Bush Church Aid Society,Level 7/ 37 York St,Sydney,NSW,2000,Level 7/ 37 York St.Sydney.NSW.2000,-33.866438,151.2055543,,,,,,38 434 490 314,Active,Entity Name,25% ABN Accuracy
Religious Organisations,Bush Church Aid Society,9 Fenimore St,Wishart,QLD,4122,9 Fenimore St.Wishart.QLD.4122,-27.5635022,153.0904935,,,www.bushchurchaid.com.au,,,38 434 490 314,Active,Entity Name,25% ABN Accuracy
Religious Organisations,C3 Church Monash,Livingston Ave,Kambah,ACT,2902,Livingston Ave.Kambah.ACT.2902,-35.3881094,149.0810031,,,www.c3monash.org.au,,,73 794 432 277,Active,Entity Name,25% ABN Accuracy
Religious Organisations,Catholic Education Office Archdiocese Of Sydney Central Office,38 Renwick St,Leichhardt,NSW,2040,38 Renwick St.Leichhardt.NSW.2040,-33.8869459,151.1565243,,,,,,82 780 246 140,Active,Entity Name (Historic),25% ABN Accuracy
Religious Organisations,"Catholic Enquiry Centre, National Faith Promotion",80 Albion St,Surry Hills,NSW,2010,80 Albion St.Surry Hills.NSW.2010,-33.8828131,151.2114053,,,,,,50 726 817 672,Active,Entity Name,25% ABN Accuracy
Religious Organisations,Catholic Resource Centre,Gilmour St,Kelso,NSW,2795,Gilmour St.Kelso.NSW.2795,-33.4075224,149.5998707,,,,,,90 582 344 998,Active,Entity Name,25% ABN Accuracy
Religious Organisations,CBD Chabad Centre,Lvl 4/ 199 Clarence St,Sydney,NSW,2000,Lvl 4/ 199 Clarence St.Sydney.NSW.2000,-33.8695924,151.2051103,,,,,,56 123 198 171,Active,Entity Name,25% ABN Accuracy
Religious Organisations,Centre For Multi Cultural Pastoral Care,333 Given Tce,Paddington,QLD,4064,333 Given Tce.Paddington.QLD.4064,-27.4620343,152.9998116,,,,,,25 328 758 007,Active,DGR Name (Historic),25% ABN Accuracy
Religious Organisations,Challenge Ministries,20 Malvern Ave,Croydon,NSW,2132,20 Malvern Ave.Croydon.NSW.2132,-33.8852569,151.1126725,,,,,,23 959 475 978,Active,Entity Name,25% ABN Accuracy
Religious Organisations,Chinese Catholic Community,2 Waters St,Rapid Creek,NT,810,2 Waters St.Rapid Creek.NT.810,-12.38662,130.859193,,,,,,33 023 668 108,Active,Entity Name,25% ABN Accuracy
Religious Organisations,Christ For All Nations,Unit 13/ 79 Lower West Burleigh Rd,Burleigh Waters,QLD,4220,Unit 13/ 79 Lower West Burleigh Rd.Burleigh Waters.QLD.4220,-28.0965528,153.443222,,,,,,61 120 404 444,Active,Entity Name,25% ABN Accuracy
Religious Organisations,Christadelphian Bible School,Bible Society 2 Stilling St,Rathmines,NSW,2283,Bible Society 2 Stilling St.Rathmines.NSW.2283,-33.0402305,151.5965903,,,www.rathminesbibleschool.com,,,94 001 286 424,Active,Entity Name,25% ABN Accuracy
Religious Organisations,Christian Brothers Provincial Administration,2 Thames St,Balmain,NSW,2041,2 Thames St.Balmain.NSW.2041,-33.8566259,151.1836066,,,,,,64 066 939 786,Active,Other Name,25% ABN Accuracy
Religious Organisations,Christian Centre,Dutton St,Normanton,QLD,4890,Dutton St.Normanton.QLD.4890,-17.6732463,141.0751657,,,,,,43 095 955 016,Active,Entity Name,25% ABN Accuracy
Religious Organisations,Christian Heritage Ministries Australia,156 Brighton Tce,Brighton,QLD,4017,156 Brighton Tce.Brighton.QLD.4017,-27.3074038,153.0631676,,,,,,21 011 059 135,Active,Entity Name,25% ABN Accuracy
Religious Organisations,Christian Media Services Inc,165 Shaftesbury Rd,Eastwood,NSW,2122,165 Shaftesbury Rd.Eastwood.NSW.2122,-33.7913594,151.0772732,,,,,,91 859 905 010,Active,Entity Name,25% ABN Accuracy
Religious Organisations,Christian Science Church,273 North Quay,Brisbane,QLD,4000,273 North Quay.Brisbane.QLD.4000,-27.4670559,153.0168606,,,,,,78 110 215 930,Active,Trading Name,25% ABN Accuracy
Religious Organisations,Christian Science Church,Lot 392 Woodanga Dr,Highvale,QLD,4520,Lot 392 Woodanga Dr.Highvale.QLD.4520,-27.3723304,152.8210887,,,,,,78 110 215 930,Active,Trading Name,25% ABN Accuracy
Religious Organisations,Christian Youth Centre,7 Banksia Crst,Scotts Head,NSW,2447,7 Banksia Crst.Scotts Head.NSW.2447,-30.7438609,152.9901227,,,,,,55 998 219 869,Active,Entity Name,25% ABN Accuracy
Religious Organisations,Couples for Christ,93-97 Main St,Blacktown,NSW,2148,93-97 Main St.Blacktown.NSW.2148,-33.770353,150.9100874,,,,,,42 091 596 897,Active,Trading Name,25% ABN Accuracy
Religious Organisations,Covenant Players Inc,10 Cliff Rd,Freemans Reach,NSW,2756,10 Cliff Rd.Freemans Reach.NSW.2756,-33.5662579,150.77421,,,,,,32 365 780 908,Active,Entity Name,25% ABN Accuracy
Religious Organisations,Croatian Australian Welfare Centre,86- 90 Brisbane St,St Johns Park,NSW,2176,86- 90 Brisbane St.St Johns Park.NSW.2176,-33.8771679,150.9010556,,,,,,59 615 184 150,Active,Entity Name,25% ABN Accuracy
Religious Organisations,Dominican Sisters,3 54 Kirrang St,Beverly Hills,NSW,2209,3 54 Kirrang St.Beverly Hills.NSW.2209,-33.9434935,151.0824021,,,,,,82 464 856 272,Active,Entity Name (Historic),25% ABN Accuracy
Religious Organisations,Dutch Australian Cultural Centre,85 Market St,Smithfield,NSW,2164,85 Market St.Smithfield.NSW.2164,-33.8472515,150.933474,,,http://www.dacc.com.au/,,,94 002 727 862,Active,Entity Name,25% ABN Accuracy
Religious Organisations,Educational Centre For Christian Spirituality,14 Frances St,Randwick,NSW,2031,14 Frances St.Randwick.NSW.2031,-33.9103909,151.2397984,,,,,,27 001 712 572,Active,Entity Name,25% ABN Accuracy
Religious Organisations,Evangelical Sisterhood Of Mary,30 Taylor Pl,Theresa Park,NSW,2570,30 Taylor Pl.Theresa Park.NSW.2570,-34.0075468,150.6420951,,,,,,42 001 782 305,Active,Entity Name,25% ABN Accuracy
Religious Organisations,Every Home For Christ,1 The Strand,Penshurst,NSW,2222,1 The Strand.Penshurst.NSW.2222,-33.9664568,151.0881924,,,,,,88 001 276 240,Active,Entity Name (Historic),25% ABN Accuracy
Religious Organisations,Faith in Christ Fellowship Macarthur,35 Lincoln St,Minto,NSW,2566,35 Lincoln St.Minto.NSW.2566,-34.0246054,150.8421739,,,http://www.fcfmacarthur.org.au,,,64 733 011 729,Active,Entity Name,25% ABN Accuracy
Religious Organisations,Far East Broadcasting Co (Aust),Cnr Kingsway and Willarong Rd,Caringbah,NSW,2229,Cnr Kingsway and Willarong Rd.Caringbah.NSW.2229,-34.0401322,151.1203954,,,,,,68 000 509 517,Active,Entity Name,25% ABN Accuracy
Religious Organisations,Focus Military Ministry,59 Dickson Chambers St,Dickson,ACT,2602,59 Dickson Chambers St.Dickson.ACT.2602,-35.2502635,149.1392721,,,http://www.focusmilitary.org.au,,,97 342 707 086,Active,Entity Name,25% ABN Accuracy
Religious Organisations,Franciscan Friars,14 Albert St,Edgecliff,NSW,2027,14 Albert St.Edgecliff.NSW.2027,-33.8806812,151.2391836,,,,,,75 876 383 237,Active,Trading Name (Historic),25% ABN Accuracy
Religious Organisations,Franciscan Friars,311 Merrylands Rd,Merrylands,NSW,2160,311 Merrylands Rd.Merrylands.NSW.2160,-33.8351451,150.9841268,,,,,,75 876 383 237,Active,Trading Name (Historic),25% ABN Accuracy
Religious Organisations,Franciscan Friars,15 Prospect Rd,Summer Hill,NSW,2130,15 Prospect Rd.Summer Hill.NSW.2130,-33.8912145,151.1320304,,,,,,75 876 383 237,Active,Trading Name (Historic),25% ABN Accuracy
Religious Organisations,Franciscan Friars,70 Douglas Rd,Blacktown,NSW,2148,70 Douglas Rd.Blacktown.NSW.2148,-33.7829367,150.8843683,,,,,,75 876 383 237,Active,Trading Name (Historic),25% ABN Accuracy
Religious Organisations,Gateway Family Church,1374 Old Cleveland Rd,Carindale,QLD,4152,1374 Old Cleveland Rd.Carindale.QLD.4152,-27.5021515,153.1233675,,,,,,91 531 619 919,Active,Trading Name,25% ABN Accuracy
Religious Organisations,Glenorie Community Church,1507 Old Northern Rd,Glenorie,NSW,2157,1507 Old Northern Rd.Glenorie.NSW.2157,-33.608971,151.0191411,,,,,,12 393 818 704,Active,Entity Name,25% ABN Accuracy
Religious Organisations,God's Power Ministries,Unit 3/ 10 Clarke St,Guildford,NSW,2161,Unit 3/ 10 Clarke St.Guildford.NSW.2161,-33.8606633,150.9759863,,,,,,95 650 466 810,Active,Entity Name,25% ABN Accuracy
Religious Organisations,Gospel Light Baptist Church,8 Steffensen St,Bundaberg,QLD,4670,8 Steffensen St.Bundaberg.QLD.4670,-24.8790856,152.3338501,,gospellightbcbundy@gmail.com,,,,99 768 517 092,Active,Entity Name,25% ABN Accuracy
Religious Organisations,Grace City Church,937 Bourke St,Waterloo,NSW,2017,937 Bourke St.Waterloo.NSW.2017,-33.9016424,151.2086154,,info@gracecitychurch.com.au,http://www.gracecity.com.au,,,37 194 515 292,Active,Entity Name,25% ABN Accuracy
Religious Organisations,Harvest Bible Church,86 Carthage St,Tamworth,NSW,2340,86 Carthage St.Tamworth.NSW.2340,-31.0857028,150.9321658,,contact@harvestbiblechurch.org.au,www.harvestbiblechurch.org.au/,,,42 951 498 719,Active,Entity Name,25% ABN Accuracy
Religious Organisations,Hindu Society Of Qld Inc,Gayatri Mandir 178 Lyndhurst Rd,Boondall,QLD,4034,Gayatri Mandir 178 Lyndhurst Rd.Boondall.QLD.4034,-27.3477817,153.0616256,,,,,,62 515 008 806,Active,Entity Name,25% ABN Accuracy
Religious Organisations,Holy Family Education Centre,1 West St,Lewisham,NSW,2049,1 West St.Lewisham.NSW.2049,-33.8924018,151.1502192,,,,,,73 737 517 017,Active,Entity Name,25% ABN Accuracy
Religious Organisations,Holy Spirit Association,3 Calder Rd,Darlington,NSW,2008,3 Calder Rd.Darlington.NSW.2008,-33.8901928,151.1955245,,,,,,34 005 131 171,Active,Entity Name,25% ABN Accuracy
Religious Organisations,Initiatives of Change,10 Dooley Pl,Curtin,ACT,2605,10 Dooley Pl.Curtin.ACT.2605,-35.3209546,149.0742454,,,,,,22 004 350 789,Active,Entity Name,25% ABN Accuracy
Religious Organisations,Islamic Foundation For Education & Welfare,206 Humphries Rd,Bonnyrigg,NSW,2177,206 Humphries Rd.Bonnyrigg.NSW.2177,-33.891931,150.900025,,,,,,23 878 124 612,Active,Entity Name,25% ABN Accuracy
Religious Organisations,Jericho Road Presbyterian Social Services,168 Chalmers St,Surry Hills,NSW,2010,168 Chalmers St.Surry Hills.NSW.2010,-33.8883997,151.2066292,,info@jerichoroad.org.au,www.jerichoroad.org.au/,,,47 776 809 174,Active,Entity Name,25% ABN Accuracy
Religious Organisations,Joyce Meyer Ministries Pty Ltd,2 Devlan St,Mansfield,QLD,4122,2 Devlan St.Mansfield.QLD.4122,-27.5326069,153.0963801,,,www.joycemeyer.org/,,,73 075 343 485,Active,Entity Name,25% ABN Accuracy
Religious Organisations,Khmer Buddhist Society Of Qld Inc,44 Third Ave,Marsden,QLD,4132,44 Third Ave.Marsden.QLD.4132,-27.6765812,153.0879402,,,,,,63 448 367 670,Active,Entity Name,25% ABN Accuracy
Religious Organisations,Kwan Um School Of Zen,15 Flaggy Creek Rd,Mt Crosby,QLD,4306,15 Flaggy Creek Rd.Mt Crosby.QLD.4306,-27.522573,152.8361867,,,,,,79 623 937 580,Active,Entity Name,25% ABN Accuracy
Religious Organisations,Life Ministries,72 Queens Rd,Lawson,NSW,2783,72 Queens Rd.Lawson.NSW.2783,-33.7101783,150.4440781,,,,,,88 982 014 526,Active,Entity Name,25% ABN Accuracy
Religious Organisations,Living Waters Hope Centre,125 Serpentine Rd,Terrigal,NSW,2260,125 Serpentine Rd.Terrigal.NSW.2260,-33.4336051,151.4136962,,,,,,23 586 504 626,Active,Entity Name,25% ABN Accuracy
Religious Organisations,LOGAN VILLAGE CHRISTIAN FAMILY,30 Wharf St,Logan Village,QLD,4207,30 Wharf St.Logan Village.QLD.4207,-27.7677724,153.1053473,,lvchristianfamily@gmail.com,,,,33 461 446 643,Active,Entity Name,25% ABN Accuracy
Religious Organisations,Mandalay Pastoral Co.,Bundanoon Rd,Exeter,NSW,2579,Bundanoon Rd.Exeter.NSW.2579,-34.6315169,150.3205465,,,,,,95 003 598 249,Active,Entity Name,25% ABN Accuracy
Religious Organisations,Maori Anglican Fellowship,587 Elizabeth St,Redfern,NSW,2016,587 Elizabeth St.Redfern.NSW.2016,-33.8907424,151.2074666,,,,,,30 090 633 117,Active,Entity Name (Historic),25% ABN Accuracy
Religious Organisations,Maria-Kinder,14 Sommerville St,Wentworth Falls,NSW,2782,14 Sommerville St.Wentworth Falls.NSW.2782,-33.723992,150.3699372,,,,,,62 651 544 291,Active,Entity Name,25% ABN Accuracy
Religious Organisations,Marist Fathers,"""Villawood"" 1 Mary St",Hunters Hill,NSW,2110,"""Villawood"" 1 Mary St.Hunters Hill.NSW.2110",-33.8351523,151.1380109,,,,,,56 085 896 500,Active,Trading Name,25% ABN Accuracy
Religious Organisations,Marist Fathers,"""Parish"" 3a Mary St",Hunters Hill,NSW,2110,"""Parish"" 3a Mary St.Hunters Hill.NSW.2110",-33.8333901,151.1378392,,,,,,56 085 896 500,Active,Trading Name,25% ABN Accuracy
Religious Organisations,Mission Without Borders,10 Stubbs St,Auburn,NSW,2144,10 Stubbs St.Auburn.NSW.2144,-33.8401131,151.0358435,,,,,,38 000 827 798,Active,Entity Name,25% ABN Accuracy
Religious Organisations,Missionaries Of Charity,105 Third St,Katherine,NT,850,105 Third St.Katherine.NT.850,-14.461209,132.264927,,,,,,48 874 356 825,Active,Entity Name (Historic),25% ABN Accuracy
Religious Organisations,Missionary Sisters Of Mary Queen Novitiate,200 William St,Granville,NSW,2142,200 William St.Granville.NSW.2142,-33.8344813,150.998716,,,,,,37 092 752 611,Active,Trading Name,25% ABN Accuracy
Religious Organisations,Multicultural Christian Fellowship Of Aust Incorp,2 Earhart Ct,Marrara,NT,812,2 Earhart Ct.Marrara.NT.812,-12.4074001,130.9131961,,cmangohig@yahoo.com,,101-200,1994,33 069 610 795,Active,Entity Name,25% ABN Accuracy
Religious Organisations,Mundubbera New Life Centre,32 Stuart Russell St,Mundubbera,QLD,4626,32 Stuart Russell St.Mundubbera.QLD.4626,-25.5908019,151.3005862,,,,,,33 087 065 502,Active,Trading Name,25% ABN Accuracy
Religious Organisations,Muslim Organisation Sunshine Coast Inc,,Maroochydore,QLD,4558,.Maroochydore.QLD.4558,-26.6520957,153.0826248,,,,,,22 031 206 810,Active,Entity Name,25% ABN Accuracy
Religious Organisations,New Apostolic Church,Cnr Queens Rd and Arch St,Kingston,QLD,4114,Cnr Queens Rd and Arch St.Kingston.QLD.4114,-27.6509917,153.1254865,,,,,,67 011 031 780,Active,Entity Name,25% ABN Accuracy
Religious Organisations,New Lambton Baptist Church,1 Longworth Ave,New Lambton,NSW,2305,1 Longworth Ave.New Lambton.NSW.2305,-32.9269916,151.7180804,,newlambtonbaptist@gmail.com,,,,69 568 699 164,Active,Other Name,25% ABN Accuracy
Religious Organisations,North Gate Church,Cnr Of Griffith Mc Donald Rd,Lavington,NSW,2641,Cnr Of Griffith Mc Donald Rd.Lavington.NSW.2641,-36.0432238,146.9363594,,,,,,49 718 295 102,Active,Entity Name (Historic),25% ABN Accuracy
Religious Organisations,Northside Church,64 Baddeley Cres,Spence,ACT,2615,64 Baddeley Cres.Spence.ACT.2615,-35.1995684,149.0655368,,info@northsidechurch.net.au,http://www.northsidechurch.net.au,,,70 428 791 616,Active,Entity Name,25% ABN Accuracy
Religious Organisations,O.A.C. Ministries,2 Bangalay St,Georges Hall,NSW,2198,2 Bangalay St.Georges Hall.NSW.2198,-33.9060777,150.9841723,,,,,,59 000 275 829,Active,Entity Name,25% ABN Accuracy
Religious Organisations,OAC Ministries Australia,6 Ingal St,Wishart,QLD,4122,6 Ingal St.Wishart.QLD.4122,-27.5545068,153.0928859,,,,,,59 000 275 829,Active,Entity Name,25% ABN Accuracy
Religious Organisations,Poor Clares Bethlehem Monastery,Narellan Rd,Campbelltown,NSW,2560,Narellan Rd.Campbelltown.NSW.2560,-34.0643903,150.7896887,,,,,,35 663 984 738,Active,Entity Name,25% ABN Accuracy
Religious Organisations,Potters House Christian Church,2 16 Randall St,Slacks Creek,QLD,4127,2 16 Randall St.Slacks Creek.QLD.4127,-27.6255144,153.1189502,,sreeves88@live.com.au,www.pottershouselogan.com.au,,,23 864 517 891,Active,Trading Name,25% ABN Accuracy
Religious Organisations,Presbyterian Church Blaxland,1 5A Wilson Way St,Blaxland,NSW,2774,1 5A Wilson Way St.Blaxland.NSW.2774,-33.7418564,150.6085974,,,,,,88 014 202 128,Active,Entity Name,25% ABN Accuracy
Religious Organisations,Queensland Christian Soccer Association,Brittain Park,Coopers Plains,QLD,4108,Brittain Park.Coopers Plains.QLD.4108,-27.5689028,153.0467691,,,http://www.qcsa.org.au,,,37 969 193 568,Active,Entity Name,25% ABN Accuracy
Religious Organisations,Queensland Mailbox Bible Club,131 Leybourne St,Chelmer,QLD,4068,131 Leybourne St.Chelmer.QLD.4068,-27.5166258,152.9839699,,,,,,95 421 049 456,Active,Entity Name,25% ABN Accuracy
Religious Organisations,Red Shield Defence Services,29 Falcon Crst,Condon,QLD,4815,29 Falcon Crst.Condon.QLD.4815,-19.3365309,146.7221436,,,,,,57 507 607 457,Active,DGR Name (Historic),25% ABN Accuracy
Religious Organisations,Red Shield Defence Services,51 Frank St,Kirwan,QLD,4817,51 Frank St.Kirwan.QLD.4817,-19.2912338,146.7418652,,,,,,57 507 607 457,Active,DGR Name (Historic),25% ABN Accuracy
Religious Organisations,Redemptorist Mission Team,24 Garden St,Kogarah,NSW,2217,24 Garden St.Kogarah.NSW.2217,-33.97153,151.13104,,,,,,23 152 266 720,Active,Trading Name (Historic),25% ABN Accuracy
Religious Organisations,Religious Society Of Friends (Quakers),1 Bailey St,Repton,NSW,2454,1 Bailey St.Repton.NSW.2454,-30.4381527,153.0223233,,,,,,16 036 715 933,Active,Entity Name,25% ABN Accuracy
Religious Organisations,Revival Centres Of Aust,130 Excelsior St,Merrylands,NSW,2160,130 Excelsior St.Merrylands.NSW.2160,-33.8485153,151.0013654,,,,,,82 413 449 427,Active,Entity Name,25% ABN Accuracy
Religious Organisations,Ruach Ministries,"Level 1, Seaforth Baptist Church, Cnr McMillian St and Frenchs Forest Rd",Seaforth,NSW,2092,"Level 1, Seaforth Baptist Church, Cnr McMillian St and Frenchs Forest Rd.Seaforth.NSW.2092",-33.7944447,151.25023,,,http://www.ruach.org.au,,,40 050 612 336,Active,Entity Name,25% ABN Accuracy
Religious Organisations,Scripture Union Australia,14/ 13 Gibbens Rd,Gosford West,NSW,2250,14/ 13 Gibbens Rd.Gosford West.NSW.2250,-33.4142234,151.3211577,,,http://www.scriptureunion.org.au,,,53 681 642 927,Active,Entity Name,25% ABN Accuracy
Religious Organisations,Selected Messages,36 Kastelan St,Blacktown,NSW,2148,36 Kastelan St.Blacktown.NSW.2148,-33.7772165,150.8867883,,,,,,44 123 751 315,Active,Entity Name,25% ABN Accuracy
Religious Organisations,Shalom House of Prayer,Collins St,Carcoar,NSW,2791,Collins St.Carcoar.NSW.2791,-33.6094242,149.1413485,,,,,,86 370 010 355,Active,Entity Name,25% ABN Accuracy
Religious Organisations,Society Of Christian Doctrine,3 Bunyala St,Carss Park,NSW,2221,3 Bunyala St.Carss Park.NSW.2221,-33.9849008,151.1145676,,,,,,16 479 430 975,Active,Entity Name,25% ABN Accuracy
Religious Organisations,Society Of Friends (Quakers),54 Addison Rd,New Lambton,NSW,2305,54 Addison Rd.New Lambton.NSW.2305,-32.9274663,151.7077354,,,,,,16 036 715 933,Active,Entity Name,25% ABN Accuracy
Religious Organisations,Southport Gospel Chapel,10 Marine Parade,Southport,QLD,4215,10 Marine Parade.Southport.QLD.4215,-27.9711103,153.4171741,,,,,,35 591 388 477,Active,Entity Name,25% ABN Accuracy
Religious Organisations,Spearhead International Fivefold Ministry Networking Inc,Cnr Argyle and O'Connell Sts,Parramatta,NSW,2150,Cnr Argyle and O'Connell Sts.Parramatta.NSW.2150,-33.8160961,150.9993076,,,,,,80 360 394 802,Active,Entity Name (Historic),25% ABN Accuracy
Religious Organisations,Spirited Consulting,,Castle Hill,NSW,2154,.Castle Hill.NSW.2154,-33.7270691,150.9947439,,,,,,31 086 217 941,Active,Entity Name,25% ABN Accuracy
Religious Organisations,Sri Venkateswara Temple,Temple Rd,Helensburgh,NSW,2508,Temple Rd.Helensburgh.NSW.2508,-34.2094464,150.975906,,,,,,51 421 660 604,Active,Entity Name,25% ABN Accuracy
Religious Organisations,St Ninian's Uniting Church,150 Brigalow St,Lyneham,ACT,2602,150 Brigalow St.Lyneham.ACT.2602,-35.2482235,149.1280356,,,http://www.stninians.org.au,,1977,28 946 281 350,Active,Entity Name (Historic),25% ABN Accuracy
Religious Organisations,Stanley River Valley Community Church,115 Archer St,Woodford,QLD,4514,115 Archer St.Woodford.QLD.4514,-26.9550303,152.7785731,,,,,,74 572 168 071,Active,Trading Name,25% ABN Accuracy
Religious Organisations,Summit Lighthouse,191 Dornoch Tce,Highgate Hill,QLD,4101,191 Dornoch Tce.Highgate Hill.QLD.4101,-27.4876442,153.0182761,,,,,,58 272 941 331,Active,Entity Name,25% ABN Accuracy
Religious Organisations,Terrace Christian Church,80 Benjamin Lee Dr,Raymond Terrace,NSW,2324,80 Benjamin Lee Dr.Raymond Terrace.NSW.2324,-32.7605609,151.7742926,,,http://www.terracechristianchurch.com,,,12 576 873 045,Active,Trading Name,25% ABN Accuracy
Religious Organisations,The Catholic Development Fund,Lake St,Cairns,QLD,4870,Lake St.Cairns.QLD.4870,-16.91228,145.7675036,,,,,,36 939 424 395,Active,Entity Name,25% ABN Accuracy
Religious Organisations,The Christian Community In Australia,170 Beattie St,Balmain,NSW,2041,170 Beattie St.Balmain.NSW.2041,-33.8600155,151.1737985,,,,,,26 763 239 376,Active,Entity Name (Historic),25% ABN Accuracy
Religious Organisations,The Exodus Foundation,180 Liverpool Rd,Ashfield,NSW,2131,180 Liverpool Rd.Ashfield.NSW.2131,-33.8903326,151.127235,,,,,,47 342 342 713,Active,Entity Name,25% ABN Accuracy
Religious Organisations,The Far North Buddhist Association Inc,14 Bolwarra Cl,Redlynch,QLD,4870,14 Bolwarra Cl.Redlynch.QLD.4870,-16.9028006,145.6923242,,,,,,71 704 334 526,Active,Entity Name,25% ABN Accuracy
Religious Organisations,Theosophical Society In Australia,484 Kent St,Sydney,NSW,2000,484 Kent St.Sydney.NSW.2000,-33.8745911,151.2055542,,,,,,89 922 774 327,Active,Entity Name,25% ABN Accuracy
Religious Organisations,Tinana Christian Fellowship,115 Gympie Rd,Tinana,QLD,4650,115 Gympie Rd.Tinana.QLD.4650,-25.550432,152.6774216,,,,,,62 249 615 163,Active,Entity Name,25% ABN Accuracy
Religious Organisations,Uniting Church In Australia,1 Queens Ave,Cardiff,NSW,2285,1 Queens Ave.Cardiff.NSW.2285,-32.9453752,151.6588961,,,,,,63 415 761 601,Active,Entity Name (Historic),25% ABN Accuracy
Religious Organisations,Uniting Church In Australia,10 Stockton St,Morisset,NSW,2264,10 Stockton St.Morisset.NSW.2264,-33.1054211,151.4790897,,,,,,63 415 761 601,Active,Entity Name (Historic),25% ABN Accuracy
Religious Organisations,Unity School Of Christianity,14 Lockhart St,Woolloongabba,QLD,4102,14 Lockhart St.Woolloongabba.QLD.4102,-27.4893787,153.0290381,,,,,,79 009 836 819,Active,Entity Name,25% ABN Accuracy
Religious Organisations,Walk Thru The Bible Ministries,36 Georges Crst,Georges Hall,NSW,2198,36 Georges Crst.Georges Hall.NSW.2198,-33.9124073,150.9819444,,,,,,20 241 615 759,Active,Entity Name (Historic),25% ABN Accuracy
Religious Organisations,Warringah Church Of Christ (Non Denominational),Cnr Park Bennett St,Curl Curl,NSW,2096,Cnr Park Bennett St.Curl Curl.NSW.2096,-33.7690007,151.2844786,,,,,,57 809 399 072,Active,Entity Name,25% ABN Accuracy
Religious Organisations,Wishart Christian Village Association Inc,Unit 30/ 3 Erindale Cl,Wishart,QLD,4122,Unit 30/ 3 Erindale Cl.Wishart.QLD.4122,-27.550061,153.1033987,,,,,,67 089 024 936,Active,Entity Name,25% ABN Accuracy
Religious Organisations,Youth Ministries,125 New Line Rd,Cherrybrook,NSW,2126,125 New Line Rd.Cherrybrook.NSW.2126,-33.7325547,151.0433849,,,,,,59 962 540 635,Active,Other Name (Historic),25% ABN Accuracy
Religious Organisations,Asian Outreach Australia,,Castle Cove,NSW,2069,.Castle Cove.NSW.2069,-33.7874727,151.2112292,,,,,,94 689 468 278,Cancelled,Entity Name,25% ABN Accuracy
Religious Organisations,Bread Of Life Ministries,10-12 Dundas Crt West,Phillip,ACT,2606,10-12 Dundas Crt West.Phillip.ACT.2606,-35.3538419,149.0880687,,,,,,47 008 618 371,Cancelled,Entity Name,25% ABN Accuracy
Religious Organisations,Brisbane Seafarers Centre,114 Malbar St,Wynnum,QLD,4178,114 Malbar St.Wynnum.QLD.4178,-27.4462048,153.1551419,,,,,,57 351 654 755,Cancelled,Trading Name (Historic),25% ABN Accuracy
Religious Organisations,Catholic Communications,74 Greenwich Rd,Greenwich,NSW,2065,74 Greenwich Rd.Greenwich.NSW.2065,-33.8323765,151.1864286,,,,,,93 453 417 717,Cancelled,Entity Name,25% ABN Accuracy
Religious Organisations,Children For Christ,61 Belmont Rd,Tingalpa,QLD,4173,61 Belmont Rd.Tingalpa.QLD.4173,-27.4776533,153.1282345,,,,,,56 057 584 111,Cancelled,Entity Name,25% ABN Accuracy
Religious Organisations,Christian Science Federal Representative,9 Wrights Rd,Drummoyne,NSW,2047,9 Wrights Rd.Drummoyne.NSW.2047,-33.8496686,151.1540576,,,,,,85 058 264 301,Cancelled,Entity Name,25% ABN Accuracy
Religious Organisations,Churches Of Christ Care Pathways Maryborough,26 Jupiter St,Maryborough,QLD,4650,26 Jupiter St.Maryborough.QLD.4650,-25.5268497,152.6767558,,,,,,17 359 610 353,Cancelled,Other Name,25% ABN Accuracy
Religious Organisations,Creative Times,4A Pacific Hwy,Gateshead,NSW,2290,4A Pacific Hwy.Gateshead.NSW.2290,-32.9828227,151.691591,,,,,,64 007 197 702,Cancelled,Entity Name,25% ABN Accuracy
Religious Organisations,Deaconess House,129/ 133 Cambridge St,Stanmore,NSW,2048,129/ 133 Cambridge St.Stanmore.NSW.2048,-33.8947231,151.1660372,,,,,,44 808 550 198,Cancelled,Entity Name,25% ABN Accuracy
Religious Organisations,Epoch Community,,Tuggerawong,NSW,2259,.Tuggerawong.NSW.2259,-33.2806497,151.4763953,,,,,,49 063 125 569,Cancelled,Entity Name,25% ABN Accuracy
Religious Organisations,Freedom In Christ,Trident St,Mansfield,QLD,4122,Trident St.Mansfield.QLD.4122,-27.5388046,153.1033276,,,,,,59 102 213 007,Cancelled,Entity Name,25% ABN Accuracy
Religious Organisations,Harvest School of Ministry,Cnr Burnham and Simpsons Rds,Bardon,QLD,4065,Cnr Burnham and Simpsons Rds.Bardon.QLD.4065,-27.4608319,152.9781517,,,,,,70 679 589 227,Cancelled,Entity Name,25% ABN Accuracy
Religious Organisations,Islamic Information Service,,Yagoona,NSW,2199,.Yagoona.NSW.2199,-33.9050378,151.0209375,,,,,,85 091 903 552,Cancelled,Entity Name (Historic),25% ABN Accuracy
Religious Organisations,Liturgy Commission,300 The River Rd,Revesby,NSW,2212,300 The River Rd.Revesby.NSW.2212,-33.9639187,151.0150253,,,,,,72 602 822 085,Cancelled,Entity Name,25% ABN Accuracy
Religious Organisations,Maurice Elias Essential Oils For Wellness,,Bondi Beach,NSW,2026,.Bondi Beach.NSW.2026,-33.8914755,151.2766845,,,,,,62 185 935 404,Cancelled,Entity Name,25% ABN Accuracy
Religious Organisations,Meade J,24 Amsonia Ct,Arundel,QLD,4214,24 Amsonia Ct.Arundel.QLD.4214,-27.9258934,153.35363,,,,,,21 095 100 961,Cancelled,Entity Name,25% ABN Accuracy
Religious Organisations,National Council of Jewish Women,,Woollahra,NSW,2025,.Woollahra.NSW.2025,-33.8865002,151.2437606,,,,,,13 096 053 140,Cancelled,Entity Name (Historic),25% ABN Accuracy
Religious Organisations,RIGPA,822 George St,Sydney,NSW,2000,822 George St.Sydney.NSW.2000,-33.8842399,151.2026402,,,,,,57 064 573 600,Cancelled,Entity Name,25% ABN Accuracy
Religious Organisations,St Andrew's Retirement Village,142 Marius St,Tamworth,NSW,2340,142 Marius St.Tamworth.NSW.2340,-31.0861792,150.9293941,,,,,,24 352 728 764,Cancelled,Trading Name (Historic),25% ABN Accuracy
Religious Organisations,The Gnostic Movement,PO Box 1581,Bondi Junction,NSW,1355,PO Box 1581.Bondi Junction.NSW.1355,-33.8928168,151.2551822,,,,,,66 096 846 178,Cancelled,Entity Name,25% ABN Accuracy
Religious Organisations,The Gnostic Movement,PO Box 6275,Fairfield,QLD,4103,PO Box 6275.Fairfield.QLD.4103,-27.5062172,153.0268556,,,,,,66 096 846 178,Cancelled,Entity Name,25% ABN Accuracy
Religious Organisations,Transport For Christ,Cnr Lyell and Priestley Sts,Mittagong,NSW,2575,Cnr Lyell and Priestley Sts.Mittagong.NSW.2575,-34.4500074,150.4344713,,,,,,93 002 633 892,Cancelled,Entity Name,25% ABN Accuracy
Religious Organisations,Voice Of Peace,3 Alfred Ave,Woolooware,NSW,2230,3 Alfred Ave.Woolooware.NSW.2230,-34.0439938,151.1504012,,,,,,14 003 429 730,Cancelled,Entity Name,25% ABN Accuracy
Religious Organisations,Youth Alive (QLD) Ltd,,Mt Ommaney,QLD,4074,.Mt Ommaney.QLD.4074,-27.5452429,152.9319813,,,,,,11 494 002 324,Cancelled,Entity Name,25% ABN Accuracy
Religious Organisations,ABC electronics,22 Asd Bdwy,Ashby,NSW,2463,22 Asd Bdwy.Ashby.NSW.2463,-29.4362923,153.197212,,info@businessabc.com,,,,90 038 177 499,Active,Trading Name,50% ABN Accuracy
Religious Organisations,Alert Magazine,148 Fox Valley Rd,Wahroonga,NSW,2076,148 Fox Valley Rd.Wahroonga.NSW.2076,-33.7324211,151.102188,,,,,,85 349 573 160,Active,Other Name,50% ABN Accuracy
Religious Organisations,Anglican Boys Society (CEBS),First Floor St Andrew's House Sydney Sq,Sydney,NSW,2000,First Floor St Andrew's House Sydney Sq.Sydney.NSW.2000,-33.8738433,151.2055998,,,,,,53 258 341 328,Active,Trading Name,50% ABN Accuracy
Religious Organisations,Annesley House,17 Marion St North,Leichhardt,NSW,2040,17 Marion St North.Leichhardt.NSW.2040,-33.8837416,151.1559357,,,,,,19 034 720 463,Active,Business Name,50% ABN Accuracy
Religious Organisations,Assemblies Of God,Baddeley Cres,Spence,ACT,2615,Baddeley Cres.Spence.ACT.2615,-35.2030931,149.0651496,,,,,,16 231 783 503,Active,Entity Name,50% ABN Accuracy
Religious Organisations,Bible Baptist Church,178 Humphries Rd,St Johns Park,NSW,2176,178 Humphries Rd.St Johns Park.NSW.2176,-33.890083,150.9020566,,,,,,14 584 157 038,Active,Entity Name,50% ABN Accuracy
Religious Organisations,Catholic Church,2 Bendooley St,Bowral,NSW,2576,2 Bendooley St.Bowral.NSW.2576,-34.4777547,150.4208625,,,,,,45 373 620 104,Active,Business Name,50% ABN Accuracy
Religious Organisations,Catholic Church,88 Chestnut St,Wynnum,QLD,4178,88 Chestnut St.Wynnum.QLD.4178,-27.4483094,153.173598,,,,,,45 373 620 104,Active,Business Name,50% ABN Accuracy
Religious Organisations,Catholic Development Fund,38 Harbour St,Wollongong,NSW,2500,38 Harbour St.Wollongong.NSW.2500,-34.4259546,150.9017839,,,,,,15 274 943 760,Active,Trading Name,50% ABN Accuracy
Religious Organisations,Catholic Development Fund,,Bathurst,NSW,2795,.Bathurst.NSW.2795,-33.4111857,149.578693,,,,,,15 274 943 760,Active,Trading Name,50% ABN Accuracy
Religious Organisations,Catholic Education Office,Gilmour St,Kelso,NSW,2795,Gilmour St.Kelso.NSW.2795,-33.4075224,149.5998707,,,,,,91 893 631 195,Active,Entity Name,50% ABN Accuracy
Religious Organisations,Catholic Women's League,143 Edward St,Brisbane,QLD,4000,143 Edward St.Brisbane.QLD.4000,-27.4694171,153.0283252,,,,,,87 226 835 256,Active,Trading Name,50% ABN Accuracy
Religious Organisations,Centacare,21 Cornmeal Parade,Maroochydore,QLD,4558,21 Cornmeal Parade.Maroochydore.QLD.4558,-26.6541657,153.0919442,,,www.scopedv.org,,,90 046 512 373,Active,Entity Name (Historic),50% ABN Accuracy
Religious Organisations,Christian Fellowship,Jingellic Pl,Wagga Wagga,NSW,2650,Jingellic Pl.Wagga Wagga.NSW.2650,-35.0546731,147.3515776,,,http://cfwagga.org.au,,,89 635 875 821,Active,Entity Name (Historic),50% ABN Accuracy
Religious Organisations,Christian Hope Centre Ltd,12 Beach Rd,Surfers Paradise,QLD,4217,12 Beach Rd.Surfers Paradise.QLD.4217,-28.0033491,153.4274563,,,,,,81 076 486 890,Active,Entity Name,50% ABN Accuracy
Religious Organisations,Christian Life Centre,137 Princes Hwy,Ulladulla,NSW,2539,137 Princes Hwy.Ulladulla.NSW.2539,-35.3615034,150.4726366,,,,,,45 464 073 996,Active,Entity Name (Historic),50% ABN Accuracy
Religious Organisations,Christian Outreach Centre,195 Elizabeth Ave,Clontarf,QLD,4019,195 Elizabeth Ave.Clontarf.QLD.4019,-27.247105,153.0820204,,,,,,72 157 669 672,Active,Entity Name,50% ABN Accuracy
Religious Organisations,Christian Outreach Centre,International Club Fairfoot Rd,Ingham,QLD,4850,International Club Fairfoot Rd.Ingham.QLD.4850,-18.6510538,146.1568444,,,,,,72 157 669 672,Active,Entity Name,50% ABN Accuracy
Religious Organisations,Christian Witness To Israel (Australia),34 Ocean St,Bondi,NSW,2026,34 Ocean St.Bondi.NSW.2026,-33.8924143,151.2631178,,,,,,40 986 166 171,Active,Entity Name,50% ABN Accuracy
Religious Organisations,Church of Scientology Australia,43 Dudley St,Annerley,QLD,4103,43 Dudley St.Annerley.QLD.4103,-27.510722,153.030372,,brisbane@scientology.net,http://www.scientology.org,,,25 151 052 274,Active,Entity Name,50% ABN Accuracy
Religious Organisations,Daughters Of Charity,256 Buff Point Ave,Buff Point,NSW,2262,256 Buff Point Ave.Buff Point.NSW.2262,-33.2311026,151.529594,,,,,,37 783 925 190,Active,Trading Name,50% ABN Accuracy
Religious Organisations,Daughters Of Charity,47/128 George,Redfern,NSW,2016,47/128 George.Redfern.NSW.2016,-33.8933352,151.2016385,,,,,,37 783 925 190,Active,Trading Name,50% ABN Accuracy
Religious Organisations,Daughters Of Charity,22 Henry St,Ashfield,NSW,2131,22 Henry St.Ashfield.NSW.2131,-33.8790555,151.1279632,,,,,,37 783 925 190,Active,Trading Name,50% ABN Accuracy
Religious Organisations,Daughters Of Charity,38 Culloden Rd,Marsfield,NSW,2122,38 Culloden Rd.Marsfield.NSW.2122,-33.7777734,151.101251,,,,,,37 783 925 190,Active,Trading Name,50% ABN Accuracy
Religious Organisations,Daughters Of Charity,1 Keiley St,Marsfield,NSW,2122,1 Keiley St.Marsfield.NSW.2122,-33.783231,151.1042315,,,,,,37 783 925 190,Active,Trading Name,50% ABN Accuracy
Religious Organisations,Daughters Of Charity,172 Balaclava Rd,Eastwood,NSW,2122,172 Balaclava Rd.Eastwood.NSW.2122,-33.7782767,151.1048459,,,,,,37 783 925 190,Active,Trading Name,50% ABN Accuracy
Religious Organisations,Daughters Of Charity,109 Agincourt Rd,Marsfield,NSW,2122,109 Agincourt Rd.Marsfield.NSW.2122,-33.7842201,151.1052098,,,,,,37 783 925 190,Active,Trading Name,50% ABN Accuracy
Religious Organisations,Daughters Of Charity,4 Koorong St,Marsfield,NSW,2122,4 Koorong St.Marsfield.NSW.2122,-33.77913,151.1062564,,,,,,37 783 925 190,Active,Trading Name,50% ABN Accuracy
Religious Organisations,De La Salle Brothers,32 Bauer St,Southport,QLD,4215,32 Bauer St.Southport.QLD.4215,-27.9764371,153.4151699,,,,,,92 893 323 605,Active,Other Name,50% ABN Accuracy
Religious Organisations,Destiny Impact Worship Centre,6 Speed St,Liverpool,NSW,2170,6 Speed St.Liverpool.NSW.2170,-33.9261974,150.9253027,,info@destinyimpact.org,http://www.destinyimpact.org,,,30 935 347 994,Active,Entity Name,50% ABN Accuracy
Religious Organisations,Eckankar Society Of Northern Australia,1st Floor 967 Logan Rd,Holland Park,QLD,4121,1st Floor 967 Logan Rd.Holland Park.QLD.4121,-27.5196873,153.0614196,,,,,,18 058 053 740,Active,Entity Name,50% ABN Accuracy
Religious Organisations,Eckankar Society of Northern Australia,Shop 3/ 14 Lavelle St,Nerang,QLD,4211,Shop 3/ 14 Lavelle St.Nerang.QLD.4211,-27.9901841,153.3349143,,,,,,18 058 053 740,Active,Entity Name,50% ABN Accuracy
Religious Organisations,ELEVATION CHURCH,7/ 9 Ern Harley Dr,Burleigh Heads,QLD,4220,7/ 9 Ern Harley Dr.Burleigh Heads.QLD.4220,-28.1030953,153.4108142,,,elevationchurch.com.au/,,,79 400 419 737,Active,Business Name,50% ABN Accuracy
Religious Organisations,Everyman's Welfare Service,Robertson Barracks,Darwin,NT,800,Robertson Barracks.Darwin.NT.800,-12.4376292,130.9779384,,,,,,31 000 348 550,Active,Entity Name,50% ABN Accuracy
Religious Organisations,Faber Centre Of Ignatian Spirituality,111 Sir Samuel Griffith Dr,Bardon,QLD,4065,111 Sir Samuel Griffith Dr.Bardon.QLD.4065,-27.46663,152.9693512,,reillygj@bigpond.com,http://www.faberspirituality.org.au,,,24 671 806 567,Active,Other Name,50% ABN Accuracy
Religious Organisations,Family Life Ministries,1/ 55 Fourth Ave,Blacktown,NSW,2148,1/ 55 Fourth Ave.Blacktown.NSW.2148,-33.7615122,150.9061465,,,,,,25 116 643 852,Active,Entity Name,50% ABN Accuracy
Religious Organisations,Family Life Ministries,16 Blackburn Ave,North Rocks,NSW,2151,16 Blackburn Ave.North Rocks.NSW.2151,-33.7735058,151.0250988,,,,,,25 116 643 852,Active,Entity Name,50% ABN Accuracy
Religious Organisations,Franciscan Missionaries Of Mary,57 Western Crst,Gladesville,NSW,2111,57 Western Crst.Gladesville.NSW.2111,-33.8291324,151.1214554,,,,,,51 422 745 804,Active,Trading Name,50% ABN Accuracy
Religious Organisations,Heritage Christian Church,116 Casuarina St,Katherine,NT,850,116 Casuarina St.Katherine.NT.850,-14.4676556,132.2976672,,heritagechurch@bigpond.com,http://www.heritagechristianchurchnt.com,,,14 719 603 343,Active,Entity Name,50% ABN Accuracy
Religious Organisations,Holy Spirit Seminary,487 Earnshaw Rd,Banyo,QLD,4014,487 Earnshaw Rd.Banyo.QLD.4014,-27.3769647,153.0860322,,seminary@qld.catholic.net.au,http://www.seminary.catholic.net.au,,1941,70 953 685 764,Active,Trading Name,50% ABN Accuracy
Religious Organisations,Iglesia Ni Cristo,13 Eskdale St,Minchinbury,NSW,2770,13 Eskdale St.Minchinbury.NSW.2770,-33.7867034,150.8418786,,,,,,46 002 812 259,Active,Entity Name,50% ABN Accuracy
Religious Organisations,International Christian Church,Farmborough Rd,Unanderra,NSW,2526,Farmborough Rd.Unanderra.NSW.2526,-34.461772,150.8341364,,,,,,25 501 991 481,Active,Entity Name,50% ABN Accuracy
Religious Organisations,Jehovahs Witnesses,475 Vernena Ave,Lurnea,NSW,2170,475 Vernena Ave.Lurnea.NSW.2170,-33.9416814,150.9024481,,,,,,42 002 861 225,Active,Trading Name,50% ABN Accuracy
Religious Organisations,Jehovah's Witnesses,27 Ninth Ave,Scottville,QLD,4804,27 Ninth Ave.Scottville.QLD.4804,-20.573257,147.8195165,,,,,,42 002 861 225,Active,Trading Name,50% ABN Accuracy
Religious Organisations,Living Waters Christian Church,1 Lake St,Windale,NSW,2306,1 Lake St.Windale.NSW.2306,-32.9902693,151.6859854,,peter@lwcc.org.au,http://www.lwcc.org.au,,,84 717 494 665,Active,Entity Name,50% ABN Accuracy
Religious Organisations,Living Word Fellowship,305 Bourbong St,Bundaberg West,QLD,4670,305 Bourbong St.Bundaberg West.QLD.4670,-24.8701539,152.3320855,,,,,,34 627 342 866,Active,Entity Name,50% ABN Accuracy
Religious Organisations,Meals On Wheels,21A Price St,Nambour,QLD,4560,21A Price St.Nambour.QLD.4560,-26.6247494,152.9580693,,,,,,36 301 121 574,Active,Trading Name (Historic),50% ABN Accuracy
Religious Organisations,Missionary Society Of St Paul,19 Stanley St,East Sydney,NSW,2010,19 Stanley St.East Sydney.NSW.2010,-33.8756926,151.2133396,,tarcismic@yahoo.com.au,,,1939,59 681 392 470,Active,Entity Name,50% ABN Accuracy
Religious Organisations,MMM Australia,70 Wyee Rd,Wyee,NSW,2259,70 Wyee Rd.Wyee.NSW.2259,-33.1698692,151.4749831,,,,,,66 005 126 956,Active,Entity Name,50% ABN Accuracy
Religious Organisations,MMM Australia,29 Lamington Rd,Mango Hill,QLD,4509,29 Lamington Rd.Mango Hill.QLD.4509,-27.2263818,153.0329016,,,,,,66 005 126 956,Active,Entity Name,50% ABN Accuracy
Religious Organisations,Nowra City Church,167 McMahons Rd,Nowra North,NSW,2541,167 McMahons Rd.Nowra North.NSW.2541,-34.8609179,150.5666282,,info@nowracitychurch.com.au,http://www.nowracitychurch.com.au,,,79 400 419 737,Active,Business Name,50% ABN Accuracy
Religious Organisations,NSW Council Of Churches,,Lalor Park,NSW,2147,.Lalor Park.NSW.2147,-33.7612155,150.9322527,,,,,,24 348 552 048,Active,Trading Name,50% ABN Accuracy
Religious Organisations,Our Lady Of Lourdes Parish,153 Holberton St,Newtown,QLD,4350,153 Holberton St.Newtown.QLD.4350,-27.5579541,151.9327491,,,,,,96 676 936 086,Active,Entity Name,50% ABN Accuracy
Religious Organisations,Pontifical Mission Societies,Barney St,Armidale,NSW,2350,Barney St.Armidale.NSW.2350,-30.5163697,151.6642526,,,,,,52 945 927 066,Active,Entity Name (Historic),50% ABN Accuracy
Religious Organisations,Presbyterian Church,7 McKern St,Wentworthville,NSW,2145,7 McKern St.Wentworthville.NSW.2145,-33.8094619,150.9703961,,general@pcnsw.org.au,www.presbyterian.org.au,,,11 700 430 154,Active,Trading Name,50% ABN Accuracy
Religious Organisations,Salvos Stores,9 Sydney Ave,Woy Woy,NSW,2256,9 Sydney Ave.Woy Woy.NSW.2256,-33.5213324,151.3155305,,,,,,25 878 329 270,Active,Other Name,50% ABN Accuracy
Religious Organisations,School for Seniors,400 Oxford Mall,Bondi Junction,NSW,2022,400 Oxford Mall.Bondi Junction.NSW.2022,-33.8916233,151.247723,,,,,,42 266 391 917,Active,Other Name,50% ABN Accuracy
Religious Organisations,Seventh-day Adventist Church,4 Cambridge St,Epping,NSW,2121,4 Cambridge St.Epping.NSW.2121,-33.7710733,151.0822786,,,www.adventistconnect.org,,,41 615 485 059,Active,Entity Name,50% ABN Accuracy
Religious Organisations,Shun Yeung Taoist Association Inc,G 12 Kent St,Belmore,NSW,2192,G 12 Kent St.Belmore.NSW.2192,-33.9206787,151.088908,,info@shunyeung.org,http://www.shunyeung.org,,,35 542 929 536,Active,Entity Name,50% ABN Accuracy
Religious Organisations,Society of Christ,3 Murray Sq,Mayfield,NSW,2304,3 Murray Sq.Mayfield.NSW.2304,-32.9056594,151.739686,,,,,,67 586 086 237,Active,Trading Name,50% ABN Accuracy
Religious Organisations,Southside Christian Centre,109 Golda Ave,Salisbury,QLD,4107,109 Golda Ave.Salisbury.QLD.4107,-27.5582295,153.0392718,,,,,,28 923 855 786,Active,Entity Name (Historic),50% ABN Accuracy
Religious Organisations,St Lazarus Serbian Orthodox Church,Dale St,Dapto,NSW,2530,Dale St.Dapto.NSW.2530,-34.50985,150.7789615,,,,,,30 051 826 729,Active,Entity Name,50% ABN Accuracy
Religious Organisations,St Vincent De Paul Society,321 Urana Rd,Lavington,NSW,2641,321 Urana Rd.Lavington.NSW.2641,-36.0510591,146.93204,,,,,,46 472 591 335,Active,Other Name,50% ABN Accuracy
Religious Organisations,St Vincent De Paul Society,38 Railway Tce,Alice Springs,NT,870,38 Railway Tce.Alice Springs.NT.870,-23.699223,133.8780298,,,,,,46 472 591 335,Active,Other Name,50% ABN Accuracy
Religious Organisations,St Vincent De Paul Society,27 Thompson St,Tennant Creek,NT,860,27 Thompson St.Tennant Creek.NT.860,-19.6498187,134.1881505,,,,,,46 472 591 335,Active,Other Name,50% ABN Accuracy
Religious Organisations,Storm Harvest Ministries,19 Sluman St,Denistone,NSW,2114,19 Sluman St.Denistone.NSW.2114,-33.7991345,151.0790202,,,,,,38 682 725 010,Active,Trading Name,50% ABN Accuracy
Religious Organisations,The Grail,22 McHatton St,North Sydney,NSW,2060,22 McHatton St.North Sydney.NSW.2060,-33.8340753,151.2036227,,,,,,64 405 075 647,Active,Entity Name,50% ABN Accuracy
Religious Organisations,The Redeemed Christian Church of God,14 Enterprise Dr,Glendenning,NSW,2761,14 Enterprise Dr.Glendenning.NSW.2761,-33.7466814,150.849603,,,,,,27 235 166 512,Active,Entity Name (Historic),50% ABN Accuracy
Religious Organisations,The Salvation Army,Union St,Newcastle West,NSW,2302,Union St.Newcastle West.NSW.2302,-32.9314404,151.7651454,,,,,,94 917 169 560,Active,Trading Name,50% ABN Accuracy
Religious Organisations,Uniting Aboriginal & Islander Christian Congress,Harvey's Range Rd,Condon,QLD,4815,Harvey's Range Rd.Condon.QLD.4815,-19.331591,146.714754,,,,,,81 839 276 921,Active,DGR Name,50% ABN Accuracy
Religious Organisations,WEC International,48 Woodside St West,Strathfield,NSW,2135,48 Woodside St West.Strathfield.NSW.2135,-33.8804502,151.0944031,,,wec.com.au,,,22 000 637 749,Active,Entity Name,50% ABN Accuracy
Religious Organisations,Wesleyan Methodist Church,68 Gayndah Rd,Maryborough,QLD,4650,68 Gayndah Rd.Maryborough.QLD.4650,-25.516881,152.6639232,,office@maryboroughwesleyan.org.au,http://www.maryboroughwesleyan.org.au/,,,55 296 526 622,Active,Entity Name (Historic),50% ABN Accuracy
Religious Organisations,Westminster Presbyterian Church,Stringybark Rd,Buderim,QLD,4556,Stringybark Rd.Buderim.QLD.4556,-26.7051757,153.0572446,,,,,,14 209 061 363,Active,Trading Name,50% ABN Accuracy
Religious Organisations,Winmalee Christian Conference Centre,Leslie St,Winmalee,NSW,2777,Leslie St.Winmalee.NSW.2777,-33.6682198,150.6135406,,,,,,25 726 376 925,Active,Trading Name (Historic),50% ABN Accuracy
Religious Organisations,Youth With A Mission,82 Parkway Ave,Cooks Hill,NSW,2300,82 Parkway Ave.Cooks Hill.NSW.2300,-32.9358937,151.7631218,,,,,,63 932 277 049,Active,Entity Name,50% ABN Accuracy
Religious Organisations,Youth With A Mission,28 Hanbury St,Mayfield,NSW,2304,28 Hanbury St.Mayfield.NSW.2304,-32.9008078,151.7320347,,,,,,63 932 277 049,Active,Entity Name,50% ABN Accuracy
Religious Organisations,Youth With A Mission,6/8 Highfield St,Mayfield,NSW,2304,6/8 Highfield St.Mayfield.NSW.2304,-32.8958463,151.7395688,,,,,,63 932 277 049,Active,Entity Name,50% ABN Accuracy
Religious Organisations,Youth With A Mission,76 Federal Hwy,Watson,ACT,2602,76 Federal Hwy.Watson.ACT.2602,-35.2282497,149.1610748,,,,,,63 932 277 049,Active,Entity Name,50% ABN Accuracy
Religious Organisations,Youth With A Mission Brisbane Inc,671 Samford Rd,Mitchelton,QLD,4053,671 Samford Rd.Mitchelton.QLD.4053,-27.4111445,152.9702674,,,,,,85 348 250 246,Active,Entity Name (Historic),50% ABN Accuracy
Religious Organisations,Aboriginal Catholic Ministry,77 Buckland St,Alexandria,NSW,2015,77 Buckland St.Alexandria.NSW.2015,-33.8993034,151.1966242,,,,,,40 453 682 263,Cancelled,Entity Name,50% ABN Accuracy
Religious Organisations,Australian Christian Entertainers,4- 22 Showground Rd,Castle Hill,NSW,2154,4- 22 Showground Rd.Castle Hill.NSW.2154,-33.7322113,151.0021031,,,,,,95 076 503 056,Cancelled,Business Name (Historic),50% ABN Accuracy
Religious Organisations,Australian Teachers Christian Fellowship Inc,16 Mill Hill St,Bondi Junction,NSW,2022,16 Mill Hill St.Bondi Junction.NSW.2022,-33.8916839,151.244421,,,,,,77 143 207 549,Cancelled,Entity Name (Historic),50% ABN Accuracy
Religious Organisations,Brisbane Revival Fellowship,11 Vine Crst,Mango Hill,QLD,4509,11 Vine Crst.Mango Hill.QLD.4509,-27.2458504,153.0225302,,,,,,71 830 275 411,Cancelled,Trading Name,50% ABN Accuracy
Religious Organisations,Brisbane Revival Fellowship,Unit 16/ 3 Sydney St,Redcliffe,QLD,4020,Unit 16/ 3 Sydney St.Redcliffe.QLD.4020,-27.2349557,153.1135321,,,,,,71 830 275 411,Cancelled,Trading Name,50% ABN Accuracy
Religious Organisations,Burnside,"Ermington Family Learning Centre,2 Jackson St",Ermington,NSW,2115,"Ermington Family Learning Centre,2 Jackson St.Ermington.NSW.2115",-33.8153758,151.0539813,,,,,,20 242 835 517,Cancelled,Trading Name (Historic),50% ABN Accuracy
Religious Organisations,Christian Brothers,Strand St,Forster,NSW,2428,Strand St.Forster.NSW.2428,-32.1875495,152.5258628,,,,,,58 361 642 378,Cancelled,Trading Name,50% ABN Accuracy
Religious Organisations,Christian Life Churches International,3791 Pacifc Hwy,Tanah Merah,QLD,4128,3791 Pacifc Hwy.Tanah Merah.QLD.4128,-27.6648519,153.1736787,,,,,,91 071 316 386,Cancelled,Trading Name,50% ABN Accuracy
Religious Organisations,Generation,5/ 1 Crown Ct,Varsity Lakes,QLD,4226,5/ 1 Crown Ct.Varsity Lakes.QLD.4226,-28.1010448,153.4076046,,,,,,93 670 733 244,Cancelled,Other Name (Historic),50% ABN Accuracy
Religious Organisations,Idara Minhaj-Ul-Quran Australasia Inc,15 Mary St,Auburn,NSW,2144,15 Mary St.Auburn.NSW.2144,-33.851542,151.0310557,,,,,,92 979 332 008,Cancelled,Entity Name,50% ABN Accuracy
Religious Organisations,Islamic Development Centre Of Australia,84 Helen St,Sefton,NSW,2162,84 Helen St.Sefton.NSW.2162,-33.8801549,151.0129798,,,,,,87 894 853 700,Cancelled,Entity Name,50% ABN Accuracy
Religious Organisations,It Ministries (Australia) Pty Ltd,2-6 Leabons Lane,Seven Hills,NSW,2147,2-6 Leabons Lane.Seven Hills.NSW.2147,-33.7845302,150.9246209,,,,,,23 069 504 301,Cancelled,Entity Name,50% ABN Accuracy
Religious Organisations,New Horizon Christian Church,197 Bunya Hwy,Murgon,QLD,4605,197 Bunya Hwy.Murgon.QLD.4605,-26.2391934,151.9326716,,,,,,67 327 471 700,Cancelled,Entity Name (Historic),50% ABN Accuracy
Religious Organisations,Northern Baptist Church,Oceana St,Narraweena,NSW,2099,Oceana St.Narraweena.NSW.2099,-33.7544976,151.2768796,,pastor@northernbaptist.com.au,http://www.northernbaptist.com.au,,,21 992 875 364,Cancelled,Trading Name (Historic),50% ABN Accuracy
Religious Organisations,Anglican Church of Australia,Suite 4 Leve 1 5 189 Kent St,Sydney,NSW,2000,Suite 4 Leve 1 5 189 Kent St.Sydney.NSW.2000,-33.863257,151.2036853,,gsoffice@anglican.org.au,Facebook,,,88 932 192 803,Active,Entity Name,75% ABN Accuracy
Religious Organisations,Australian New Muslims Association,69 Croydon St,Lakemba,NSW,2195,69 Croydon St.Lakemba.NSW.2195,-33.923824,151.0768501,,info@anma.com.au,http://anma.com.au,,,79 738 278 131,Active,Entity Name,75% ABN Accuracy
Religious Organisations,Bill Newman Ministries,,Tingalpa,QLD,4173,.Tingalpa.QLD.4173,-27.4718491,153.1295793,,,,,,80 010 468 596,Active,Business Name,75% ABN Accuracy
Religious Organisations,C3 Church Silverwater,unit 10-11/ 108-120 Silverwater Rd,Silverwater,NSW,2128,unit 10-11/ 108-120 Silverwater Rd.Silverwater.NSW.2128,-33.834257,151.0479125,,,http://www.myc3church.net,,,95 002 558 134,Active,Business Name,75% ABN Accuracy
Religious Organisations,Churches of Christ Care,41 Brookfield Rd,Kenmore,QLD,4069,41 Brookfield Rd.Kenmore.QLD.4069,-27.5053207,152.936084,,,,,,28 953 930 342,Active,PBIE Name (Historic),75% ABN Accuracy
Religious Organisations,Hinterland Church For Spiritual Growth,34 Price St,Nerang,QLD,4211,34 Price St.Nerang.QLD.4211,-27.9901877,153.3363513,,,,,,51 798 562 612,Active,Entity Name,75% ABN Accuracy
Religious Organisations,Kingdom Living Ministries International Inc,Suite 2 2 Station St,West Ryde,NSW,2114,Suite 2 2 Station St.West Ryde.NSW.2114,-33.8077161,151.0871408,,,,,,94 462 988 093,Active,Entity Name,75% ABN Accuracy
Religious Organisations,Nambour Assembly Of God,2 Mckenzie Rd,Nambour,QLD,4560,2 Mckenzie Rd.Nambour.QLD.4560,-26.6438327,152.9586999,,,,,,94 010 634 698,Active,Business Name,75% ABN Accuracy
Religious Organisations,OLSH Convent,,Rosebery,NSW,2018,.Rosebery.NSW.2018,-33.9221918,151.201678,,,,,,27 510 459 769,Active,Other Name,75% ABN Accuracy
Religious Organisations,Russian Orthodox Church,3 Irving St,Wallsend,NSW,2287,3 Irving St.Wallsend.NSW.2287,-32.9028116,151.6715441,,,,,,62 384 274 018,Active,Entity Name (Historic),75% ABN Accuracy
Religious Organisations,The Bridge Community Church,1 Chardon Bridge Rd,Cedar Creek,QLD,4207,1 Chardon Bridge Rd.Cedar Creek.QLD.4207,-27.8267967,153.1794879,,info@thebridgechurch.co,,,,47 788 061 278,Active,Entity Name,75% ABN Accuracy
Religious Organisations,United Christian Broadcasters Australia Limited,Unit 6 104 Compton Rd,Underwood,QLD,4119,Unit 6 104 Compton Rd.Underwood.QLD.4119,-27.6192403,153.1056568,,,secure.ucb.com.au/,,,15 051 984 402,Active,Entity Name,75% ABN Accuracy
Religious Organisations,Unity Reflections of Truth Inc.,Barjai Community Ctr Cnr Alexandra Rd & Haig St,Clayfield,QLD,4011,Barjai Community Ctr Cnr Alexandra Rd & Haig St.Clayfield.QLD.4011,-27.418951,153.058167,,,,,,17 688 651 453,Active,Entity Name,75% ABN Accuracy
Religious Organisations,Christian Faith Ministries,65 Gloucester Crst,Bray Park,QLD,4500,65 Gloucester Crst.Bray Park.QLD.4500,-27.2941456,152.9727043,,,,,,40 066 982 992,Cancelled,Entity Name (Historic),75% ABN Accuracy
Religious Organisations,Iglesia Ni Cristo (Church Of Christ),201- 203 Pennant Hills Rd,Carlingford,NSW,2118,201- 203 Pennant Hills Rd.Carlingford.NSW.2118,-33.7850795,151.0398805,,,,,,31 111 383 361,Cancelled,Entity Name,75% ABN Accuracy
Religious Organisations,Iglesia Ni Cristo (Church Of Christ),65 Orange Grove Rd,Coopers Plains,QLD,4108,65 Orange Grove Rd.Coopers Plains.QLD.4108,-27.5668696,153.0391568,,,,,,31 111 383 361,Cancelled,Entity Name,75% ABN Accuracy
Religious Organisations,Metro Church,,Southport,QLD,4215,.Southport.QLD.4215,-27.965505,153.4036287,,,,,,72 629 755 908,Cancelled,Entity Name,75% ABN Accuracy
Religious Organisations,Aboriginal & Islander Catholic Council,Arline St,Mt Isa,QLD,4825,Arline St.Mt Isa.QLD.4825,-20.7286656,139.5019213,,,,,,,,,
Religious Organisations,Acceptance For Gay & Lesbian Catholics,Merivale St,South Brisbane,QLD,4101,Merivale St.South Brisbane.QLD.4101,-27.4767923,153.0176996,,,,,,,,,
Religious Organisations,Adventist Alpine Village,Barry Way,Jindabyne,NSW,2627,Barry Way.Jindabyne.NSW.2627,-36.4806438,148.5729353,,,,,,,,,
Religious Organisations,Africa Inland Mission International (Australia) inc,Shop 16/ 482 Pacific Hwy,Wyoming,NSW,2250,Shop 16/ 482 Pacific Hwy.Wyoming.NSW.2250,-33.4085045,151.3492656,,,http://www.aimint.org/au/,,,76 948 116 145,Active,Entity Name,99% ABN Accuracy
Religious Organisations,Ahmadiyyia Muslim Association Of Aust,20 Hollingsworth Rd,Marsden Park,NSW,2765,20 Hollingsworth Rd.Marsden Park.NSW.2765,-33.7183124,150.8410464,,,,,,,,,
Religious Organisations,Alongside Industries Inc,11 Bartok St,Burpengary,QLD,4505,11 Bartok St.Burpengary.QLD.4505,-27.1646406,152.9720146,,,,,,,,,
Religious Organisations,Anglican Careforce Community Services,19A Gibbons St,Telopea,NSW,2117,19A Gibbons St.Telopea.NSW.2117,-33.7873225,151.0332627,,,,,,,,,
Religious Organisations,Anglican Conference Centres,St Andrew's House Sydney Sq,Sydney,NSW,2000,St Andrew's House Sydney Sq.Sydney.NSW.2000,-33.8741229,151.2057103,,,,,,,,,
Religious Organisations,Anglican Continuing Education for Ministers,St Andrew's House Sydney Sq,Sydney,NSW,2000,St Andrew's House Sydney Sq.Sydney.NSW.2000,-33.8741229,151.2057103,,,,,,,,,
Religious Organisations,Anglican Department of Evangelism,St Andrew's House Sydney Sq,Sydney,NSW,2000,St Andrew's House Sydney Sq.Sydney.NSW.2000,-33.8741229,151.2057103,,,,,,,,,
Religious Organisations,Anglican Education Commission,St Andrew's House Sydney Sq,Sydney,NSW,2000,St Andrew's House Sydney Sq.Sydney.NSW.2000,-33.8741229,151.2057103,,,,,,26 357 301 779,Active,Entity Name,99% ABN Accuracy
Religious Organisations,Anglican Girls Friendly Society (GFS),St Andrew's House Sydney Sq,Sydney,NSW,2000,St Andrew's House Sydney Sq.Sydney.NSW.2000,-33.8741229,151.2057103,,,,,,,,,
Religious Organisations,Anglican Independent Communion Australia Inc,,Capalaba,QLD,4157,.Capalaba.QLD.4157,-27.5354669,153.1971252,,,,,,,,,
Religious Organisations,Anglican Press Australia (CEP & AIO),St Andrew's House Sydney Sq,Sydney,NSW,2000,St Andrew's House Sydney Sq.Sydney.NSW.2000,-33.8741229,151.2057103,,,,,,,,,
Religious Organisations,Anglican Youth & Education,Level 1 464 Kent St,Sydney,NSW,2000,Level 1 464 Kent St.Sydney.NSW.2000,-33.8739637,151.2057205,,,http://www.youthworks.net,,,,,,
Religious Organisations,Armidale Seventh-day Adventist Church,67 Erskine St,Armidale,NSW,2350,67 Erskine St.Armidale.NSW.2350,-30.5039042,151.6776951,,LorenzoBerry@adventist.org.au,,,,,,,
Religious Organisations,Arundel House,29 Arundel St,Forest Lodge,NSW,2037,29 Arundel St.Forest Lodge.NSW.2037,-33.8842258,151.1894189,,,,,,85 179 595 383,Active,Entity Name,99% ABN Accuracy
Religious Organisations,Augustinian Formation Centre,60 Federal Parade,Brookvale,NSW,2100,60 Federal Parade.Brookvale.NSW.2100,-33.7586342,151.2717951,,,,,,,,,
Religious Organisations,Australasian Conference Association Ltd,148 Fox Valley Rd,Wahroonga,NSW,2076,148 Fox Valley Rd.Wahroonga.NSW.2076,-33.7324211,151.102188,,,,,,52 000 003 930,Active,Entity Name,99% ABN Accuracy
Religious Organisations,Australian Buddhist Vihara,43 Cliff Dr,Katoomba,NSW,2780,43 Cliff Dr.Katoomba.NSW.2780,-33.7256066,150.3164276,,,,,,39 439 023 267,Active,Entity Name,99% ABN Accuracy
Religious Organisations,Australian Catholic Relief,Favier House 1 Ballumbir St,Braddon,ACT,2612,Favier House 1 Ballumbir St.Braddon.ACT.2612,-35.2707501,149.1346368,,,,,,,,,
Religious Organisations,Australian Catholic Relief,128 Dangar St,Armidale,NSW,2350,128 Dangar St.Armidale.NSW.2350,-30.514609,151.6645306,,,,,,,,,
Religious Organisations,Australian Chinese Buddhist Society,654 Cabramatta Rd,Bonnyrigg,NSW,2177,654 Cabramatta Rd.Bonnyrigg.NSW.2177,-33.8949183,150.8966241,,,,,,24 145 185 904,Active,Entity Name,99% ABN Accuracy
Religious Organisations,Australian Institute Of Buddhist Learning & Practise,15 Metella Rd,Toongabbie,NSW,2146,15 Metella Rd.Toongabbie.NSW.2146,-33.7873583,150.9448021,,,,,,,,,
Religious Organisations,Australian Lutheran World Service,10 Somerset Dr,West Albury,NSW,2640,10 Somerset Dr.West Albury.NSW.2640,-36.0727743,146.8867509,,alws@alws.org.au,http://www.alws.org.au,,,36 660 551 871,Active,Entity Name,99% ABN Accuracy
Religious Organisations,Baha'i Community of Hornsby,19 Dural St,Hornsby,NSW,2077,19 Dural St.Hornsby.NSW.2077,-33.7026882,151.0947443,,,,,,,,,
Religious Organisations,Baha'i Faith,,Bonny Hills,NSW,2445,.Bonny Hills.NSW.2445,-31.5879159,152.8332402,,,,,,,,,
Religious Organisations,Baha'i Faith,PO Box 889,Toowoomba,QLD,4350,PO Box 889.Toowoomba.QLD.4350,-27.5564884,151.9533185,,,,,,,,,
Religious Organisations,Baha'i Faith,344 Chloride St,Broken Hill,NSW,2880,344 Chloride St.Broken Hill.NSW.2880,-31.9450304,141.4550991,,,,,,,,,
Religious Organisations,Baha'i Faith,29 Standley Crst,Alice Springs,NT,870,29 Standley Crst.Alice Springs.NT.870,-23.716477,133.8645796,,,,,,,,,
Religious Organisations,Baha'i Faith,2 Crispe St,Alice Springs,NT,870,2 Crispe St.Alice Springs.NT.870,-23.6892108,133.8686094,,,www.nt.bahai.org.au,,,,,,
Religious Organisations,Baha'i National Spiritual Assembly Communities,23 Nundah St,Lane Cove,NSW,2066,23 Nundah St.Lane Cove.NSW.2066,-33.8101711,151.1709761,,,,,,,,,
Religious Organisations,Baptist Church Bermagui,1 West St,Bermagui,NSW,2546,1 West St.Bermagui.NSW.2546,-36.42571,150.0643212,,,,,,,,,
Religious Organisations,Baptist Union Of NSW Aged Peoples Home,21 Leacocks Lane,Smithfield,NSW,2164,21 Leacocks Lane.Smithfield.NSW.2164,-33.9525783,150.9053058,,,,,,,,,
Religious Organisations,Basilio Scientific School Inc,103 Church St,Lidcombe,NSW,2141,103 Church St.Lidcombe.NSW.2141,-33.8635114,151.0519798,,,,,,,,,
Religious Organisations,Bauple Community Church,Main St,Bauple,QLD,4650,Main St.Bauple.QLD.4650,-25.8142662,152.619445,,,,,,62 864 031 429,Active,Trading Name (Historic),99% ABN Accuracy
Religious Organisations,Bayside Christian Church,18 Neils St,Pialba,QLD,4655,18 Neils St.Pialba.QLD.4655,-25.2861597,152.8455378,,,,,,80 677 063 497,Active,Entity Name,99% ABN Accuracy
Religious Organisations,BELLS Caloundra,47 Lomond Cres,Caloundra West,QLD,4551,47 Lomond Cres.Caloundra West.QLD.4551,-26.8028026,153.0916185,,psmith5@bne.catholic.edu.au,http://www.bells.org.au,,,,,,
Religious Organisations,Bessant Bookshop,355 Wickham Tce,Brisbane,QLD,4000,355 Wickham Tce.Brisbane.QLD.4000,-27.4639072,153.0208975,,,,,,,,,
Religious Organisations,Bethany Rain Harvest Ministries Inc,Unit 1/83- 85 Whiting St,Artarmon,NSW,2064,Unit 1/83- 85 Whiting St.Artarmon.NSW.2064,-33.8164485,151.1802699,,,,,,66 677 308 681,Active,Entity Name (Historic),99% ABN Accuracy
Religious Organisations,Billy Graham Evangelistic Asscn Ltd The,89 York St,Sydney,NSW,2000,89 York St.Sydney.NSW.2000,-33.8696481,151.2059185,,,,,,,,,
Religious Organisations,Blavatsky Lodge Of The Theosopical Society,484 Kent St,Sydney,NSW,2000,484 Kent St.Sydney.NSW.2000,-33.8745911,151.2055542,,,,,,,,,
Religious Organisations,Blue Mountains Insight Meditation Centre,25 Rutland Rd,Medlow Bath,NSW,2780,25 Rutland Rd.Medlow Bath.NSW.2780,-33.6789662,150.2867617,,,,,,11 005 353 218,Active,Trading Name,99% ABN Accuracy
Religious Organisations,Bridgeman Christian Outreach Centre,32 Carseldine Rd,Bridgeman Downs,QLD,4035,32 Carseldine Rd.Bridgeman Downs.QLD.4035,-27.3322511,153.0025249,,,,,,,,,
Religious Organisations,Brisbane Theosophical Society,355 Wickham Tce,Brisbane,QLD,4000,355 Wickham Tce.Brisbane.QLD.4000,-27.4639072,153.0208975,,,,,,73 635 882 391,Active,Entity Name,99% ABN Accuracy
Religious Organisations,Brisbane Unitarian Universalist Fellowship,12 Brendon St,Tarragindi,QLD,4121,12 Brendon St.Tarragindi.QLD.4121,-27.5341204,153.0550257,,,http://www.brisbaneuu.org.au,,,53 437 521 347,Active,Entity Name,99% ABN Accuracy
Religious Organisations,Buddhist Diamond Way Australia,104 Wattle St,Lyneham,ACT,2602,104 Wattle St.Lyneham.ACT.2602,-35.2514495,149.1239764,,,,,,,,,
Religious Organisations,Buddhist Loden Mahayana Centre,175 Denison Rd,Dulwich Hill,NSW,2203,175 Denison Rd.Dulwich Hill.NSW.2203,-33.9007442,151.1414689,,,,,,,,,
Religious Organisations,Buddhist Mahamakut Temple,88 Stanmore Rd,Stanmore,NSW,2048,88 Stanmore Rd.Stanmore.NSW.2048,-33.898512,151.1676075,,,,,,,,,
Religious Organisations,Buddhist Society Of Northern Territory Incorporated,37 Parkside Crst,Leanyer,NT,812,37 Parkside Crst.Leanyer.NT.812,-12.3796402,130.9045908,,,,,,,,,
Religious Organisations,"Buddhist, Rigpa Tibetan Meditation Centre",10 Swan St,Cooks Hill,NSW,2300,10 Swan St.Cooks Hill.NSW.2300,-32.9307867,151.7733712,,,,,,,,,
Religious Organisations,Buddhists-Association Of Engaged,20 Victoria St,Lewisham,NSW,2049,20 Victoria St.Lewisham.NSW.2049,-33.8944285,151.1464227,,,,,,,,,
Religious Organisations,Bundeena Christian Training School & Fellowship Ltd,25 Bundeena Dr,Bundeena,NSW,2230,25 Bundeena Dr.Bundeena.NSW.2230,-34.0846669,151.1500921,,,,,,,,,
Religious Organisations,C 3 Church Bridgeman Downs,1910 Gympie Rd,Bridgeman Downs,QLD,4035,1910 Gympie Rd.Bridgeman Downs.QLD.4035,-27.3313796,153.0070384,,,,,,13 869 139 280,Active,Business Name,99% ABN Accuracy
Religious Organisations,C3noosa,23 Ironhurst Pl,Peregian Springs,QLD,4573,23 Ironhurst Pl.Peregian Springs.QLD.4573,-26.4904472,153.0682737,,,http://www.c3noosa.org/,,,,,,
Religious Organisations,Canberra IPC,Kett St,Kambah,ACT,2902,Kett St.Kambah.ACT.2902,-35.3809314,149.059474,,canberra.ipc@gmail.com,,,,,,,
Religious Organisations,Canisius College,102 Mona Vale Rd,Pymble,NSW,2073,102 Mona Vale Rd.Pymble.NSW.2073,-33.7368255,151.1511472,,,,,,76 958 486 785,Active,Entity Name,99% ABN Accuracy
Religious Organisations,Canisius College,11 Calvert Parade,Newport Beach,NSW,2106,11 Calvert Parade.Newport Beach.NSW.2106,-33.6575063,151.3228664,,,,,,76 958 486 785,Active,Entity Name,99% ABN Accuracy
Religious Organisations,Capital Edge Community Church Hawker,Capital Bible Church Hall 80 Murranji St,Hawker,ACT,2614,Capital Bible Church Hall 80 Murranji St.Hawker.ACT.2614,-35.248107,149.034894,,,,,,,,,
Religious Organisations,Care Leavers Australia Network,463 Chapel Rd,Bankstown,NSW,2200,463 Chapel Rd.Bankstown.NSW.2200,-33.9130509,151.0351502,,clan.org@outlook.com,http://www.clan.org.au,,,,,,
Religious Organisations,Cataract River Ranch,71 Dredge Ave,Douglas Park,NSW,2569,71 Dredge Ave.Douglas Park.NSW.2569,-34.1955436,150.7176547,,,,,,53 996 816 309,Active,Trading Name,99% ABN Accuracy
Religious Organisations,Catholic Church Offices,Polding House 276 Pitt St,Sydney,NSW,2000,Polding House 276 Pitt St.Sydney.NSW.2000,-33.8740577,151.2083316,,,,,,,,,
Religious Organisations,Catholic Colleges & Schools,Banksia Ave,Engadine,NSW,2233,Banksia Ave.Engadine.NSW.2233,-34.0632615,151.0077484,,,,,,,,,
Religious Organisations,Catholic Development Fund - Diocese of Broken Bay,Building 2 423 Pennant Hills Road Rd,Pennant Hills,NSW,2120,Building 2 423 Pennant Hills Road Rd.Pennant Hills.NSW.2120,-33.7402844,151.0695567,,,,,,99 046 146 239,Active,Entity Name,99% ABN Accuracy
Religious Organisations,Catholic Development Fund Diocesan Offices,86- 88 Market St,Wollongong,NSW,2500,86- 88 Market St.Wollongong.NSW.2500,-34.4229487,150.8923716,,,,,,,,,
Religious Organisations,Catholic Education Commission NSW,276 Pitt St,Sydney,NSW,2000,276 Pitt St.Sydney.NSW.2000,-33.8740577,151.2083316,,,,,,33 266 477 369,Active,Entity Name,99% ABN Accuracy
Religious Organisations,Catholic Education Office - QLD,24 Charnley St,Kearneys Spring,QLD,4350,24 Charnley St.Kearneys Spring.QLD.4350,-27.5910781,151.9434469,,,,,,,,,
Religious Organisations,Catholic Education Office Archdiocese Of Sydney Eastern Region Office,33 Banks Ave,Daceyville,NSW,2032,33 Banks Ave.Daceyville.NSW.2032,-33.9304963,151.2256731,,,,,,,,,
Religious Organisations,Catholic Education Office Archdiocese Of Sydney Inner West Region Office,3 Keating St,Lidcombe,NSW,2141,3 Keating St.Lidcombe.NSW.2141,-33.86027,151.0467261,,,,,,,,,
Religious Organisations,Catholic Education Office Archdiocese Of Sydney Southern Region Office,300 The River Rd,Revesby Heights,NSW,2212,300 The River Rd.Revesby Heights.NSW.2212,-33.9639187,151.0150253,,,,,,,,,
Religious Organisations,Catholic Justice & Peace Commission,143 Edward St,Brisbane,QLD,4000,143 Edward St.Brisbane.QLD.4000,-27.4694171,153.0283252,,,http://www.uq.net.au/cjpc,,,,,,
Religious Organisations,Catholic Mission Office,133-141 Liverpool St,Sydney,NSW,2000,133-141 Liverpool St.Sydney.NSW.2000,-33.8770136,151.2083797,,,,,,,,,
Religious Organisations,Catholic Parish of St Francis Xavier Ballina,53-57 Cherry St,Ballina,NSW,2478,53-57 Cherry St.Ballina.NSW.2478,-28.8678509,153.5629289,,,,,,79 530 089 905,Active,Entity Name,99% ABN Accuracy
Religious Organisations,Catholic Religious Australia,,Annandale,NSW,2038,.Annandale.NSW.2038,-33.8824062,151.1723645,,,,,,92 291 126 804,Active,Entity Name,99% ABN Accuracy
Religious Organisations,Catholic Schools Office - Diocese of Maitland/Newcastle,841 Hunter St,Newcastle,NSW,2300,841 Hunter St.Newcastle.NSW.2300,-32.923473,151.7541446,,,,,,,,,
Religious Organisations,Catholic Youth Education Centre,James Byrne Centre Ms 617,Highfields,QLD,4352,James Byrne Centre Ms 617.Highfields.QLD.4352,-27.4764404,151.9598388,,,,,,,,,
Religious Organisations,Ccc American Samoa Sydney Parish,,Hoxton Park,NSW,2171,.Hoxton Park.NSW.2171,-33.93382,150.85284,,,,,,,,,
Religious Organisations,Celebration Community,15 Callum St,Queanbeyan,NSW,2620,15 Callum St.Queanbeyan.NSW.2620,-35.3601445,149.2205811,,,,,,,,,
Religious Organisations,Childers Wesleyan Methodist Church,6 Broadhurst St,Childers,QLD,4660,6 Broadhurst St.Childers.QLD.4660,-25.2361921,152.2742772,,rsteinbrecher@aol.com,http://www.childerswesleyanchurch.org.au,,,17 149 226 806,Active,Trading Name,99% ABN Accuracy
Religious Organisations,Christ Connect Church,48 Blenheim St,Chermside,QLD,4032,48 Blenheim St.Chermside.QLD.4032,-27.3915902,153.0158414,,info@christconnectchurch.com,http://www.christconnectchurch.com,,,73 642 566 937,Active,Entity Name,99% ABN Accuracy
Religious Organisations,Christ Ministries International Limited,12 Lindale St,Cashmere,QLD,4500,12 Lindale St.Cashmere.QLD.4500,-27.2886085,152.9285676,,cmifaceconection@cmifaceconection.org,http://www.cmifaceconection.org,,,,,,
Religious Organisations,Christadelphian Brisbane,Shop 33/ 20 Masthead Dr,Cleveland,QLD,4163,Shop 33/ 20 Masthead Dr.Cleveland.QLD.4163,-27.5221327,153.2674746,,,,,,,,,
Religious Organisations,Christadelphians Information Service,10 Tingara St,Whitebridge,NSW,2290,10 Tingara St.Whitebridge.NSW.2290,-32.9770446,151.7054289,,,,,,,,,
Religious Organisations,Christian Abundant Life Learning,77 Bowman St,Pyrmont,NSW,2009,77 Bowman St.Pyrmont.NSW.2009,-33.8670568,151.1910983,,,,,,84 057 800 404,Cancelled,Trading Name (Historic),99% ABN Accuracy
Religious Organisations,Christian Brethren Assemblies,Cnr Wattle and Morris Rds,Redcliffe,QLD,4020,Cnr Wattle and Morris Rds.Redcliffe.QLD.4020,-27.2301911,153.1096112,,,,,,,,,
Religious Organisations,Christian Brethren Assemblies,38 Woking St,Grovely,QLD,4054,38 Woking St.Grovely.QLD.4054,-27.3998245,152.9655105,,,,,,,,,
Religious Organisations,Christian Brethren Assemblies,788 Sandgate Rd,Clayfield,QLD,4011,788 Sandgate Rd.Clayfield.QLD.4011,-27.4166764,153.0577971,,,,,,,,,
Religious Organisations,Christian Brethren Assemblies,Cnr Waterworks Rd and Killawarra St,Ashgrove,QLD,4060,Cnr Waterworks Rd and Killawarra St.Ashgrove.QLD.4060,-27.4470992,152.9842887,,,,,,,,,
Religious Organisations,Christian Brethren Assemblies,11 Curve Ave,Wynnum North,QLD,4178,11 Curve Ave.Wynnum North.QLD.4178,-27.4370152,153.1558322,,,,,,,,,
Religious Organisations,Christian Brethren Assemblies,161 Preston Rd,Manly West,QLD,4179,161 Preston Rd.Manly West.QLD.4179,-27.4548123,153.1699666,,,,,,,,,
Religious Organisations,Christian Brethren Assemblies,217 Cavendish Rd,Coorparoo,QLD,4151,217 Cavendish Rd.Coorparoo.QLD.4151,-27.4964439,153.0601026,,,,,,,,,
Religious Organisations,"Christian Gospel Centre, Thornlands",131 Boundary Rd,Thornlands,QLD,4164,131 Boundary Rd.Thornlands.QLD.4164,-27.5679822,153.2485825,,christiangospelcentre@yahoo.com.au,,,,,,,
Religious Organisations,Christian Hope Centre,Level 1 9 Trickett St,Surfers Paradise,QLD,4217,Level 1 9 Trickett St.Surfers Paradise.QLD.4217,-28.0035864,153.430492,,,,,,57 452 208 242,Active,DGR Name,99% ABN Accuracy
Religious Organisations,Christian Life Ministries International,2216 Wynnum Rd,Wynnum,QLD,4178,2216 Wynnum Rd.Wynnum.QLD.4178,-27.4446441,153.1570288,,,,,,,,,
Religious Organisations,Christian Media Act,27 Rae St,Belconnen,ACT,2617,27 Rae St.Belconnen.ACT.2617,-35.2360689,149.0618858,,,,,,,,,
Religious Organisations,Christian Men's Network,Lot 42 Cowpasture Rd,Sutherland,NSW,2232,Lot 42 Cowpasture Rd.Sutherland.NSW.2232,-33.9195386,150.8519557,,,,,,,,,
Religious Organisations,Christian Outreach Centre Harvest Point,Walker Rd,Gleneagle,QLD,4285,Walker Rd.Gleneagle.QLD.4285,-27.9234279,152.9780439,,,,,,,,,
Religious Organisations,Christian Outreach Centre Singleton,Lot 2 Adair St,Broke,NSW,2330,Lot 2 Adair St.Broke.NSW.2330,-32.7465863,151.1033339,,,,,,,,,
Religious Organisations,Christian Traders Service & Employment Directory,Lot 28/ Pacific Hwy,Johns River,NSW,2443,Lot 28/ Pacific Hwy.Johns River.NSW.2443,-33.2868935,151.4240578,,,,,,,,,
Religious Organisations,Christianity Explained Ministry,85 Ferndale St,Annerley,QLD,4103,85 Ferndale St.Annerley.QLD.4103,-27.517974,153.0342814,,mbennett@powerup.com.au,http://http://www.christianityexplained.com/,,,18 899 741 475,Active,Trading Name,99% ABN Accuracy
Religious Organisations,Christmas Bowl Appeal,379 Kent St,Sydney,NSW,2000,379 Kent St.Sydney.NSW.2000,-33.8696914,151.2044387,,,,,,,,,
Religious Organisations,Church Missionary Society Conference Centre,2 Violet St,Katoomba,NSW,2780,2 Violet St.Katoomba.NSW.2780,-33.7293731,150.3004285,,,,,,,,,
Religious Organisations,Church Of The First Born First Love,8 Albert Lane,Taree,NSW,2430,8 Albert Lane.Taree.NSW.2430,-31.9136879,152.4586211,,,,,,,,,
Religious Organisations,Church@theHUB,25 Eggins Lane,Lismore,NSW,2480,25 Eggins Lane.Lismore.NSW.2480,-28.808947,153.2778819,,churchatthehub@gmail.com,,,,,,,
Religious Organisations,Churches Of Christ Opportunity Shop,154 Best Rd,Seven Hills,NSW,2147,154 Best Rd.Seven Hills.NSW.2147,-33.7758879,150.9356316,,,,,,,,,
Religious Organisations,CLC (Christian Life Community),102 Mona Vale Rd,Pymble,NSW,2073,102 Mona Vale Rd.Pymble.NSW.2073,-33.7368255,151.1511472,,,,,,,,,
Religious Organisations,CLRI (New South Wales),72 Rosebery Ave,Rosebery,NSW,2018,72 Rosebery Ave.Rosebery.NSW.2018,-33.9161525,151.2074666,,,,,,,,,
Religious Organisations,CMCC Ministries Ltd,170 Mayers St,Manunda,QLD,4870,170 Mayers St.Manunda.QLD.4870,-16.914056,145.743496,,,,,,,,,
Religious Organisations,CMCC Ministries Ltd,233 Robert Rd,Bentley Park,QLD,4869,233 Robert Rd.Bentley Park.QLD.4869,-17.0127009,145.7283424,,,,,,,,,
Religious Organisations,Coffs Harbour Bible Church Inc,26 Hi Tech Dr,Toormina,NSW,2452,26 Hi Tech Dr.Toormina.NSW.2452,-30.3425411,153.0899185,,admin@coffsbiblechurch.com,http://www.coffsbiblechurch.com,,1981,,,,
Religious Organisations,Col Stringer Ministries Inc,,Mudgeeraba,QLD,4213,.Mudgeeraba.QLD.4213,-28.0905164,153.3662878,,nicky@colstringer.com,,,,91 058 892 925,Active,Entity Name,99% ABN Accuracy
Religious Organisations,Community Services Australia Uniting Church,Collett Pl,Pearce,ACT,2607,Collett Pl.Pearce.ACT.2607,-35.3627276,149.0827196,,,,,,,,,
Religious Organisations,Convent Missionaries Of Charity,Third St,Katherine,NT,850,Third St.Katherine.NT.850,-14.4623399,132.2664043,,,,,,,,,
Religious Organisations,Cornerstone (Multicultural) Christian Fellowship,16 Undoolya St,Tiwi,NT,810,16 Undoolya St.Tiwi.NT.810,-12.3644162,130.8740867,,ccfmulticultural@gmail.com,http://ccfmulticultural.wix.com/ccfmulticultural,,,,,,
Religious Organisations,Cornerstone Students,668 Chapple St,Broken Hill,NSW,2880,668 Chapple St.Broken Hill.NSW.2880,-31.9416136,141.4741802,,,,,,,,,
Religious Organisations,Creation Research,23 Lyndon Rd,Capalaba,QLD,4157,23 Lyndon Rd.Capalaba.QLD.4157,-27.5644629,153.2168174,,accounts@creationresearch.net,www.creationresearch.net,,,,,,
Religious Organisations,Crosspointe Church,231 Gurwood St,Wagga Wagga,NSW,2650,231 Gurwood St.Wagga Wagga.NSW.2650,-35.1103587,147.3516449,,,,,,,,,
Religious Organisations,Crown Fianancial Ministries Australia Ltd,53 Prospect Rd,Gaythorne,QLD,4051,53 Prospect Rd.Gaythorne.QLD.4051,-27.4120245,152.9816288,,,www.crown.org.au,,,,,,
Religious Organisations,Crown Financial Ministries Australia Ltd,30 Carson Dr,Bunya,QLD,4055,30 Carson Dr.Bunya.QLD.4055,-27.377325,152.924752,,crown@crown.org.au,www.crown.org.au,,,,,,
Religious Organisations,Crystal Cathedral Ministries & Hour of Power,23 Victoria St,North Sydney,NSW,2060,23 Victoria St.North Sydney.NSW.2060,-33.8436698,151.2027085,,,,,,,,,
Religious Organisations,CWCI Australia,PO Box 670,Punchbowl,NSW,2196,PO Box 670.Punchbowl.NSW.2196,-33.9204908,151.0621695,,,Visit Our Website,,,12 286 724 219,Active,Other Name,99% ABN Accuracy
Religious Organisations,Darul Uloom Islamic Academy Of Brisbane,6 Agnes St,Buranda,QLD,4102,6 Agnes St.Buranda.QLD.4102,-27.4954781,153.0355603,,,,,,,,,
Religious Organisations,Disciples Of Jesus Fraternity,34 Collins St,Annandale,NSW,2038,34 Collins St.Annandale.NSW.2038,-33.883909,151.1699518,,,,,,,,,
Religious Organisations,Eid Ul Adha Brisbane 2009,Logan Road Rd,Upper Mt Gravatt,QLD,4122,Logan Road Rd.Upper Mt Gravatt.QLD.4122,-27.5511005,153.0797083,,aruf.yasin@gmail.com,,,,,,,
Religious Organisations,Emmanuel Blessings,31 Beaconsfield Rd,Chatswood,NSW,2067,31 Beaconsfield Rd.Chatswood.NSW.2067,-33.804681,151.1723418,,,,,,32 316 378 144,Active,Business Name,99% ABN Accuracy
Religious Organisations,Emmanuel Community,Central Ave CnrHerbet,Paddington,QLD,4064,Central Ave CnrHerbet.Paddington.QLD.4064,-27.4616862,152.9997811,,admin@emmanuelcommunity.com.au,http://www.emmanuelcommunity.com.au,,,42 725 286 045,Active,Entity Name,99% ABN Accuracy
Religious Organisations,Empower Church Penrith,52 Laycock St,Cranebrook,NSW,2749,52 Laycock St.Cranebrook.NSW.2749,-33.7201976,150.7090387,,info.penrith@empowerchurch.com.au,http://www.empowerchurch.com.au/penrith,,,,,,
Religious Organisations,Empower Church Penrith,4/5 Production Pl South,Penrith,NSW,2750,4/5 Production Pl South.Penrith.NSW.2750,-33.7687914,150.6851671,,info.penrith@empowerchurch.com.au,http://www.empowerchurch.com.au/penrith,,,,,,
Religious Organisations,Empowered For Purpose,46 Maxwell St,Turramurra,NSW,2074,46 Maxwell St.Turramurra.NSW.2074,-33.750743,151.1142652,,,http://www.empoweredforpurpose.com,,,30 023 132 107,Cancelled,Trading Name,99% ABN Accuracy
Religious Organisations,Endless Praise Music Group,43 Helena St,Ellalong,NSW,2325,43 Helena St.Ellalong.NSW.2325,-32.9153013,151.3076026,,,,,,,,,
Religious Organisations,Epping Christian Life Centre,Cnr Ryde and George Sts,Epping,NSW,2121,Cnr Ryde and George Sts.Epping.NSW.2121,-33.7748025,151.0681524,,,,,,47 155 412 646,Active,Trading Name,99% ABN Accuracy
Religious Organisations,Evangelism Explosion Ministries Australia,81 Wentworth St,Port Kembla,NSW,2505,81 Wentworth St.Port Kembla.NSW.2505,-34.4815746,150.9018521,,,,,,,,,
Religious Organisations,Faith & Life Institute,L 1 24 Mcdougall St,Milton,QLD,4064,L 1 24 Mcdougall St.Milton.QLD.4064,-27.4706151,153.0074054,,,http://www.fli.com.au/,,,,,,
Religious Organisations,Faith Baptist Christian School,1315 Dawson Hwy,Burua,QLD,4680,1315 Dawson Hwy.Burua.QLD.4680,-23.9362099,151.2204896,,,,,,46 059 686 944,Active,Entity Name,99% ABN Accuracy
Religious Organisations,Faith Revival Christian Church [FReN-Australia],3 Cuthbert Dr,Ormeau,QLD,4208,3 Cuthbert Dr.Ormeau.QLD.4208,-27.7627606,153.2457716,,frenministries@gmail.com,www.faithrevival.org.au,,,,,,
Religious Organisations,Family The,72 Coral Tree Dr,Carlingford,NSW,2118,72 Coral Tree Dr.Carlingford.NSW.2118,-33.7612622,151.047704,,,,,,,,,
Religious Organisations,Force Ten,379 Kent St,Sydney,NSW,2000,379 Kent St.Sydney.NSW.2000,-33.8696914,151.2044387,,,,,,42 663 966 200,Cancelled,Entity Name,99% ABN Accuracy
Religious Organisations,Forsdike Adam John,25 Yarraman Pl,Virginia,QLD,4014,25 Yarraman Pl.Virginia.QLD.4014,-27.3759573,153.0576936,,,,,,,,,
Religious Organisations,Forum on Australia's Islamic Relations (F.A.I.R),,Regents Park,NSW,2143,.Regents Park.NSW.2143,-33.8835858,151.0233446,,,,,,,,,
Religious Organisations,Foursquare Church Australia,10 Elswick Pl,Coffs Harbour,NSW,2450,10 Elswick Pl.Coffs Harbour.NSW.2450,-30.3148228,153.0899612,,,,,,,,,
Religious Organisations,Foursquare Church Australia,2 - 14 Bridge Rd,Westmead,NSW,2145,2 - 14 Bridge Rd.Westmead.NSW.2145,-33.8165743,150.9806075,,webadmin@foursquareaustralia.org,www.foursquareaustralia.org,,,,,,
Religious Organisations,Freedom Life Centre,22 Lovett St,Rangeville,QLD,4350,22 Lovett St.Rangeville.QLD.4350,-27.5809622,151.9777546,,,,,,12 107 368 570,Active,Business Name,99% ABN Accuracy
Religious Organisations,Friends Of The Western Buddhist Order (FWBO),,Minto,NSW,2566,.Minto.NSW.2566,-34.031726,150.8474521,,,,,,,,,
Religious Organisations,Gayndah Assembly of God,17 Meyer St,Gayndah,QLD,4625,17 Meyer St.Gayndah.QLD.4625,-25.6281039,151.6140677,,,,,,,,,
Religious Organisations,Gideons International In Aust Inc,33 Colbeck St,Mawson,ACT,2607,33 Colbeck St.Mawson.ACT.2607,-35.3559597,149.0983909,,,,,,,,,
Religious Organisations,Gnostic Movement The,,Bondi Junction,NSW,2022,.Bondi Junction.NSW.2022,-33.8928168,151.2551822,,,,,,,,,
Religious Organisations,Gold Coast Church of Christ,Merrimac State Primary School Cnr Boowaggan Rd and Gooding Drv,Merrimac,QLD,4226,Merrimac State Primary School Cnr Boowaggan Rd and Gooding Drv.Merrimac.QLD.4226,-28.0399492,153.3772126,,wthornton6@bigpond.com,www.goldcoastchurchofchrist.org,,,,,,
Religious Organisations,Golden West Baptist Church,72 Bant St,Bathurst,NSW,2795,72 Bant St.Bathurst.NSW.2795,-33.436551,149.5757374,,gwbaptist@gmx.com,http://www.eternityvideo.org,,,27 713 170 516,Active,Trading Name,99% ABN Accuracy
Religious Organisations,Golden Wheel Buddhist Association,405 Galston Rd,Galston,NSW,2159,405 Galston Rd.Galston.NSW.2159,-33.6616812,151.0405917,,,,,,,,,
Religious Organisations,Grace Tabernacle Christian Centre,24- 26 Harp St,Campsie,NSW,2194,24- 26 Harp St.Campsie.NSW.2194,-33.9247657,151.1009553,,,,,,58 478 730 908,Active,Trading Name,99% ABN Accuracy
Religious Organisations,Greek Orthodox Church Of Dormition Of Our Lady,133 Ernest St,Innisfail,QLD,4860,133 Ernest St.Innisfail.QLD.4860,-17.5189045,146.0273412,,,,,,,,,
Religious Organisations,Gunundi Anglican Camp & Conference Centre,Shelly Beach Rd,East Ballina,NSW,2478,Shelly Beach Rd.East Ballina.NSW.2478,-28.8615539,153.5942858,,,,,,,,,
Religious Organisations,Hare Krishna Catering,Cnr Falcon & Miller Sts 180 Falcon St,North Sydney,NSW,2060,Cnr Falcon & Miller Sts 180 Falcon St.North Sydney.NSW.2060,-33.8286757,151.2094573,,,,,,,,,
Religious Organisations,Hare Krishna Centre,44 Limestone Ave,Ainslie,ACT,2602,44 Limestone Ave.Ainslie.ACT.2602,-35.2749865,149.1425182,,,,,,,,,
Religious Organisations,Hawkesbury Valley Baptist Church,14/ 26 Terrace Rd,North Richmond,NSW,2754,14/ 26 Terrace Rd.North Richmond.NSW.2754,-33.5785153,150.7231156,,,,,,45 978 366 061,Active,Entity Name,99% ABN Accuracy
Religious Organisations,Health Care In Christ Inc,11 Blaxland Rd,Bellevue Hill,NSW,2023,11 Blaxland Rd.Bellevue Hill.NSW.2023,-33.8841716,151.2634722,,,,,,15 055 892 727,Active,Entity Name,99% ABN Accuracy
Religious Organisations,Heritage Christian Centre,58 Woondooma St,Bundaberg,QLD,4670,58 Woondooma St.Bundaberg.QLD.4670,-24.8684436,152.350786,,,,,,59 363 542 341,Active,Business Name,99% ABN Accuracy
Religious Organisations,Hills Christian Family The,52 Plucks Rd,Arana Hills,QLD,4054,52 Plucks Rd.Arana Hills.QLD.4054,-27.3910183,152.9548807,,,,,,,,,
Religious Organisations,Holy Family Church & Centre,168-174 Palmerston St,Gulliver,QLD,4812,168-174 Palmerston St.Gulliver.QLD.4812,-19.2802548,146.7715921,,,,,,,,,
Religious Organisations,Horsley Christian Church,82 Bong Bong Rd,Horsley,NSW,2530,82 Bong Bong Rd.Horsley.NSW.2530,-34.490761,150.7786825,,don.burgess@exemail.com.au,http://www.horsleychristianchurch.org.au,,,,,,
Religious Organisations,Hour Of Power,23 Victoria St,North Sydney,NSW,2060,23 Victoria St.North Sydney.NSW.2060,-33.8436698,151.2027085,,,,,,68 057 953 152,Active,Business Name,99% ABN Accuracy
Religious Organisations,House Of God Alliance Fellowship,4 Tuross St,Seven Hills,NSW,2147,4 Tuross St.Seven Hills.NSW.2147,-33.7928289,150.9292569,,,http://www.facebook.com/houseofgodalliancefellowship,,,77 162 916 199,Active,Entity Name,99% ABN Accuracy
Religious Organisations,Ignatian Centre Of Spirituality,102 Mona Vale Rd,Pymble,NSW,2073,102 Mona Vale Rd.Pymble.NSW.2073,-33.7368255,151.1511472,,,,,,,,,
Religious Organisations,Ilgingerry Pastoral Co,183 Ilgingerry Rd,Wuuluman,NSW,2820,183 Ilgingerry Rd.Wuuluman.NSW.2820,-32.5228954,148.9685766,,,,,,93 533 876 691,Active,Other Name,99% ABN Accuracy
Religious Organisations,Indo Chinese Mission Training,9 Lime St,Cabramatta West,NSW,2166,9 Lime St.Cabramatta West.NSW.2166,-33.8878867,150.9108728,,,,,,,,,
Religious Organisations,Institude of the Blessed Virgen Mary,60 Boundary St,Clovelly,NSW,2031,60 Boundary St.Clovelly.NSW.2031,-33.909868,151.2637782,,,,,,,,,
Religious Organisations,Institute For Mission,1-5 Marion St,Blacktown,NSW,2148,1-5 Marion St.Blacktown.NSW.2148,-33.7755139,150.9084188,,office@ifm.org.au,www.ifm.org.au,,,82 969 784 671,Active,Trading Name,99% ABN Accuracy
Religious Organisations,Institute Of Religious Women,Busby St,Bathurst,NSW,2795,Busby St.Bathurst.NSW.2795,-33.4322205,149.5756847,,,,,,,,,
Religious Organisations,Institute Of Religious Women,34 Bedford St,Willoughby,NSW,2068,34 Bedford St.Willoughby.NSW.2068,-33.7943013,151.20198,,,,,,,,,
Religious Organisations,Institute Of Religious Women,78 Prospect Rd,Summer Hill,NSW,2130,78 Prospect Rd.Summer Hill.NSW.2130,-33.894347,151.1327707,,,,,,,,,
Religious Organisations,Iskcon Hare Krishna Sydney,180 Falcon St,North Sydney,NSW,2060,180 Falcon St.North Sydney.NSW.2060,-33.8286757,151.2094573,,,,,,,,,
Religious Organisations,Iskcon Incorporated,Cnr Falcon and Miller Sts,North Sydney,NSW,2060,Cnr Falcon and Miller Sts.North Sydney.NSW.2060,-33.829414,151.20874,,,,,,,,,
Religious Organisations,Islamic Centre of Campbelltown,Westmoreland Rd,Leumeah,NSW,2560,Westmoreland Rd.Leumeah.NSW.2560,-34.0437372,150.8486639,,,,,,,,,
Religious Organisations,Islamic Converts Australia,,Greenacre,NSW,2190,.Greenacre.NSW.2190,-33.903467,151.0645563,,,,,,,,,
Religious Organisations,Islamic Education As-Salaam Institute for Islamic Studies,2674 Logan Rd,Eight Mile Plains,QLD,4113,2674 Logan Rd.Eight Mile Plains.QLD.4113,-27.5865622,153.1048709,,,,,,,,,
Religious Organisations,Islamic Science Culture & Art Association,57 Queen St,Auburn,NSW,2144,57 Queen St.Auburn.NSW.2144,-33.8500381,151.0317163,,,,,,,,,
Religious Organisations,Islamic Society Of Penshurst,447 Forrest Rd,Penshurst,NSW,2222,447 Forrest Rd.Penshurst.NSW.2222,-33.9633723,151.0837791,,,,,,,,,
Religious Organisations,Islamic Society Of The Gold Coast Inc,Cnr Olsen Ave Lot 1 Allied Dr,Arundel,QLD,4214,Cnr Olsen Ave Lot 1 Allied Dr.Arundel.QLD.4214,-27.9472812,153.3743061,,,,,,,,,
Religious Organisations,Islamic Society of West End,12 Princhester St,West End,QLD,4101,12 Princhester St.West End.QLD.4101,-27.4812737,153.0106877,,,,,,,,,
Religious Organisations,Jehovahs Witness Hall,4 Normanby Hill Rd,Gympie,QLD,4570,4 Normanby Hill Rd.Gympie.QLD.4570,-26.2102144,152.6698918,,,,,,,,,
Religious Organisations,Jehovah's Witnesses - Mudgee,183 Market St,Mudgee,NSW,2850,183 Market St.Mudgee.NSW.2850,-32.587854,149.575229,,,,,,,,,
Religious Organisations,Jesus Calls International Incorporated,31 Brucedale Dr,Baulkham Hills,NSW,2153,31 Brucedale Dr.Baulkham Hills.NSW.2153,-33.7457809,150.9858773,,,,,,,,,
Religious Organisations,Jewish Community Information Service,146 Darlinghurst Rd,Darlinghurst,NSW,2010,146 Darlinghurst Rd.Darlinghurst.NSW.2010,-33.8788905,151.2202846,,,,,,,,,
Religious Organisations,Jewish Educational Institute - Chabad Brisbane,,Carindale,QLD,4152,.Carindale.QLD.4152,-27.5198367,153.1125044,,,www.chabadbrisbane.com,,,,,,
Religious Organisations,Jews For Jesus Judaica Books and Gifts,Shop 1 257 Oxford St,Bondi Junction,NSW,2022,Shop 1 257 Oxford St.Bondi Junction.NSW.2022,-33.8912632,151.2530269,,admin@jewsforjesus.org.au,http://www.jewsforjesus.org.au,,,,,,
Religious Organisations,Kagyu E-Vam Buddhist Institute K,49 High St,Parramatta,NSW,2150,49 High St.Parramatta.NSW.2150,-33.8243718,151.0062713,,,,,,,,,
Religious Organisations,Kihilla Conference Centre,5 Queens Rd,Lawson,NSW,2783,5 Queens Rd.Lawson.NSW.2783,-33.7158549,150.4461774,,,,,,,,,
Religious Organisations,Kingdom Hall Jehovahs Witnesses,183 Market St,Mudgee,NSW,2850,183 Market St.Mudgee.NSW.2850,-32.587854,149.575229,,,http://www.jw.org,,,,,,
Religious Organisations,Kyogle Presbyterian Church,Strath Eden St,Kyogle,NSW,2474,Strath Eden St.Kyogle.NSW.2474,-28.621536,153.0058387,,,,,,91 193 718 192,Active,Trading Name,99% ABN Accuracy
Religious Organisations,Lakes Evangelical Church Incorporated The,6 Pioneer Ave,Tuggerah,NSW,2259,6 Pioneer Ave.Tuggerah.NSW.2259,-33.3165701,151.4223054,,,,,,,,,
Religious Organisations,Liberty Christian Church,Cnr Kingston and Queens Rds,Logan Central,QLD,4114,Cnr Kingston and Queens Rds.Logan Central.QLD.4114,-27.640843,153.1075126,,,,,,71 919 237 635,Active,Entity Name,99% ABN Accuracy
Religious Organisations,Lin Yim Buddhist Instute Sydney Inc,,Rossmore,NSW,2557,.Rossmore.NSW.2557,-33.9391886,150.7740972,,,,,,,,,
Religious Organisations,Living Hope Fellowship Centre,42 George St,Rockdale,NSW,2216,42 George St.Rockdale.NSW.2216,-33.9507676,151.1413746,,,,,,,,,
Religious Organisations,Loyal Orange Institution of NSW,161 Parramatta Rd,Annandale,NSW,2038,161 Parramatta Rd.Annandale.NSW.2038,-33.8879205,151.1656275,,,,,,,,,
Religious Organisations,Maranatha Christian Camp Site,View St,Lidsdale,NSW,2790,View St.Lidsdale.NSW.2790,-33.3711681,150.0757483,,,,,,,,,
Religious Organisations,Maria Tak,2 Victoria St,Wentworth Falls,NSW,2782,2 Victoria St.Wentworth Falls.NSW.2782,-33.7120661,150.3609094,,,,,,,,,
Religious Organisations,Marist Bros Monastery,8 Keen St,Lismore,NSW,2480,8 Keen St.Lismore.NSW.2480,-28.8042663,153.281778,,,,,,,,,
Religious Organisations,Marist Bros Monastery,2 Clarence St,Grafton,NSW,2460,2 Clarence St.Grafton.NSW.2460,-29.6956975,152.9382906,,,,,,,,,
Religious Organisations,Marist Brothers Provincial House,14 Drummoyne Ave,Drummoyne,NSW,2047,14 Drummoyne Ave.Drummoyne.NSW.2047,-33.8426272,151.1520751,,,,,,,,,
Religious Organisations,Marist Fathers Centre,141 Harrington St,The Rocks,NSW,2000,141 Harrington St.The Rocks.NSW.2000,-33.8629972,151.206259,,,,,,,,,
Religious Organisations,Marist Fathers Parish Community,36 Arkana St,The Gap,QLD,4061,36 Arkana St.The Gap.QLD.4061,-27.4388052,152.9472786,,,,,,,,,
Religious Organisations,Maryborough City Church,330 Alice St,Maryborough,QLD,4650,330 Alice St.Maryborough.QLD.4650,-25.5381666,152.6956187,,,,,,43 105 248 070,Active,Entity Name,99% ABN Accuracy
Religious Organisations,Mater Christi Respite Centre,,Toormina,NSW,2452,.Toormina.NSW.2452,-30.3514921,153.0904445,,info@scca.net.au,www.scca.net.au/,,,,,,
Religious Organisations,Millo Christian Media,Suite 4 17 Fitzmaurice St,Wagga Wagga,NSW,2650,Suite 4 17 Fitzmaurice St.Wagga Wagga.NSW.2650,-35.1080044,147.3712221,,,,,,,,,
Religious Organisations,Miracle Christian Center Maroochydore,104 Memorial Ave,Maroochydore,QLD,4558,104 Memorial Ave.Maroochydore.QLD.4558,-26.655014,153.0943811,,,,,,,,,
Religious Organisations,Miracle Christian Center Maroochydore,"Alcooringa Community Centre, 176 Balinger Rd",Buderim,QLD,4556,"Alcooringa Community Centre, 176 Balinger Rd.Buderim.QLD.4556",-26.7000297,153.0655252,,caboolture@mcc777australia.org,www.mcccaboulture.com.au,,,,,,
Religious Organisations,Mission Heart,RMG 04 203/ 20 Genge St,Canberra,ACT,2600,RMG 04 203/ 20 Genge St.Canberra.ACT.2600,-35.2770919,149.132358,,,,,,,,,
Religious Organisations,Missionaries Of Gods Love,8 Nuyts St,Red Hill,ACT,2603,8 Nuyts St.Red Hill.ACT.2603,-35.3397386,149.1288878,,,,,,37 352 577 266,Cancelled,Entity Name,99% ABN Accuracy
Religious Organisations,Missionary Dominican Sisters Of The Rosary,45 Applegum Dr,Karama,NT,812,45 Applegum Dr.Karama.NT.812,-12.3965777,130.9180706,,,,,,51 621 320 021,Active,Entity Name,99% ABN Accuracy
Religious Organisations,Missions To Seamen The,Alf O'Rourke Dr,Gladstone,QLD,4680,Alf O'Rourke Dr.Gladstone.QLD.4680,-23.8461624,151.2300839,,,,,,,,,
Religious Organisations,Mount Annan Church Community Services,347 Narellan Rd,Mt Annan,NSW,2567,347 Narellan Rd.Mt Annan.NSW.2567,-34.0486966,150.7761852,,,,,,95 268 815 800,Cancelled,Trading Name (Historic),99% ABN Accuracy
Religious Organisations,Mount Carmel Retreat Centre,St Andrews Rd,Varroville,NSW,2566,St Andrews Rd.Varroville.NSW.2566,-34.0023323,150.8202748,,,,,,,,,
Religious Organisations,Mrs. Rose Mohamed,,Abbotsbury,NSW,2176,.Abbotsbury.NSW.2176,-33.8728035,150.8671315,,mrsrosemohamed@gmail.com,,,,,,,
Religious Organisations,Mystics Of Kali,Darling St,Balmain,NSW,2041,Darling St.Balmain.NSW.2041,-33.858176,151.1836376,,,,,,,,,
Religious Organisations,Nai Tak Buddhist Association Ltd,302 McCarrs Creek Rd,Terrey Hills,NSW,2084,302 McCarrs Creek Rd.Terrey Hills.NSW.2084,-33.6742741,151.2337186,,,,,,,,,
Religious Organisations,Nanango Christian Community Church,"Cultural Centre, George",Nanango,QLD,4615,"Cultural Centre, George.Nanango.QLD.4615",-26.685837,152.0007104,,,,,,,,,
Religious Organisations,National Council of Churches in Australia,55 Homebush Rd,Strathfield,NSW,2135,55 Homebush Rd.Strathfield.NSW.2135,-33.873891,151.0863675,,,,,,64 493 941 795,Active,Entity Name,99% ABN Accuracy
Religious Organisations,Nerang Community Church,2 Arjuna Way,Gaven,QLD,4211,2 Arjuna Way.Gaven.QLD.4211,-27.9655653,153.3446419,,,,,,36 279 979 057,Active,Trading Name,99% ABN Accuracy
Religious Organisations,Northreach Student Lodge,38 Canterbury Rd,Kirwan,QLD,4817,38 Canterbury Rd.Kirwan.QLD.4817,-19.3168641,146.7179541,,,,,,,,,
Religious Organisations,NSW Ecumenical Council,379 Kent St,Sydney,NSW,2000,379 Kent St.Sydney.NSW.2000,-33.8696914,151.2044387,,,,,,41 870 337 395,Cancelled,Entity Name,99% ABN Accuracy
Religious Organisations,NSW Ecumenical Council Canberra Office,69 Northbourne Ave,Canberra City,ACT,2601,69 Northbourne Ave.Canberra City.ACT.2601,-35.2765941,149.1290672,,,,,,,,,
Religious Organisations,NSW Jewish Board of Deputies,146 Darlinghurst Rd,Darlinghurst,NSW,2010,146 Darlinghurst Rd.Darlinghurst.NSW.2010,-33.8788905,151.2202846,,mail@nswjbd.com,http://www.nswjbd.org,,,,,,
Religious Organisations,O L S H Formation House Hartzer Park,Eridge Park,Bowral,NSW,2576,Eridge Park.Bowral.NSW.2576,-34.5165198,150.4053304,,,,,,,,,
Religious Organisations,O.L.F. Parish Centre,89 Shaw St,Kingsgrove,NSW,2208,89 Shaw St.Kingsgrove.NSW.2208,-33.9405116,151.1025934,,,,,,,,,
Religious Organisations,Open Gate Church,Yeppoon Basketball Stadium Cordingley Street,Yeppoon,QLD,4703,Yeppoon Basketball Stadium Cordingley Street.Yeppoon.QLD.4703,-23.1374648,150.7433893,,,,,,66 452 460 603,Active,Entity Name,99% ABN Accuracy
Religious Organisations,Orange Prayer House,68 Endsleigh Ave,Orange,NSW,2800,68 Endsleigh Ave.Orange.NSW.2800,-33.2897466,149.1046176,,,,,,,,,
Religious Organisations,Our Lady of Walsingham,16 Jordan St,Wentworthville,NSW,2145,16 Jordan St.Wentworthville.NSW.2145,-33.8106062,150.9781252,,,,,,,,,
Religious Organisations,Palvelupiste Finnish Community Care,3 Stanley St,East Sydney,NSW,2010,3 Stanley St.East Sydney.NSW.2010,-33.8755352,151.2129097,,,,,,,,,
Religious Organisations,Parish Youth Ministry Services,143 Edward St,Brisbane,QLD,4000,143 Edward St.Brisbane.QLD.4000,-27.4694171,153.0283252,,,,,,,,,
Religious Organisations,Pastor Phil Cropper (Brisbane & Gold Coast,Gold Coast St,Surfers Paradise,QLD,4217,Gold Coast St.Surfers Paradise.QLD.4217,-27.9989733,153.4270493,,,,,,,,,
Religious Organisations,Peace Prayer Place/Shalom,7 Proctor St,Armidale,NSW,2350,7 Proctor St.Armidale.NSW.2350,-30.524577,151.6486676,,,,,,,,,
Religious Organisations,Peacemakers Ministries Ltd,125 Parker St,Cootamundra,NSW,2590,125 Parker St.Cootamundra.NSW.2590,-34.6353779,148.0268067,,,,,,,,,
Religious Organisations,Pentecostal Churches United,Police Citizens Youth Centre Hassalle St,Parramatta,NSW,2150,Police Citizens Youth Centre Hassalle St.Parramatta.NSW.2150,-33.8183583,151.0142295,,,,,,,,,
Religious Organisations,Pentecostal Churches United,Pcyc Community Hall Crn Of Cartwright and Maxwell Miller,Miller,NSW,2168,Pcyc Community Hall Crn Of Cartwright and Maxwell Miller.Miller.NSW.2168,-33.9200687,150.8761169,,,,,,,,,
Religious Organisations,Pentecostal Churches United,Fijian Services 24-26 Harp St,Campsie,NSW,2194,Fijian Services 24-26 Harp St.Campsie.NSW.2194,-33.9247657,151.1009553,,,,,,,,,
Religious Organisations,Pentecostal Churches United,Leumeah Primary School Cnr Pembroke & Burrendong St,Leumeah,NSW,2560,Leumeah Primary School Cnr Pembroke & Burrendong St.Leumeah.NSW.2560,-34.0483601,150.8387971,,,,,,,,,
Religious Organisations,Pentecostal Churches United,Fox Studios Entertainment Quarter,Moore Park,NSW,2021,Fox Studios Entertainment Quarter.Moore Park.NSW.2021,-33.896303,151.225439,,,,,,,,,
Religious Organisations,Philosophy Of Christian Womanhood,20 Malvern Ave,Croydon,NSW,2132,20 Malvern Ave.Croydon.NSW.2132,-33.8852569,151.1126725,,,,,,,,,
Religious Organisations,Project Life - International Network of Church's,17 Bavarde Ave,Batemans Bay,NSW,2536,17 Bavarde Ave.Batemans Bay.NSW.2536,-35.714957,150.1835488,,brcoc@bigpond.com,,,,,,,
Religious Organisations,Psychic healer,,Loganholme,QLD,4129,.Loganholme.QLD.4129,-27.6848624,153.1884859,,elizabethhall49@gmail.com,,,,,,,
Religious Organisations,Queensland Bioethics Centre,202 Waterworks Rd,Ashgrove,QLD,4060,202 Waterworks Rd.Ashgrove.QLD.4060,-27.4459286,152.9941094,,,,,,,,,
Religious Organisations,Queensland Murrie Chaplains,84 Park Rd,Woolloongabba,QLD,4102,84 Park Rd.Woolloongabba.QLD.4102,-27.4916789,153.0279915,,,,,,,,,
Religious Organisations,Red Shield Community Centre,45 Otho St,Inverell,NSW,2360,45 Otho St.Inverell.NSW.2360,-29.7749491,151.1118989,,,,,,,,,
Religious Organisations,Redcliffe Christian Assembly,75 Morris Rd,Rothwell,QLD,4022,75 Morris Rd.Rothwell.QLD.4022,-27.2119514,153.0612146,,,,,,96 943 089 731,Active,Business Name,99% ABN Accuracy
Religious Organisations,Redemptorist Missionaries,167 Jamison Rd,Penrith,NSW,2750,167 Jamison Rd.Penrith.NSW.2750,-33.7626851,150.7016934,,,,,,,,,
Religious Organisations,Remote Area Families Service,52 Yamala St,Emerald,QLD,4720,52 Yamala St.Emerald.QLD.4720,-23.5243345,148.1632435,,,,,,,,,
Religious Organisations,Revival Life Centre,663 King Georges Rd,Penshurst,NSW,2222,663 King Georges Rd.Penshurst.NSW.2222,-33.9661485,151.0945931,,,,,,83 054 585 093,Cancelled,Entity Name,99% ABN Accuracy
Religious Organisations,Ridgecrest Christian Education & Convention Centre,Lake Burrendong,Wellington,NSW,2820,Lake Burrendong.Wellington.NSW.2820,-32.5520391,148.9492902,,,,,,,,,
Religious Organisations,Rigpa Fellowship (Tibetan Buddhist Meditation),,Braddon,ACT,2612,.Braddon.ACT.2612,-35.2707501,149.1346368,,,,,,,,,
Religious Organisations,Russian Orthodox Monastery,32 Smith St,Kentlyn,NSW,2560,32 Smith St.Kentlyn.NSW.2560,-34.0730267,150.8618671,,abbessmaria@yahoo.com.au,www.kazanconvent.org,,1950,,,,
Religious Organisations,Saint Augustine's Priory,60 Federal Parade,Brookvale,NSW,2100,60 Federal Parade.Brookvale.NSW.2100,-33.7586342,151.2717951,,,,,,,,,
Religious Organisations,Salvation Army Corps The,42 Brisbane St,Bondi Junction,NSW,2022,42 Brisbane St.Bondi Junction.NSW.2022,-33.8953557,151.2493967,,,,,,,,,
Religious Organisations,Salvation Army Emergency Accommodation For Boys,,Surry Hills,NSW,2010,.Surry Hills.NSW.2010,-33.8867758,151.2122703,,,,,,,,,
Religious Organisations,Salvation Army Officers Quarters,171 Wolfram St,Broken Hill,NSW,2880,171 Wolfram St.Broken Hill.NSW.2880,-31.9567584,141.4596329,,,,,,,,,
Religious Organisations,Salvation Army The,90 Minnamurra Rd,Gorokan,NSW,2263,90 Minnamurra Rd.Gorokan.NSW.2263,-33.2543754,151.4949465,,,,,,,,,
Religious Organisations,Salvation Army The,Cnr Pacific Hwy and Smith St,Charlestown,NSW,2290,Cnr Pacific Hwy and Smith St.Charlestown.NSW.2290,-32.9651405,151.6968815,,,,,,,,,
Religious Organisations,Salvation Army The,2- 4 Brisbane Ave,Barton,ACT,2600,2- 4 Brisbane Ave.Barton.ACT.2600,-35.3093312,149.1383575,,,,,,,,,
Religious Organisations,Salvation Army The,South St,Tuncurry,NSW,2428,South St.Tuncurry.NSW.2428,-32.1740103,152.4900812,,,,,,,,,
Religious Organisations,Salvation Army The,47 Bowra St,Nambucca Heads,NSW,2448,47 Bowra St.Nambucca Heads.NSW.2448,-30.6412852,153.0011906,,,,,,,,,
Religious Organisations,Salvation Army The,12 Stewart Parade,Forster,NSW,2428,12 Stewart Parade.Forster.NSW.2428,-32.1727145,152.4911211,,,,,,,,,
Religious Organisations,Salvation Army The,165 Currie St,Nambour,QLD,4560,165 Currie St.Nambour.QLD.4560,-26.6287491,152.9604049,,,,,,,,,
Religious Organisations,Salvation Army The,6 Bartlett St,Noosaville,QLD,4566,6 Bartlett St.Noosaville.QLD.4566,-26.4143445,153.0416482,,,,,,,,,
Religious Organisations,Salvation Army The,Cnr Broadmeadows and New Maroochydore Rds,Maroochydore,QLD,4558,Cnr Broadmeadows and New Maroochydore Rds.Maroochydore.QLD.4558,-26.6498519,153.0822423,,,,,,,,,
Religious Organisations,Salvation Army The,9 Church St,Boonah,QLD,4310,9 Church St.Boonah.QLD.4310,-27.9989801,152.6833129,,,,,,,,,
Religious Organisations,Salvation Army The,4 West St,Boonah,QLD,4310,4 West St.Boonah.QLD.4310,-27.9935184,152.6901631,,,,,,,,,
Religious Organisations,Salvation Army The,15 Caledonian Hill,Gympie,QLD,4570,15 Caledonian Hill.Gympie.QLD.4570,-26.1906682,152.6662877,,,,,,,,,
Religious Organisations,Samaritan Foundation Anglican Care,1 Helm Cl,Salamander Bay,NSW,2317,1 Helm Cl.Salamander Bay.NSW.2317,-32.7315869,152.1102989,,,,,,,,,
Religious Organisations,Sathya Sai Centre of Central Brisbane,61 College Rd,Spring Hill,QLD,4000,61 College Rd.Spring Hill.QLD.4000,-27.4601804,153.0155274,,,,,,,,,
Religious Organisations,Sathya Sai Organisation Of Australia,84 St Georges Crst,Drummoyne,NSW,2047,84 St Georges Crst.Drummoyne.NSW.2047,-33.8485259,151.1574792,,,,,,,,,
Religious Organisations,Scalabrini Fathers,3 Lookout Dr,Mt Pritchard,NSW,2170,3 Lookout Dr.Mt Pritchard.NSW.2170,-33.9124762,150.9056239,,,,,,,,,
Religious Organisations,School For Youth Leadership,42 Greenacre Ave,Lake Munmorah,NSW,2259,42 Greenacre Ave.Lake Munmorah.NSW.2259,-33.2041241,151.5832609,,,,,,,,,
Religious Organisations,Schuller Robert Ministries,23 Victoria St,North Sydney,NSW,2060,23 Victoria St.North Sydney.NSW.2060,-33.8436698,151.2027085,,,,,,,,,
Religious Organisations,Scripture 21 (SRE),St Andrew's Hse,Sydney,NSW,2000,St Andrew's Hse.Sydney.NSW.2000,-33.873902,151.206346,,,,,,,,,
Religious Organisations,Scripture Union Hunter/Central Coast,,Tuggerah,NSW,2259,.Tuggerah.NSW.2259,-33.3092714,151.4174771,,,,,,,,,
Religious Organisations,Scripture Union N.T.,7 Rowling St,Casuarina,NT,810,7 Rowling St.Casuarina.NT.810,-12.3756339,130.8779391,,info@sunt.org.au,http://sunt.org.au,,,,,,
Religious Organisations,Seventh Day Adventist Christian Services For The Blind,148 Fox Valley Rd,Wahroonga,NSW,2076,148 Fox Valley Rd.Wahroonga.NSW.2076,-33.7324211,151.102188,,,,,,,,,
Religious Organisations,Seventh Day Adventist Reform Movement of A/asia,85 Grange Ave,Schofields,NSW,2762,85 Grange Ave.Schofields.NSW.2762,-33.6987784,150.864434,,,http://www.infosdarm.org.au,,,,,,
Religious Organisations,SHIRELIVE //,7 Stapleton Ave,Sutherland,NSW,2232,7 Stapleton Ave.Sutherland.NSW.2232,-34.0306111,151.0605091,,,,,,54 085 745 820,Active,Trading Name (Historic),99% ABN Accuracy
Religious Organisations,Sisters Of The Church Kempsey,29 Lika Dr,Kempsey,NSW,2440,29 Lika Dr.Kempsey.NSW.2440,-31.0984728,152.809698,,,,,,,,,
Religious Organisations,Society Of St Vincent De Paul Welfare Centre,97 Argent St,Broken Hill,NSW,2880,97 Argent St.Broken Hill.NSW.2880,-31.9618094,141.4605418,,,,,,,,,
Religious Organisations,South Pacific Division of Seventh Day Adventists,148 Fox Valley Rd,Wahroonga,NSW,2076,148 Fox Valley Rd.Wahroonga.NSW.2076,-33.7324211,151.102188,,,,,,,,,
Religious Organisations,Southern Cross Ministeries,11 Treeby St,Tingalpa,QLD,4173,11 Treeby St.Tingalpa.QLD.4173,-27.4726743,153.125277,,,,,,,,,
Religious Organisations,Southside Christian College,109 Golda Ave,Salisbury,QLD,4107,109 Golda Ave.Salisbury.QLD.4107,-27.5582295,153.0392718,,,,,,23 107 469 054,Active,Business Name,99% ABN Accuracy
Religious Organisations,Southside Interntional Church (Christian & Missionary Alliance),613 Beenleigh Rd,Sunnybank Hills,QLD,4109,613 Beenleigh Rd.Sunnybank Hills.QLD.4109,-27.5874382,153.0595721,,,,,,,,,
Religious Organisations,Sri Lankin Buddhist,35 Oak St,Schofields,NSW,2762,35 Oak St.Schofields.NSW.2762,-33.6896276,150.8918896,,,,,,,,,
Religious Organisations,St Catherines/Seton Community,162-166 Balaclava Rd,Marsfield,NSW,2122,162-166 Balaclava Rd.Marsfield.NSW.2122,-33.7791301,151.1041405,,,,,,,,,
Religious Organisations,St Christophorous Aged Care,112 Edwin St,Croydon,NSW,2132,112 Edwin St.Croydon.NSW.2132,-33.8825834,151.1169046,,,,,,,,,
Religious Organisations,St Joseph Foundation The,1st Floor 374 High St,Penrith,NSW,2750,1st Floor 374 High St.Penrith.NSW.2750,-33.7539644,150.6985166,,,,,,,,,
Religious Organisations,St Joseph's House Of Prayer,Taralga Rd,Kenmore,NSW,2580,Taralga Rd.Kenmore.NSW.2580,-34.5571584,149.8098006,,,,,,,,,
Religious Organisations,"St Mark Coptic Orthodox Church, Canberra-Australia",10 Maribyrnong Ave,Kaleen,ACT,2617,10 Maribyrnong Ave.Kaleen.ACT.2617,-35.2205134,149.1015299,,,http://www.stmarkact.org,,1989,,,,
Religious Organisations,St Mark's Choir,53 Darling Point Rd,Darling Point,NSW,2027,53 Darling Point Rd.Darling Point.NSW.2027,-33.8758022,151.2357907,,,,,,,,,
Religious Organisations,St Michael's House,200 Albion St,Surry Hills,NSW,2010,200 Albion St.Surry Hills.NSW.2010,-33.8837861,151.2169606,,,,,,,,,
Religious Organisations,St Vincent De Paul Socy,25 Commercial Rd,Alstonville,NSW,2477,25 Commercial Rd.Alstonville.NSW.2477,-28.840511,153.4398668,,,,,,,,,
Religious Organisations,St Vincent De Paul Socy,118 Summerland Way,Kyogle,NSW,2474,118 Summerland Way.Kyogle.NSW.2474,-28.6210786,153.0043382,,,,,,,,,
Religious Organisations,St Vincent De Paul Socy,16 Prince St,Grafton,NSW,2460,16 Prince St.Grafton.NSW.2460,-29.6919239,152.9332107,,,,,,,,,
Religious Organisations,St Vincent De Paul Socy,64 Skinner St,South Grafton,NSW,2460,64 Skinner St.South Grafton.NSW.2460,-29.7036799,152.9338773,,,,,,,,,
Religious Organisations,St Vincent De Paul Socy,123 High St,Coffs Harbour,NSW,2450,123 High St.Coffs Harbour.NSW.2450,-30.2954619,153.1123834,,,,,,,,,
Religious Organisations,St Vincent De Paul Socy,Minorca Pl,Toormina,NSW,2452,Minorca Pl.Toormina.NSW.2452,-30.3526865,153.0908662,,,,,,,,,
Religious Organisations,St Vincent De Paul Socy,15 Market Lane,Woolgoolga,NSW,2456,15 Market Lane.Woolgoolga.NSW.2456,-30.1110212,153.2016271,,,,,,,,,
Religious Organisations,St Vincent De Paul Socy,56 Woodburn St,Evans Head,NSW,2473,56 Woodburn St.Evans Head.NSW.2473,-29.1150741,153.4291307,,,,,,,,,
Religious Organisations,St Vincent De Paul Socy,100 Dalley St,Mullumbimby,NSW,2482,100 Dalley St.Mullumbimby.NSW.2482,-28.5538021,153.4997769,,,,,,,,,
Religious Organisations,St Vincent De Paul Socy,7 Fingal St,Brunswick Heads,NSW,2483,7 Fingal St.Brunswick Heads.NSW.2483,-28.5404687,153.551266,,,,,,,,,
Religious Organisations,St Vincent De Paul Socy,2 Marvel St,Byron Bay,NSW,2481,2 Marvel St.Byron Bay.NSW.2481,-28.6454222,153.6135104,,,,,,,,,
Religious Organisations,St Vincent De Paul Socy,7 Martin St,Ballina,NSW,2478,7 Martin St.Ballina.NSW.2478,-28.8714093,153.5639671,,,,,,,,,
Religious Organisations,St Vincent de Paul Socy,42 The Parade,Tumbarumba,NSW,2653,42 The Parade.Tumbarumba.NSW.2653,-35.7753703,148.0104572,,,,,,,,,
Religious Organisations,Sukyo Mahikari (Sydney Centre),87 Stanley St,Chatswood,NSW,2067,87 Stanley St.Chatswood.NSW.2067,-33.7934133,151.1933854,,,,,,,,,
Religious Organisations,Sukyo Mahikari Brisbane,,Brisbane,QLD,4000,.Brisbane.QLD.4000,-27.4660994,153.023588,,,,,,,,,
Religious Organisations,Sukyo Mahikari Canberra Centre,3 Mulley St,Holder,ACT,2611,3 Mulley St.Holder.ACT.2611,-35.330041,149.048962,,enquiries@sukyomahikari.org.au,http://www.sukyomahikari.org.au,,,,,,
Religious Organisations,Sukyo Mahikari Nowra,,Nowra,NSW,2541,.Nowra.NSW.2541,-34.8870504,150.6005142,,,,,,,,,
Religious Organisations,Sunshine Coast Revival Fellowship,17-23 Stark Lane,Forest Glen,QLD,4556,17-23 Stark Lane.Forest Glen.QLD.4556,-26.6722374,153.0015502,,,,,,27 799 760 456,Active,Trading Name,99% ABN Accuracy
Religious Organisations,Swedenborg Book Room,22 Dudley St,Penshurst,NSW,2222,22 Dudley St.Penshurst.NSW.2222,-33.969549,151.0959442,,,,,,59 000 171 200,Active,Business Name,99% ABN Accuracy
Religious Organisations,Sydney Anglican Schools Corporation,102/ 9 Gloucester Rd,Hurstville,NSW,2220,102/ 9 Gloucester Rd.Hurstville.NSW.2220,-33.9641329,151.0975881,,,,,,63 544 529 806,Active,Business Name,99% ABN Accuracy
Religious Organisations,Sydney Anglican Schools Corporation,Level 1 420 Forest Rd,Hurstville,NSW,2220,Level 1 420 Forest Rd.Hurstville.NSW.2220,-33.9648489,151.0978247,,,www.sasc.nsw.edu.au,,,63 544 529 806,Active,Business Name,99% ABN Accuracy
Religious Organisations,Teen Missions International Australia Ltd,761 McKinnon Dr,Tewantin,QLD,4565,761 McKinnon Dr.Tewantin.QLD.4565,-26.3648934,152.9714589,,,,,,25 010 725 881,Active,Entity Name,99% ABN Accuracy
Religious Organisations,The Bahai Faith,5 Mengel St,South Mackay,QLD,4740,5 Mengel St.South Mackay.QLD.4740,-21.1588543,149.1893883,,,,,,,,,
Religious Organisations,The Father's House Christian Healing Centre,44 Wilson St,Lawson,NSW,2783,44 Wilson St.Lawson.NSW.2783,-33.7248326,150.4318923,,info@thefathershouse.com.au,http://www.thefathershouse.com.au/,,,,,,
Religious Organisations,The Green Cathedral,Booti Booti National Park,Tiona,NSW,2428,Booti Booti National Park.Tiona.NSW.2428,-32.3008369,152.5202755,,bookings@greencathedral.org.au,,,,,,,
Religious Organisations,The Jagelman Institute,30 Cowper St,Parramatta,NSW,2150,30 Cowper St.Parramatta.NSW.2150,-33.820642,151.0070671,,,,,,,,,
Religious Organisations,The Salvation Army - Sydney Heritage Centre,120 Kingland Rd,Bexley North,NSW,2207,120 Kingland Rd.Bexley North.NSW.2207,-33.9399888,151.1189752,,,,,,,,,
Religious Organisations,The Salvation Army Corps,100 Boyce Rd,Maroubra,NSW,2035,100 Boyce Rd.Maroubra.NSW.2035,-33.9395094,151.2371797,,,,,,,,,
Religious Organisations,The Society Of Aust Congregations Of The Presentation Of The Blessed Virgin Mary,23 Holborow St,Croydon Park,NSW,2133,23 Holborow St.Croydon Park.NSW.2133,-33.8886302,151.1136054,,,,,,,,,
Religious Organisations,The Spiritual Assembley Of Bahais Of The City Of Brisbane,21 Child St,Ipswich,QLD,4305,21 Child St.Ipswich.QLD.4305,-27.5995447,152.8432172,,,,,,,,,
Religious Organisations,The Wayside Chapel,29 Hughes St,Potts Point,NSW,2011,29 Hughes St.Potts Point.NSW.2011,-33.8716632,151.2244286,(02) 9356 3931,mail@thewaysidechapel.com,www.thewaysidechapel.com,,1964,88 125 771 587,Active,Business Name,99% ABN Accuracy
Religious Organisations,Theosophical Education & Retreat Centre,2115 Springbrook Rd,Springbrook,QLD,4213,2115 Springbrook Rd.Springbrook.QLD.4213,-28.1739804,153.2601226,,,,,,,,,
Religious Organisations,Thornlands Christian Gospel Church,131 Boundary Rd,Thornlands,QLD,4164,131 Boundary Rd.Thornlands.QLD.4164,-27.5679822,153.2485825,,christiangospelcentre@yahoo.com.au,,,,,,,
Religious Organisations,Tien Tak Religious (Australia) Incorp Assoc,24 Allenby Park Parade,Allambie Heights,NSW,2100,24 Allenby Park Parade.Allambie Heights.NSW.2100,-33.7663127,151.2588135,,,,,,,,,
Religious Organisations,Toormina Road Methodist Church,234 Sawtell Rd,Toormina,NSW,2452,234 Sawtell Rd.Toormina.NSW.2452,-30.34336,153.085801,,office@rodneyfox.com,http://www.ebcfellowship.com.au,,,,,,
Religious Organisations,Trustees Of Capuchin Fathers Religious,96 Catherine St,Leichhardt,NSW,2040,96 Catherine St.Leichhardt.NSW.2040,-33.8847441,151.1619401,,,,,,,,,
Religious Organisations,Trustees Of The Redemptorist Fathers,24 Garden St,Kogarah,NSW,2217,24 Garden St.Kogarah.NSW.2217,-33.97153,151.13104,,,,,,23 152 266 720,Active,Entity Name (Historic),99% ABN Accuracy
Religious Organisations,Tuggernong Church Of Christ,152 Langdon Ave,Wanniassa,ACT,2903,152 Langdon Ave.Wanniassa.ACT.2903,-35.4009527,149.0965075,,,,,,,,,
Religious Organisations,Turning Point Ministries,42 Richland Ave,Coopers Plains,QLD,4108,42 Richland Ave.Coopers Plains.QLD.4108,-27.5669108,153.0273329,,,,,,,,,
Religious Organisations,UCA Presbytery of South Moreton,Unit 106/ 58 Manila St,Beenleigh,QLD,4207,Unit 106/ 58 Manila St.Beenleigh.QLD.4207,-27.7146558,153.1998218,,,,,,,,,
Religious Organisations,United Arab Moslem Asscn The,35 Anzac St,Greenacre,NSW,2190,35 Anzac St.Greenacre.NSW.2190,-33.9017081,151.0423595,,,,,,,,,
Religious Organisations,United Bible Societies,Level 4/ 126 Barry Parade,Fortitude Valley,QLD,4006,Level 4/ 126 Barry Parade.Fortitude Valley.QLD.4006,-27.459412,153.03057,,,,,,60 078 720 706,Active,Entity Name,99% ABN Accuracy
Religious Organisations,Uniting Care QLD,L 5 193 North Qy,Brisbane,QLD,4000,L 5 193 North Qy.Brisbane.QLD.4000,-27.4681995,153.0189199,,,,,,,,,
Religious Organisations,Uniting Care Regional Mission,80 Keen St,Lismore,NSW,2480,80 Keen St.Lismore.NSW.2480,-28.8076068,153.2797995,,,,,,,,,
Religious Organisations,Urban Life Church,814-822 Old Illawarra Rd,Menai,NSW,2234,814-822 Old Illawarra Rd.Menai.NSW.2234,-34.0157847,151.0108064,,,http://www.urbanlife.net.au,,,30 251 195 188,Active,Entity Name,99% ABN Accuracy
Religious Organisations,Vijayaloka Buddhist Retreat Centre,,Minto,NSW,2566,.Minto.NSW.2566,-34.031726,150.8474521,,,,,,,,,
Religious Organisations,Vineyard Christian Fellowship Pine Rivers,36-38 Paisley Dr,Lawnton,QLD,4501,36-38 Paisley Dr.Lawnton.QLD.4501,-27.2869856,152.9887346,,,,,,,,,
Religious Organisations,Vision One Incorporated,40 Burton Lane,Samford,QLD,4520,40 Burton Lane.Samford.QLD.4520,-27.3684006,152.8966894,,,,,,,,,
Religious Organisations,Wat Buddhalavarn Inc Forest Monastery & Meditation Centre,Lot 12 Minerva Rd,Wedderburn,NSW,2560,Lot 12 Minerva Rd.Wedderburn.NSW.2560,-34.1359458,150.81788,,,,,,,,,
Religious Organisations,Way Of Australia The,31 Gilbert St,North Parramatta,NSW,2151,31 Gilbert St.North Parramatta.NSW.2151,-33.7977331,151.007681,,,,,,,,,
Religious Organisations,Westside Church Incorporated,Unit 1/ 4 Wiltona Pl,Girraween,NSW,2145,Unit 1/ 4 Wiltona Pl.Girraween.NSW.2145,-33.793959,150.94228,,admin@westsidechurch.com.au,www.westsidechurch.com.au,,,62 950 239 740,Active,Entity Name,99% ABN Accuracy
Religious Organisations,Wilcannia Sisters of Mercy,Mercy House Barrier Hwy,Wilcannia,NSW,2836,Mercy House Barrier Hwy.Wilcannia.NSW.2836,-31.7093962,143.6112164,,,,,,,,,
Religious Organisations,WorldShare,Unit 1/ 61 Great North Rd,Five Dock,NSW,2046,Unit 1/ 61 Great North Rd.Five Dock.NSW.2046,-33.8674532,151.1295745,,,,,,16 001 441 103,Active,Entity Name,99% ABN Accuracy
Religious Organisations,Youth With A Mission (YWAM),76 Federal Hwy,Watson,ACT,2602,76 Federal Hwy.Watson.ACT.2602,-35.2282497,149.1610748,,,,,,,,,
Religious Organisations,Zionist Federation of Australia (2FA),Floor 3 146 Darlinghurst Rd,Darlinghurst,NSW,2010,Floor 3 146 Darlinghurst Rd.Darlinghurst.NSW.2010,-33.878856,151.220321,,,,,,,,,